{"type": "FeatureCollection", "village": "с. Алтайский", "key": "altaisky", "offset_px": [8, 4], "mpp": 0.3818, "features": [{"type": "Feature", "properties": {"num": 1, "osm_id": 760127318, "housenumber": null, "area_m2": 49.0, "px_x": 840.9, "px_y": 739.1, "clat": 50.265577718740545, "clon": 82.34843502065662}, "geometry": {"type": "Point", "coordinates": [840.9067057818174, 739.1154720410705]}}, {"type": "Feature", "properties": {"num": 2, "osm_id": 760127319, "housenumber": null, "area_m2": 47.1, "px_x": 879.6, "px_y": 723.0, "clat": 50.26563284932819, "clon": 82.34864263351074}, "geometry": {"type": "Point", "coordinates": [879.6085468679667, 723.0381708070636]}}, {"type": "Feature", "properties": {"num": 3, "osm_id": 760127320, "housenumber": null, "area_m2": 31.2, "px_x": 870.8, "px_y": 781.4, "clat": 50.265432849999996, "clon": 82.34859545}, "geometry": {"type": "Point", "coordinates": [870.8129029721022, 781.3623188398778]}}, {"type": "Feature", "properties": {"num": 4, "osm_id": 760127316, "housenumber": null, "area_m2": 101.1, "px_x": 1541.7, "px_y": 790.8, "clat": 50.2654004701207, "clon": 82.35219456103202}, "geometry": {"type": "Point", "coordinates": [1541.7358273267746, 790.8049718886614]}}, {"type": "Feature", "properties": {"num": 5, "osm_id": 760127315, "housenumber": null, "area_m2": 35.9, "px_x": 1602.2, "px_y": 807.5, "clat": 50.26534325, "clon": 82.35251894999999}, "geometry": {"type": "Point", "coordinates": [1602.2063138112426, 807.4915454871953]}}, {"type": "Feature", "properties": {"num": 6, "osm_id": 760127327, "housenumber": null, "area_m2": 131.7, "px_x": 764.3, "px_y": 857.9, "clat": 50.265170367582535, "clon": 82.3480239804101}, "geometry": {"type": "Point", "coordinates": [764.2832502275705, 857.9075211696327]}}, {"type": "Feature", "properties": {"num": 7, "osm_id": 760127326, "housenumber": null, "area_m2": 64.2, "px_x": 793.4, "px_y": 836.0, "clat": 50.2652455, "clon": 82.34818015}, "geometry": {"type": "Point", "coordinates": [793.3953718096018, 835.9974258542061]}}, {"type": "Feature", "properties": {"num": 8, "osm_id": 760127324, "housenumber": null, "area_m2": 109.0, "px_x": 857.1, "px_y": 915.0, "clat": 50.26497455, "clon": 82.34852185}, "geometry": {"type": "Point", "coordinates": [857.0928685516119, 915.0116293281317]}}, {"type": "Feature", "properties": {"num": 9, "osm_id": 760127325, "housenumber": null, "area_m2": 142.1, "px_x": 898.2, "px_y": 896.9, "clat": 50.26503669971624, "clon": 82.34874246603486}, "geometry": {"type": "Point", "coordinates": [898.2186782211065, 896.8876228295267]}}, {"type": "Feature", "properties": {"num": 10, "osm_id": 760127323, "housenumber": null, "area_m2": 30.0, "px_x": 770.8, "px_y": 979.6, "clat": 50.26475323469605, "clon": 82.34805868748603}, "geometry": {"type": "Point", "coordinates": [770.7531181126833, 979.5510723479092]}}, {"type": "Feature", "properties": {"num": 11, "osm_id": 760127322, "housenumber": null, "area_m2": 35.8, "px_x": 726.9, "px_y": 1020.7, "clat": 50.264612050000004, "clon": 82.34782320000001}, "geometry": {"type": "Point", "coordinates": [726.8550690114498, 1020.7228612266481]}}, {"type": "Feature", "properties": {"num": 12, "osm_id": 760127321, "housenumber": null, "area_m2": 61.8, "px_x": 792.2, "px_y": 1011.3, "clat": 50.264644200617255, "clon": 82.34817363395986}, "geometry": {"type": "Point", "coordinates": [792.1806938797235, 1011.3472210392356]}}, {"type": "Feature", "properties": {"num": 13, "osm_id": 760127317, "housenumber": null, "area_m2": 52.7, "px_x": 1047.8, "px_y": 1179.1, "clat": 50.26406889810101, "clon": 82.3495449340272}, "geometry": {"type": "Point", "coordinates": [1047.8095542266965, 1179.1137866154313]}}, {"type": "Feature", "properties": {"num": 14, "osm_id": 760127328, "housenumber": null, "area_m2": 89.5, "px_x": 1189.8, "px_y": 1379.6, "clat": 50.26338151490416, "clon": 82.35030661839632}, "geometry": {"type": "Point", "coordinates": [1189.7978118285537, 1379.562048714608]}}, {"type": "Feature", "properties": {"num": 15, "osm_id": 760127332, "housenumber": null, "area_m2": 104.5, "px_x": 1381.9, "px_y": 1402.9, "clat": 50.263301459251565, "clon": 82.35133733706239}, "geometry": {"type": "Point", "coordinates": [1381.9376973360777, 1402.9069416746497]}}, {"type": "Feature", "properties": {"num": 16, "osm_id": 760127330, "housenumber": null, "area_m2": 41.8, "px_x": 1603.7, "px_y": 1358.3, "clat": 50.26345439405821, "clon": 82.35252693496338}, "geometry": {"type": "Point", "coordinates": [1603.6948188766837, 1358.3098481930792]}}, {"type": "Feature", "properties": {"num": 17, "osm_id": 760127333, "housenumber": null, "area_m2": 77.4, "px_x": 1416.6, "px_y": 1422.5, "clat": 50.2632341, "clon": 82.35152305}, "geometry": {"type": "Point", "coordinates": [1416.5570980906487, 1422.5494282841682]}}, {"type": "Feature", "properties": {"num": 18, "osm_id": 760127331, "housenumber": null, "area_m2": 57.3, "px_x": 1565.3, "px_y": 1414.1, "clat": 50.263263195707836, "clon": 82.35232103476685}, "geometry": {"type": "Point", "coordinates": [1565.3122403025627, 1414.0648948475718]}}, {"type": "Feature", "properties": {"num": 19, "osm_id": 760127334, "housenumber": null, "area_m2": 32.3, "px_x": 1512.1, "px_y": 1575.7, "clat": 50.26270901506688, "clon": 82.35203537692811}, "geometry": {"type": "Point", "coordinates": [1512.0617596060038, 1575.6673650890589]}}, {"type": "Feature", "properties": {"num": 20, "osm_id": 760127336, "housenumber": null, "area_m2": 78.8, "px_x": 1980.2, "px_y": 1843.2, "clat": 50.2617915, "clon": 82.3545465}, "geometry": {"type": "Point", "coordinates": [1980.1690282598138, 1843.2162466272712]}}, {"type": "Feature", "properties": {"num": 21, "osm_id": 760127335, "housenumber": null, "area_m2": 59.1, "px_x": 2015.6, "px_y": 1845.3, "clat": 50.26178425, "clon": 82.35473640000001}, "geometry": {"type": "Point", "coordinates": [2015.5689540207386, 1845.3303378596902]}}, {"type": "Feature", "properties": {"num": 22, "osm_id": 760127339, "housenumber": null, "area_m2": 71.0, "px_x": 1932.3, "px_y": 2029.4, "clat": 50.26115305, "clon": 82.35428974999999}, "geometry": {"type": "Point", "coordinates": [1932.3073592931032, 2029.3862613141537]}}, {"type": "Feature", "properties": {"num": 23, "osm_id": 760127338, "housenumber": null, "area_m2": 66.5, "px_x": 2001.7, "px_y": 2011.0, "clat": 50.2612162, "clon": 82.354662}, "geometry": {"type": "Point", "coordinates": [2001.699788801372, 2010.9720308631659]}}, {"type": "Feature", "properties": {"num": 24, "osm_id": 760127340, "housenumber": null, "area_m2": 127.1, "px_x": 1873.3, "px_y": 2074.8, "clat": 50.26099745, "clon": 82.35397345}, "geometry": {"type": "Point", "coordinates": [1873.3447657302022, 2074.758354410529]}}, {"type": "Feature", "properties": {"num": 25, "osm_id": 760127337, "housenumber": null, "area_m2": 130.0, "px_x": 2024.0, "px_y": 2071.9, "clat": 50.2610072, "clon": 82.35478155}, "geometry": {"type": "Point", "coordinates": [2023.9855240508914, 2071.915313079953]}}, {"type": "Feature", "properties": {"num": 26, "osm_id": 760127342, "housenumber": null, "area_m2": 54.3, "px_x": 2321.5, "px_y": 2458.3, "clat": 50.2596821545739, "clon": 82.35637731590666}, "geometry": {"type": "Point", "coordinates": [2321.4578496292233, 2458.285251200199]}}, {"type": "Feature", "properties": {"num": 27, "osm_id": 760127341, "housenumber": null, "area_m2": 55.1, "px_x": 2387.8, "px_y": 2542.3, "clat": 50.25939405, "clon": 82.3567332}, "geometry": {"type": "Point", "coordinates": [2387.7994530126452, 2542.2922289185226]}}, {"type": "Feature", "properties": {"num": 28, "osm_id": 760127302, "housenumber": null, "area_m2": 103.3, "px_x": 2642.1, "px_y": 2652.6, "clat": 50.259015600196015, "clon": 82.35809733340173}, "geometry": {"type": "Point", "coordinates": [2642.092350050807, 2652.641750253737]}}, {"type": "Feature", "properties": {"num": 29, "osm_id": 760127343, "housenumber": null, "area_m2": 60.6, "px_x": 2695.3, "px_y": 2718.2, "clat": 50.2587908, "clon": 82.35838275}, "geometry": {"type": "Point", "coordinates": [2695.2978602722287, 2718.189246110618]}}, {"type": "Feature", "properties": {"num": 30, "osm_id": 760127348, "housenumber": null, "area_m2": 95.0, "px_x": 2847.6, "px_y": 3175.5, "clat": 50.25722224953313, "clon": 82.35919998318535}, "geometry": {"type": "Point", "coordinates": [2847.641167744994, 3175.5403598472476]}}, {"type": "Feature", "properties": {"num": 31, "osm_id": 760127347, "housenumber": null, "area_m2": 47.2, "px_x": 2883.2, "px_y": 3188.5, "clat": 50.25717786563414, "clon": 82.35939090412408}, "geometry": {"type": "Point", "coordinates": [2883.23141027987, 3188.481404736638]}}, {"type": "Feature", "properties": {"num": 32, "osm_id": 760127346, "housenumber": null, "area_m2": 107.4, "px_x": 2851.5, "px_y": 3215.1, "clat": 50.25708654547645, "clon": 82.35922093314112}, "geometry": {"type": "Point", "coordinates": [2851.546522550285, 3215.107649922371]}}, {"type": "Feature", "properties": {"num": 33, "osm_id": 760127349, "housenumber": null, "area_m2": 79.6, "px_x": 2930.7, "px_y": 3282.9, "clat": 50.2568539, "clon": 82.35964580000001}, "geometry": {"type": "Point", "coordinates": [2930.7474454790354, 3282.939929150045]}}, {"type": "Feature", "properties": {"num": 34, "osm_id": 760127344, "housenumber": null, "area_m2": 62.3, "px_x": 3122.0, "px_y": 3314.6, "clat": 50.2567454, "clon": 82.36067165}, "geometry": {"type": "Point", "coordinates": [3121.9797458425164, 3314.575085170567]}}, {"type": "Feature", "properties": {"num": 35, "osm_id": 760127350, "housenumber": null, "area_m2": 77.5, "px_x": 3001.6, "px_y": 3359.7, "clat": 50.2565907848607, "clon": 82.36002579372199}, "geometry": {"type": "Point", "coordinates": [3001.5834093913436, 3359.65582755208]}}, {"type": "Feature", "properties": {"num": 36, "osm_id": 760127351, "housenumber": null, "area_m2": 103.7, "px_x": 3042.5, "px_y": 3420.9, "clat": 50.2563809, "clon": 82.3602453}, "geometry": {"type": "Point", "coordinates": [3042.5023453831673, 3420.8511877283454]}}, {"type": "Feature", "properties": {"num": 37, "osm_id": 760127345, "housenumber": null, "area_m2": 85.1, "px_x": 3243.0, "px_y": 3473.4, "clat": 50.25620049865946, "clon": 82.36132068293186}, "geometry": {"type": "Point", "coordinates": [3242.96825350821, 3473.4499304667115]}}, {"type": "Feature", "properties": {"num": 38, "osm_id": 760127352, "housenumber": null, "area_m2": 51.8, "px_x": 3121.1, "px_y": 3527.8, "clat": 50.25601425469359, "clon": 82.36066676554252}, "geometry": {"type": "Point", "coordinates": [3121.06921698153, 3527.751970142126]}}, {"type": "Feature", "properties": {"num": 39, "osm_id": 760127353, "housenumber": null, "area_m2": 73.8, "px_x": 3150.7, "px_y": 3619.7, "clat": 50.25569880881164, "clon": 82.36082561424972}, "geometry": {"type": "Point", "coordinates": [3150.6807622238994, 3619.7241558134556]}}, {"type": "Feature", "properties": {"num": 40, "osm_id": 760127354, "housenumber": null, "area_m2": 134.6, "px_x": 3178.0, "px_y": 3654.4, "clat": 50.255579882455535, "clon": 82.3609720561941}, "geometry": {"type": "Point", "coordinates": [3177.9795192480087, 3654.398461829871]}}, {"type": "Feature", "properties": {"num": 41, "osm_id": 760127355, "housenumber": null, "area_m2": 102.8, "px_x": 3485.5, "px_y": 3825.7, "clat": 50.25499225, "clon": 82.36262165}, "geometry": {"type": "Point", "coordinates": [3485.48609251529, 3825.72799019143]}}, {"type": "Feature", "properties": {"num": 42, "osm_id": 760127371, "housenumber": null, "area_m2": 126.8, "px_x": 3659.8, "px_y": 4231.1, "clat": 50.25360179778677, "clon": 82.36355687512092}, "geometry": {"type": "Point", "coordinates": [3659.82469099015, 4231.118425041437]}}, {"type": "Feature", "properties": {"num": 43, "osm_id": 759801084, "housenumber": null, "area_m2": 80.1, "px_x": 4342.2, "px_y": 4326.0, "clat": 50.2532764, "clon": 82.36721745}, "geometry": {"type": "Point", "coordinates": [4342.205306880176, 4325.987399153411]}}, {"type": "Feature", "properties": {"num": 44, "osm_id": 1327888338, "housenumber": null, "area_m2": 1479.8, "px_x": 2391.7, "px_y": 4483.9, "clat": 50.25273475, "clon": 82.35675395}, "geometry": {"type": "Point", "coordinates": [2391.6675333678722, 4483.902770355344]}}, {"type": "Feature", "properties": {"num": 45, "osm_id": 1327888337, "housenumber": null, "area_m2": 170.9, "px_x": 2470.1, "px_y": 4501.3, "clat": 50.25267505, "clon": 82.35717460000001}, "geometry": {"type": "Point", "coordinates": [2470.0823768228292, 4501.30789944157]}}, {"type": "Feature", "properties": {"num": 46, "osm_id": 1327888336, "housenumber": null, "area_m2": 115.0, "px_x": 2476.8, "px_y": 4606.2, "clat": 50.25231515, "clon": 82.35721079999999}, "geometry": {"type": "Point", "coordinates": [2476.830545909703, 4606.233835399151]}}, {"type": "Feature", "properties": {"num": 47, "osm_id": 637127274, "housenumber": null, "area_m2": 866.7, "px_x": 2711.0, "px_y": 4603.9, "clat": 50.2523231, "clon": 82.35846719999999}, "geometry": {"type": "Point", "coordinates": [2711.0404812842607, 4603.916085720062]}}, {"type": "Feature", "properties": {"num": 48, "osm_id": 637127273, "housenumber": null, "area_m2": 213.6, "px_x": 2651.4, "px_y": 4676.9, "clat": 50.2520728, "clon": 82.3581475}, "geometry": {"type": "Point", "coordinates": [2651.444081775844, 4676.888572484255]}}, {"type": "Feature", "properties": {"num": 49, "osm_id": 760127363, "housenumber": null, "area_m2": 50.3, "px_x": 2705.4, "px_y": 4690.8, "clat": 50.252024999999996, "clon": 82.35843675}, "geometry": {"type": "Point", "coordinates": [2705.3641898706555, 4690.824145622551]}}, {"type": "Feature", "properties": {"num": 50, "osm_id": 759801021, "housenumber": null, "area_m2": 70.4, "px_x": 4078.0, "px_y": 4761.2, "clat": 50.25178367433084, "clon": 82.36580037269223}, "geometry": {"type": "Point", "coordinates": [4078.0429504215717, 4761.179821550846]}}, {"type": "Feature", "properties": {"num": 51, "osm_id": 759801019, "housenumber": null, "area_m2": 91.7, "px_x": 4078.7, "px_y": 4883.6, "clat": 50.251363603658966, "clon": 82.36580392529363}, "geometry": {"type": "Point", "coordinates": [4078.7052033245564, 4883.645662203431]}}, {"type": "Feature", "properties": {"num": 52, "osm_id": 759801020, "housenumber": null, "area_m2": 81.5, "px_x": 4083.8, "px_y": 4838.9, "clat": 50.25151696761518, "clon": 82.36583101550725}, "geometry": {"type": "Point", "coordinates": [4083.7551851570606, 4838.934630185366]}}, {"type": "Feature", "properties": {"num": 53, "osm_id": 759801018, "housenumber": null, "area_m2": 62.8, "px_x": 4080.9, "px_y": 4931.0, "clat": 50.2512011, "clon": 82.3658155}, "geometry": {"type": "Point", "coordinates": [4080.86288497597, 4931.021084673703]}}, {"type": "Feature", "properties": {"num": 54, "osm_id": 759801081, "housenumber": null, "area_m2": 61.3, "px_x": 3892.0, "px_y": 4951.2, "clat": 50.25113185, "clon": 82.36480230000001}, "geometry": {"type": "Point", "coordinates": [3891.9887155219913, 4951.20979949832]}}, {"type": "Feature", "properties": {"num": 55, "osm_id": 759801082, "housenumber": null, "area_m2": 109.2, "px_x": 3893.4, "px_y": 4996.6, "clat": 50.2509763, "clon": 82.3648098}, "geometry": {"type": "Point", "coordinates": [3893.3868168517947, 4996.557773247361]}}, {"type": "Feature", "properties": {"num": 56, "osm_id": 759801017, "housenumber": null, "area_m2": 66.5, "px_x": 4074.6, "px_y": 4987.7, "clat": 50.25100666880499, "clon": 82.36578198580862}, "geometry": {"type": "Point", "coordinates": [4074.615386888385, 4987.70427300781]}}, {"type": "Feature", "properties": {"num": 57, "osm_id": 759801083, "housenumber": null, "area_m2": 91.0, "px_x": 3787.4, "px_y": 5014.4, "clat": 50.250915124841974, "clon": 82.36424121467257}, "geometry": {"type": "Point", "coordinates": [3787.3948296010494, 5014.392316173762]}}, {"type": "Feature", "properties": {"num": 58, "osm_id": 759801080, "housenumber": null, "area_m2": 88.4, "px_x": 3890.5, "px_y": 5033.0, "clat": 50.25085127515932, "clon": 82.36479406118619}, "geometry": {"type": "Point", "coordinates": [3890.452889315784, 5033.006545364857]}}, {"type": "Feature", "properties": {"num": 59, "osm_id": 759801016, "housenumber": null, "area_m2": 99.3, "px_x": 4080.1, "px_y": 5038.5, "clat": 50.25083239999999, "clon": 82.36581155}, "geometry": {"type": "Point", "coordinates": [4080.126551605761, 5038.50925457105]}}, {"type": "Feature", "properties": {"num": 60, "osm_id": 759801079, "housenumber": null, "area_m2": 95.8, "px_x": 3893.1, "px_y": 5100.8, "clat": 50.25061888118166, "clon": 82.36480823699706}, "geometry": {"type": "Point", "coordinates": [3893.09545198828, 5100.756628617644]}}, {"type": "Feature", "properties": {"num": 61, "osm_id": 759801015, "housenumber": null, "area_m2": 73.2, "px_x": 4078.4, "px_y": 5086.0, "clat": 50.2506694, "clon": 82.36580245}, "geometry": {"type": "Point", "coordinates": [4078.4301886558533, 5086.028847582638]}}, {"type": "Feature", "properties": {"num": 62, "osm_id": 759801033, "housenumber": null, "area_m2": 219.1, "px_x": 3491.8, "px_y": 5170.9, "clat": 50.250378134777534, "clon": 82.36265526792347}, "geometry": {"type": "Point", "coordinates": [3491.752927660942, 5170.9413559138775]}}, {"type": "Feature", "properties": {"num": 63, "osm_id": 759801027, "housenumber": null, "area_m2": 194.5, "px_x": 3781.9, "px_y": 5189.4, "clat": 50.2503149, "clon": 82.3642117}, "geometry": {"type": "Point", "coordinates": [3781.8928958550096, 5189.376112919301]}}, {"type": "Feature", "properties": {"num": 64, "osm_id": 759801076, "housenumber": null, "area_m2": 35.5, "px_x": 3875.2, "px_y": 5175.3, "clat": 50.2503631, "clon": 82.36471209999999}, "geometry": {"type": "Point", "coordinates": [3875.1742168217897, 5175.324428353459]}}, {"type": "Feature", "properties": {"num": 65, "osm_id": 759801078, "housenumber": null, "area_m2": 65.2, "px_x": 3889.9, "px_y": 5141.6, "clat": 50.2504787, "clon": 82.36479095}, "geometry": {"type": "Point", "coordinates": [3889.872922167182, 5141.623649761081]}}, {"type": "Feature", "properties": {"num": 66, "osm_id": 759801014, "housenumber": null, "area_m2": 145.7, "px_x": 4081.5, "px_y": 5134.1, "clat": 50.2505044, "clon": 82.36581894999999}, "geometry": {"type": "Point", "coordinates": [4081.5060115903616, 5134.131337530911]}}, {"type": "Feature", "properties": {"num": 67, "osm_id": 759801075, "housenumber": null, "area_m2": 49.8, "px_x": 3887.2, "px_y": 5249.7, "clat": 50.25010784509477, "clon": 82.3647768252242}, "geometry": {"type": "Point", "coordinates": [3887.239873126149, 5249.738403879106]}}, {"type": "Feature", "properties": {"num": 68, "osm_id": 759801077, "housenumber": null, "area_m2": 100.8, "px_x": 3891.2, "px_y": 5196.0, "clat": 50.25029215347805, "clon": 82.36479832457636}, "geometry": {"type": "Point", "coordinates": [3891.247642837465, 5196.007372535765]}}, {"type": "Feature", "properties": {"num": 69, "osm_id": 759801073, "housenumber": null, "area_m2": 32.7, "px_x": 3911.3, "px_y": 5239.4, "clat": 50.25014335, "clon": 82.364906}, "geometry": {"type": "Point", "coordinates": [3911.31979662925, 5239.387750461698]}}, {"type": "Feature", "properties": {"num": 70, "osm_id": 759801013, "housenumber": null, "area_m2": 86.0, "px_x": 4066.4, "px_y": 5200.1, "clat": 50.25027809422125, "clon": 82.36573802428411}, "geometry": {"type": "Point", "coordinates": [4066.420364752412, 5200.106045119464]}}, {"type": "Feature", "properties": {"num": 71, "osm_id": 759801032, "housenumber": null, "area_m2": 204.2, "px_x": 3487.9, "px_y": 5256.9, "clat": 50.25008331525205, "clon": 82.36263448173084}, "geometry": {"type": "Point", "coordinates": [3487.878100514412, 5256.889521129429]}}, {"type": "Feature", "properties": {"num": 72, "osm_id": 759801026, "housenumber": null, "area_m2": 315.8, "px_x": 3780.5, "px_y": 5263.4, "clat": 50.25006105, "clon": 82.36420445}, "geometry": {"type": "Point", "coordinates": [3780.5413978993893, 5263.380445338786]}}, {"type": "Feature", "properties": {"num": 73, "osm_id": 759801074, "housenumber": null, "area_m2": 38.7, "px_x": 3884.2, "px_y": 5274.4, "clat": 50.25002335, "clon": 82.36476075}, "geometry": {"type": "Point", "coordinates": [3884.2432341352105, 5274.371009837836]}}, {"type": "Feature", "properties": {"num": 74, "osm_id": 759801072, "housenumber": null, "area_m2": 56.2, "px_x": 3888.4, "px_y": 5302.4, "clat": 50.24992709268779, "clon": 82.3647828746171}, "geometry": {"type": "Point", "coordinates": [3888.3675616905093, 5302.432567160577]}}, {"type": "Feature", "properties": {"num": 75, "osm_id": 759801012, "housenumber": null, "area_m2": 111.9, "px_x": 4072.2, "px_y": 5269.7, "clat": 50.25003947556122, "clon": 82.36576903448372}, "geometry": {"type": "Point", "coordinates": [4072.2010849416256, 5269.669975869358]}}, {"type": "Feature", "properties": {"num": 76, "osm_id": 759801031, "housenumber": null, "area_m2": 206.1, "px_x": 3480.4, "px_y": 5343.9, "clat": 50.249785, "clon": 82.3625946}, "geometry": {"type": "Point", "coordinates": [3480.443607032299, 5343.856247499585]}}, {"type": "Feature", "properties": {"num": 77, "osm_id": 759801025, "housenumber": null, "area_m2": 132.9, "px_x": 3780.5, "px_y": 5365.8, "clat": 50.24970980706193, "clon": 82.36420412487807}, "geometry": {"type": "Point", "coordinates": [3780.480790786445, 5365.776876762509]}}, {"type": "Feature", "properties": {"num": 78, "osm_id": 759801071, "housenumber": null, "area_m2": 81.4, "px_x": 3889.8, "px_y": 5352.7, "clat": 50.24975460406193, "clon": 82.36479031872909}, "geometry": {"type": "Point", "coordinates": [3889.7552447393537, 5352.717430740595]}}, {"type": "Feature", "properties": {"num": 79, "osm_id": 759801070, "housenumber": null, "area_m2": 46.3, "px_x": 3917.5, "px_y": 5344.9, "clat": 50.24978134947631, "clon": 82.36493906368833}, "geometry": {"type": "Point", "coordinates": [3917.483314856887, 5344.920467607677]}}, {"type": "Feature", "properties": {"num": 80, "osm_id": 759801030, "housenumber": null, "area_m2": 172.3, "px_x": 3474.6, "px_y": 5429.8, "clat": 50.24949036028105, "clon": 82.36256337521212}, "geometry": {"type": "Point", "coordinates": [3474.622884698212, 5429.750925093889]}}, {"type": "Feature", "properties": {"num": 81, "osm_id": 759801069, "housenumber": null, "area_m2": 31.3, "px_x": 3874.3, "px_y": 5385.4, "clat": 50.249642599999994, "clon": 82.36470715}, "geometry": {"type": "Point", "coordinates": [3874.251469939947, 5385.369393356144]}}, {"type": "Feature", "properties": {"num": 82, "osm_id": 759801068, "housenumber": null, "area_m2": 72.6, "px_x": 3893.7, "px_y": 5404.7, "clat": 50.2495761967379, "clon": 82.36481122532636}, "geometry": {"type": "Point", "coordinates": [3893.6525169461966, 5404.727555330843]}}, {"type": "Feature", "properties": {"num": 83, "osm_id": 759801010, "housenumber": null, "area_m2": 61.5, "px_x": 4071.5, "px_y": 5407.5, "clat": 50.249566554849075, "clon": 82.36576537538761}, "geometry": {"type": "Point", "coordinates": [4071.5189799815416, 5407.5383976101875]}}, {"type": "Feature", "properties": {"num": 84, "osm_id": 759801011, "housenumber": null, "area_m2": 101.4, "px_x": 4076.1, "px_y": 5378.1, "clat": 50.24966765, "clon": 82.36579015}, "geometry": {"type": "Point", "coordinates": [4076.1373024731874, 5378.0667035877705]}}, {"type": "Feature", "properties": {"num": 85, "osm_id": 759801024, "housenumber": null, "area_m2": 197.0, "px_x": 3783.8, "px_y": 5439.5, "clat": 50.24945707559535, "clon": 82.36422215737062}, "geometry": {"type": "Point", "coordinates": [3783.8422910273075, 5439.454190894961]}}, {"type": "Feature", "properties": {"num": 86, "osm_id": 759801067, "housenumber": null, "area_m2": 51.9, "px_x": 3872.9, "px_y": 5435.5, "clat": 50.24947065, "clon": 82.3646998}, "geometry": {"type": "Point", "coordinates": [3872.8813306242228, 5435.496934682131]}}, {"type": "Feature", "properties": {"num": 87, "osm_id": 759801066, "housenumber": null, "area_m2": 46.5, "px_x": 3876.5, "px_y": 5451.1, "clat": 50.24941705, "clon": 82.3647192}, "geometry": {"type": "Point", "coordinates": [3876.497752740979, 5451.122580841184]}}, {"type": "Feature", "properties": {"num": 88, "osm_id": 759801065, "housenumber": null, "area_m2": 73.7, "px_x": 3887.7, "px_y": 5477.8, "clat": 50.2493257, "clon": 82.36477955000001}, "geometry": {"type": "Point", "coordinates": [3887.747808136046, 5477.753189153969]}}, {"type": "Feature", "properties": {"num": 89, "osm_id": 496463491, "housenumber": null, "area_m2": 173.8, "px_x": 2683.7, "px_y": 5494.1, "clat": 50.249269793199026, "clon": 82.35832027466958}, "geometry": {"type": "Point", "coordinates": [2683.6516145691276, 5494.0512714535]}}, {"type": "Feature", "properties": {"num": 90, "osm_id": 496463492, "housenumber": null, "area_m2": 194.4, "px_x": 2803.1, "px_y": 5495.2, "clat": 50.2492659, "clon": 82.35896115}, "geometry": {"type": "Point", "coordinates": [2803.1194351017475, 5495.186225295067]}}, {"type": "Feature", "properties": {"num": 91, "osm_id": 496463493, "housenumber": null, "area_m2": 196.6, "px_x": 2914.1, "px_y": 5495.8, "clat": 50.24926362510649, "clon": 82.35955659072127}, "geometry": {"type": "Point", "coordinates": [2914.1176306009293, 5495.849407151341]}}, {"type": "Feature", "properties": {"num": 92, "osm_id": 759801029, "housenumber": null, "area_m2": 172.4, "px_x": 3473.0, "px_y": 5510.7, "clat": 50.24921255, "clon": 82.36255464999999}, "geometry": {"type": "Point", "coordinates": [3472.996387273073, 5510.738923851401]}}, {"type": "Feature", "properties": {"num": 93, "osm_id": 759801023, "housenumber": null, "area_m2": 205.9, "px_x": 3783.9, "px_y": 5522.9, "clat": 50.249170959435276, "clon": 82.36422227480561}, "geometry": {"type": "Point", "coordinates": [3783.8641825020313, 5522.863476276398]}}, {"type": "Feature", "properties": {"num": 94, "osm_id": 759801064, "housenumber": null, "area_m2": 107.2, "px_x": 3889.3, "px_y": 5512.5, "clat": 50.24920665, "clon": 82.364788}, "geometry": {"type": "Point", "coordinates": [3889.323002308607, 5512.458902567625]}}, {"type": "Feature", "properties": {"num": 95, "osm_id": 759801062, "housenumber": null, "area_m2": 118.4, "px_x": 3961.8, "px_y": 5547.0, "clat": 50.24908815, "clon": 82.36517694999999}, "geometry": {"type": "Point", "coordinates": [3961.8285374566913, 5547.004192695022]}}, {"type": "Feature", "properties": {"num": 96, "osm_id": 759801009, "housenumber": null, "area_m2": 60.9, "px_x": 4076.5, "px_y": 5509.8, "clat": 50.24921562608004, "clon": 82.36579197972505}, "geometry": {"type": "Point", "coordinates": [4076.4783879369497, 5509.842179328203]}}, {"type": "Feature", "properties": {"num": 97, "osm_id": 496463496, "housenumber": null, "area_m2": 177.6, "px_x": 2683.1, "px_y": 5604.9, "clat": 50.24888965, "clon": 82.35831745}, "geometry": {"type": "Point", "coordinates": [2683.1250579953194, 5604.87100519985]}}, {"type": "Feature", "properties": {"num": 98, "osm_id": 496463495, "housenumber": null, "area_m2": 186.2, "px_x": 2803.0, "px_y": 5605.0, "clat": 50.2488892, "clon": 82.3589605}, "geometry": {"type": "Point", "coordinates": [2802.998266302049, 5605.002189137042]}}, {"type": "Feature", "properties": {"num": 99, "osm_id": 496463494, "housenumber": null, "area_m2": 186.8, "px_x": 2911.9, "px_y": 5605.1, "clat": 50.24888875699557, "clon": 82.35954447542}, "geometry": {"type": "Point", "coordinates": [2911.8591747507453, 5605.131333723664]}}, {"type": "Feature", "properties": {"num": 100, "osm_id": 759801028, "housenumber": null, "area_m2": 172.3, "px_x": 3472.0, "px_y": 5595.0, "clat": 50.24892353971895, "clon": 82.36254932478788}, "geometry": {"type": "Point", "coordinates": [3472.0036957859993, 5594.9914756044745]}}, {"type": "Feature", "properties": {"num": 101, "osm_id": 759801022, "housenumber": null, "area_m2": 206.5, "px_x": 3783.3, "px_y": 5603.5, "clat": 50.248894275291846, "clon": 82.36421940767926}, "geometry": {"type": "Point", "coordinates": [3783.329711407423, 5603.522640705109]}}, {"type": "Feature", "properties": {"num": 102, "osm_id": 759801063, "housenumber": null, "area_m2": 81.1, "px_x": 3884.9, "px_y": 5564.8, "clat": 50.249027250000005, "clon": 82.36476415}, "geometry": {"type": "Point", "coordinates": [3884.877040065825, 5564.757814705372]}}, {"type": "Feature", "properties": {"num": 103, "osm_id": 759801059, "housenumber": null, "area_m2": 37.6, "px_x": 3891.3, "px_y": 5606.7, "clat": 50.24888337567905, "clon": 82.36479872611301}, "geometry": {"type": "Point", "coordinates": [3891.322494700551, 5606.700094237924]}}, {"type": "Feature", "properties": {"num": 104, "osm_id": 759801008, "housenumber": null, "area_m2": 102.0, "px_x": 4072.2, "px_y": 5579.8, "clat": 50.24897555, "clon": 82.36576915}, "geometry": {"type": "Point", "coordinates": [4072.2226187363267, 5579.829426754266]}}, {"type": "Feature", "properties": {"num": 105, "osm_id": 759801061, "housenumber": null, "area_m2": 93.3, "px_x": 3889.2, "px_y": 5638.4, "clat": 50.24877472485175, "clon": 82.36478738196811}, "geometry": {"type": "Point", "coordinates": [3889.2077928110957, 5638.3739278018475]}}, {"type": "Feature", "properties": {"num": 106, "osm_id": 759801060, "housenumber": null, "area_m2": 59.9, "px_x": 3921.5, "px_y": 5616.0, "clat": 50.2488515, "clon": 82.3649606}, "geometry": {"type": "Point", "coordinates": [3921.4979743286967, 5615.9924833625555]}}, {"type": "Feature", "properties": {"num": 107, "osm_id": 759801057, "housenumber": null, "area_m2": 57.0, "px_x": 4000.9, "px_y": 5666.6, "clat": 50.24867805, "clon": 82.3653864}, "geometry": {"type": "Point", "coordinates": [4000.872847363353, 5666.556470386684]}}, {"type": "Feature", "properties": {"num": 108, "osm_id": 759800999, "housenumber": null, "area_m2": 130.7, "px_x": 4070.4, "px_y": 5634.1, "clat": 50.24878924313551, "clon": 82.36575947449207}, "geometry": {"type": "Point", "coordinates": [4070.418973326683, 5634.141569331288]}}, {"type": "Feature", "properties": {"num": 109, "osm_id": 496463500, "housenumber": null, "area_m2": 203.8, "px_x": 2688.8, "px_y": 5698.9, "clat": 50.24856705, "clon": 82.35834775}, "geometry": {"type": "Point", "coordinates": [2688.7733873799443, 5698.914993356913]}}, {"type": "Feature", "properties": {"num": 110, "osm_id": 496463499, "housenumber": null, "area_m2": 205.3, "px_x": 2773.5, "px_y": 5700.8, "clat": 50.24856045, "clon": 82.35880230000001}, "geometry": {"type": "Point", "coordinates": [2773.507648847997, 5700.839011266828]}}, {"type": "Feature", "properties": {"num": 111, "osm_id": 496463498, "housenumber": null, "area_m2": 209.1, "px_x": 2836.8, "px_y": 5701.5, "clat": 50.24855830957298, "clon": 82.35914162509816}, "geometry": {"type": "Point", "coordinates": [2836.7624318152666, 5701.4629839248955]}}, {"type": "Feature", "properties": {"num": 112, "osm_id": 496463497, "housenumber": null, "area_m2": 199.9, "px_x": 2919.6, "px_y": 5702.6, "clat": 50.24855445952023, "clon": 82.35958597440633}, "geometry": {"type": "Point", "coordinates": [2919.5951465070248, 5702.585342913866]}}, {"type": "Feature", "properties": {"num": 113, "osm_id": 759801040, "housenumber": null, "area_m2": 96.0, "px_x": 3466.5, "px_y": 5692.0, "clat": 50.2485909074146, "clon": 82.3625198248554}, "geometry": {"type": "Point", "coordinates": [3466.504509791732, 5691.960128560662]}}, {"type": "Feature", "properties": {"num": 114, "osm_id": 759801050, "housenumber": null, "area_m2": 143.9, "px_x": 3666.9, "px_y": 5696.4, "clat": 50.24857565, "clon": 82.3635949}, "geometry": {"type": "Point", "coordinates": [3666.913042202592, 5696.4079393185675]}}, {"type": "Feature", "properties": {"num": 115, "osm_id": 759801056, "housenumber": null, "area_m2": 57.8, "px_x": 3888.7, "px_y": 5719.9, "clat": 50.248495045918425, "clon": 82.36478477480291}, "geometry": {"type": "Point", "coordinates": [3888.7217819988728, 5719.905455101281]}}, {"type": "Feature", "properties": {"num": 116, "osm_id": 759801058, "housenumber": null, "area_m2": 112.9, "px_x": 3892.2, "px_y": 5672.3, "clat": 50.24865842513453, "clon": 82.3648031822021}, "geometry": {"type": "Point", "coordinates": [3892.1531699076295, 5672.277481820434]}}, {"type": "Feature", "properties": {"num": 117, "osm_id": 759801055, "housenumber": null, "area_m2": 29.6, "px_x": 3922.0, "px_y": 5710.7, "clat": 50.24852675, "clon": 82.36496345}, "geometry": {"type": "Point", "coordinates": [3922.029252834618, 5710.663159169257]}}, {"type": "Feature", "properties": {"num": 118, "osm_id": 759800998, "housenumber": null, "area_m2": 110.7, "px_x": 4073.7, "px_y": 5687.8, "clat": 50.248605030460475, "clon": 82.36577708717981}, "geometry": {"type": "Point", "coordinates": [4073.702216297388, 5687.8430054187775]}}, {"type": "Feature", "properties": {"num": 119, "osm_id": 759801039, "housenumber": null, "area_m2": 122.7, "px_x": 3467.4, "px_y": 5747.6, "clat": 50.24840005, "clon": 82.36252474999999}, "geometry": {"type": "Point", "coordinates": [3467.422623284161, 5747.598394922912]}}, {"type": "Feature", "properties": {"num": 120, "osm_id": 759801041, "housenumber": null, "area_m2": 129.2, "px_x": 3602.7, "px_y": 5747.9, "clat": 50.248399, "clon": 82.36325049999999}, "geometry": {"type": "Point", "coordinates": [3602.71222897619, 5747.904487624764]}}, {"type": "Feature", "properties": {"num": 121, "osm_id": 759801049, "housenumber": null, "area_m2": 118.2, "px_x": 3687.9, "px_y": 5781.5, "clat": 50.248283900000004, "clon": 82.3637076}, "geometry": {"type": "Point", "coordinates": [3687.921844907105, 5781.45803739503]}}, {"type": "Feature", "properties": {"num": 122, "osm_id": 759801048, "housenumber": null, "area_m2": 94.4, "px_x": 3791.7, "px_y": 5781.2, "clat": 50.2482848, "clon": 82.36426415}, "geometry": {"type": "Point", "coordinates": [3791.6702845171094, 5781.195672854781]}}, {"type": "Feature", "properties": {"num": 123, "osm_id": 759801054, "housenumber": null, "area_m2": 55.5, "px_x": 3871.4, "px_y": 5752.0, "clat": 50.2483849341058, "clon": 82.36469188283944}, "geometry": {"type": "Point", "coordinates": [3871.4054649323225, 5752.004932295531]}}, {"type": "Feature", "properties": {"num": 124, "osm_id": 759801053, "housenumber": null, "area_m2": 74.4, "px_x": 3910.2, "px_y": 5752.9, "clat": 50.248381957273544, "clon": 82.36490003761402}, "geometry": {"type": "Point", "coordinates": [3910.2083273157477, 5752.872728794813]}}, {"type": "Feature", "properties": {"num": 125, "osm_id": 759800997, "housenumber": null, "area_m2": 105.1, "px_x": 4073.5, "px_y": 5745.6, "clat": 50.248406800000005, "clon": 82.36577585}, "geometry": {"type": "Point", "coordinates": [4073.4715892598033, 5745.630655951798]}}, {"type": "Feature", "properties": {"num": 126, "osm_id": 496463501, "housenumber": null, "area_m2": 80.2, "px_x": 2687.5, "px_y": 5795.5, "clat": 50.2482358, "clon": 82.358341}, "geometry": {"type": "Point", "coordinates": [2687.515096180141, 5795.479957289994]}}, {"type": "Feature", "properties": {"num": 127, "osm_id": 496463502, "housenumber": null, "area_m2": 84.0, "px_x": 2748.3, "px_y": 5796.4, "clat": 50.2482325, "clon": 82.35866695}, "geometry": {"type": "Point", "coordinates": [2748.2765801250935, 5796.44195959717]}}, {"type": "Feature", "properties": {"num": 128, "osm_id": 496463504, "housenumber": null, "area_m2": 82.9, "px_x": 2808.5, "px_y": 5796.1, "clat": 50.248233619311215, "clon": 82.35899001297652}, "geometry": {"type": "Point", "coordinates": [2808.4998838827014, 5796.115662641823]}}, {"type": "Feature", "properties": {"num": 129, "osm_id": 496463503, "housenumber": null, "area_m2": 104.9, "px_x": 2855.9, "px_y": 5816.3, "clat": 50.24816437588667, "clon": 82.3592444883661}, "geometry": {"type": "Point", "coordinates": [2855.9375347569585, 5816.3012034446]}}, {"type": "Feature", "properties": {"num": 130, "osm_id": 496463505, "housenumber": null, "area_m2": 76.2, "px_x": 2918.8, "px_y": 5791.6, "clat": 50.248249079389545, "clon": 82.3595815895958}, "geometry": {"type": "Point", "coordinates": [2918.777758575976, 5791.608804099262]}}, {"type": "Feature", "properties": {"num": 131, "osm_id": 496463506, "housenumber": null, "area_m2": 95.1, "px_x": 2919.6, "px_y": 5846.7, "clat": 50.248060253788545, "clon": 82.3595860254393}, "geometry": {"type": "Point", "coordinates": [2919.6046597361565, 5846.654367681593]}}, {"type": "Feature", "properties": {"num": 132, "osm_id": 637127275, "housenumber": null, "area_m2": 232.8, "px_x": 3344.5, "px_y": 5808.8, "clat": 50.24819024230729, "clon": 82.36186532471976}, "geometry": {"type": "Point", "coordinates": [3344.496841482818, 5808.760740876198]}}, {"type": "Feature", "properties": {"num": 133, "osm_id": 759801038, "housenumber": null, "area_m2": 135.8, "px_x": 3465.5, "px_y": 5811.7, "clat": 50.24818028107026, "clon": 82.36251443622537}, "geometry": {"type": "Point", "coordinates": [3465.499996341765, 5811.664596363902]}}, {"type": "Feature", "properties": {"num": 134, "osm_id": 759801042, "housenumber": null, "area_m2": 157.5, "px_x": 3604.8, "px_y": 5831.4, "clat": 50.24811255, "clon": 82.36326145}, "geometry": {"type": "Point", "coordinates": [3604.7534569203854, 5831.409240461886]}}, {"type": "Feature", "properties": {"num": 135, "osm_id": 637127246, "housenumber": null, "area_m2": 75.6, "px_x": 3891.7, "px_y": 5817.5, "clat": 50.24816025, "clon": 82.364801}, "geometry": {"type": "Point", "coordinates": [3891.746377952397, 5817.503962986171]}}, {"type": "Feature", "properties": {"num": 136, "osm_id": 759800984, "housenumber": null, "area_m2": 87.1, "px_x": 4073.8, "px_y": 5804.1, "clat": 50.2482061, "clon": 82.36577785}, "geometry": {"type": "Point", "coordinates": [4073.8444162756205, 5804.137975610793]}}, {"type": "Feature", "properties": {"num": 137, "osm_id": 496463507, "housenumber": null, "area_m2": 89.7, "px_x": 2917.8, "px_y": 5902.1, "clat": 50.2478702256575, "clon": 82.35957623624746}, "geometry": {"type": "Point", "coordinates": [2917.7798221185803, 5902.05026704818]}}, {"type": "Feature", "properties": {"num": 138, "osm_id": 496463484, "housenumber": null, "area_m2": 749.2, "px_x": 3061.7, "px_y": 5899.6, "clat": 50.247878716137215, "clon": 82.36034812629002}, "geometry": {"type": "Point", "coordinates": [3061.6705551445484, 5899.575176328421]}}, {"type": "Feature", "properties": {"num": 139, "osm_id": 759801036, "housenumber": null, "area_m2": 104.8, "px_x": 3462.6, "px_y": 5885.4, "clat": 50.24792742451361, "clon": 82.36249901657355}, "geometry": {"type": "Point", "coordinates": [3462.625564917922, 5885.376011274755]}}, {"type": "Feature", "properties": {"num": 140, "osm_id": 759801037, "housenumber": null, "area_m2": 127.1, "px_x": 3464.2, "px_y": 5852.3, "clat": 50.248041, "clon": 82.36250770000001}, "geometry": {"type": "Point", "coordinates": [3464.2442729324102, 5852.267130583525]}}, {"type": "Feature", "properties": {"num": 141, "osm_id": 759801046, "housenumber": null, "area_m2": 83.9, "px_x": 3787.4, "px_y": 5906.1, "clat": 50.24785635542229, "clon": 82.36424107535034}, "geometry": {"type": "Point", "coordinates": [3787.3688580542803, 5906.093628976494]}}, {"type": "Feature", "properties": {"num": 142, "osm_id": 759801047, "housenumber": null, "area_m2": 104.9, "px_x": 3788.5, "px_y": 5861.1, "clat": 50.24801062455363, "clon": 82.3642470649672}, "geometry": {"type": "Point", "coordinates": [3788.4854035675526, 5861.1220159083605]}}, {"type": "Feature", "properties": {"num": 143, "osm_id": 637127248, "housenumber": null, "area_m2": 79.6, "px_x": 3888.0, "px_y": 5907.8, "clat": 50.24785065, "clon": 82.3647809}, "geometry": {"type": "Point", "coordinates": [3887.9994663894176, 5907.756836716086]}}, {"type": "Feature", "properties": {"num": 144, "osm_id": 637127247, "housenumber": null, "area_m2": 91.9, "px_x": 3891.0, "px_y": 5851.7, "clat": 50.2480428, "clon": 82.364797}, "geometry": {"type": "Point", "coordinates": [3891.000723913312, 5851.742404170334]}}, {"type": "Feature", "properties": {"num": 145, "osm_id": 759800985, "housenumber": null, "area_m2": 76.8, "px_x": 4069.1, "px_y": 5850.6, "clat": 50.24804660326854, "clon": 82.36575262453256}, "geometry": {"type": "Point", "coordinates": [4069.142048329115, 5850.633695520461]}}, {"type": "Feature", "properties": {"num": 146, "osm_id": 759800986, "housenumber": null, "area_m2": 93.0, "px_x": 4070.5, "px_y": 5908.0, "clat": 50.2478498, "clon": 82.3657599}, "geometry": {"type": "Point", "coordinates": [4070.4982937574387, 5908.0046231895685]}}, {"type": "Feature", "properties": {"num": 147, "osm_id": 496463511, "housenumber": null, "area_m2": 93.9, "px_x": 2685.4, "px_y": 5948.4, "clat": 50.2477114, "clon": 82.35832945}, "geometry": {"type": "Point", "coordinates": [2685.3620201200247, 5948.3500327169895]}}, {"type": "Feature", "properties": {"num": 148, "osm_id": 496463510, "housenumber": null, "area_m2": 91.0, "px_x": 2748.3, "px_y": 5945.6, "clat": 50.24772075, "clon": 82.35866685}, "geometry": {"type": "Point", "coordinates": [2748.2579387798905, 5945.6243891604245]}}, {"type": "Feature", "properties": {"num": 149, "osm_id": 496463509, "housenumber": null, "area_m2": 81.3, "px_x": 2808.2, "px_y": 5946.3, "clat": 50.24771851857428, "clon": 82.35898863570155}, "geometry": {"type": "Point", "coordinates": [2808.2431412264705, 5946.274878099561]}}, {"type": "Feature", "properties": {"num": 150, "osm_id": 496463508, "housenumber": null, "area_m2": 93.8, "px_x": 2918.0, "px_y": 5958.6, "clat": 50.247676150000004, "clon": 82.3595774}, "geometry": {"type": "Point", "coordinates": [2917.9967613220215, 5958.6258498728275]}}, {"type": "Feature", "properties": {"num": 151, "osm_id": 759801035, "housenumber": null, "area_m2": 138.2, "px_x": 3461.5, "px_y": 5917.2, "clat": 50.247818119445114, "clon": 82.36249283806026}, "geometry": {"type": "Point", "coordinates": [3461.473806552589, 5917.239929489791]}}, {"type": "Feature", "properties": {"num": 152, "osm_id": 759801045, "housenumber": null, "area_m2": 172.7, "px_x": 3784.5, "px_y": 5965.4, "clat": 50.247653, "clon": 82.36422595}, "geometry": {"type": "Point", "coordinates": [3784.549288392067, 5965.374361120164]}}, {"type": "Feature", "properties": {"num": 153, "osm_id": 637127249, "housenumber": null, "area_m2": 97.7, "px_x": 3891.8, "px_y": 5958.5, "clat": 50.247676600000005, "clon": 82.36480105000001}, "geometry": {"type": "Point", "coordinates": [3891.7556986287236, 5958.494669273496]}}, {"type": "Feature", "properties": {"num": 154, "osm_id": 759800987, "housenumber": null, "area_m2": 91.0, "px_x": 4070.4, "px_y": 5955.5, "clat": 50.247686971455025, "clon": 82.36575944394465}, "geometry": {"type": "Point", "coordinates": [4070.413278877735, 5955.471260808408]}}, {"type": "Feature", "properties": {"num": 155, "osm_id": 759801034, "housenumber": null, "area_m2": 135.9, "px_x": 3458.6, "px_y": 5972.6, "clat": 50.24762827622591, "clon": 82.36247738597035}, "geometry": {"type": "Point", "coordinates": [3458.5933282226324, 5972.581643354148]}}, {"type": "Feature", "properties": {"num": 156, "osm_id": 759801044, "housenumber": null, "area_m2": 127.8, "px_x": 3629.6, "px_y": 5988.5, "clat": 50.24757375477906, "clon": 82.36339472526898}, "geometry": {"type": "Point", "coordinates": [3629.597767755389, 5988.475298065692]}}, {"type": "Feature", "properties": {"num": 157, "osm_id": 759801043, "housenumber": null, "area_m2": 148.4, "px_x": 3677.6, "px_y": 5990.9, "clat": 50.24756542465505, "clon": 82.36365246824266}, "geometry": {"type": "Point", "coordinates": [3677.6445404440165, 5990.903627373278]}}, {"type": "Feature", "properties": {"num": 158, "osm_id": 637127250, "housenumber": null, "area_m2": 76.5, "px_x": 3886.0, "px_y": 6008.0, "clat": 50.2475068, "clon": 82.36477015}, "geometry": {"type": "Point", "coordinates": [3885.995521143079, 6007.993393141776]}}, {"type": "Feature", "properties": {"num": 159, "osm_id": 759800989, "housenumber": null, "area_m2": 45.9, "px_x": 4065.9, "px_y": 6007.1, "clat": 50.247509799999996, "clon": 82.3657351}, "geometry": {"type": "Point", "coordinates": [4065.8752386868, 6007.118858918548]}}, {"type": "Feature", "properties": {"num": 160, "osm_id": 496463525, "housenumber": null, "area_m2": 89.5, "px_x": 2686.2, "px_y": 6069.6, "clat": 50.24729549396064, "clon": 82.35833387460148}, "geometry": {"type": "Point", "coordinates": [2686.1868256255984, 6069.5913758948445]}}, {"type": "Feature", "properties": {"num": 161, "osm_id": 496463524, "housenumber": null, "area_m2": 90.1, "px_x": 2747.9, "px_y": 6068.6, "clat": 50.247298799999996, "clon": 82.3586648}, "geometry": {"type": "Point", "coordinates": [2747.8757910728455, 6068.6276319772005]}}, {"type": "Feature", "properties": {"num": 162, "osm_id": 496463523, "housenumber": null, "area_m2": 85.9, "px_x": 2807.7, "px_y": 6069.1, "clat": 50.24729720661629, "clon": 82.35898582559352}, "geometry": {"type": "Point", "coordinates": [2807.719299122691, 6069.0921194553375]}}, {"type": "Feature", "properties": {"num": 163, "osm_id": 496463543, "housenumber": null, "area_m2": 80.2, "px_x": 2916.1, "px_y": 6059.3, "clat": 50.24733092482566, "clon": 82.35956706379535}, "geometry": {"type": "Point", "coordinates": [2916.0699531137943, 6059.262916795909]}}, {"type": "Feature", "properties": {"num": 164, "osm_id": 496463490, "housenumber": null, "area_m2": 329.9, "px_x": 3216.8, "px_y": 6088.7, "clat": 50.247230099999996, "clon": 82.36118055}, "geometry": {"type": "Point", "coordinates": [3216.845581650734, 6088.654363296926]}}, {"type": "Feature", "properties": {"num": 165, "osm_id": 637127297, "housenumber": null, "area_m2": 295.5, "px_x": 3366.1, "px_y": 6058.0, "clat": 50.2473353, "clon": 82.36198135000001}, "geometry": {"type": "Point", "coordinates": [3366.1255213543773, 6057.9875082448125]}}, {"type": "Feature", "properties": {"num": 166, "osm_id": 637127251, "housenumber": null, "area_m2": 89.4, "px_x": 3885.2, "px_y": 6057.8, "clat": 50.2473361, "clon": 82.36476615}, "geometry": {"type": "Point", "coordinates": [3885.2498670890927, 6057.754299964756]}}, {"type": "Feature", "properties": {"num": 167, "osm_id": 759800988, "housenumber": null, "area_m2": 46.7, "px_x": 4065.5, "px_y": 6059.3, "clat": 50.2473308, "clon": 82.36573335}, "geometry": {"type": "Point", "coordinates": [4065.549015045166, 6059.2993047609925]}}, {"type": "Feature", "properties": {"num": 168, "osm_id": 496463542, "housenumber": null, "area_m2": 82.7, "px_x": 2916.8, "px_y": 6114.7, "clat": 50.24714075, "clon": 82.35957105}, "geometry": {"type": "Point", "coordinates": [2916.813035517931, 6114.700731217861]}}, {"type": "Feature", "properties": {"num": 169, "osm_id": 496463512, "housenumber": null, "area_m2": 997.4, "px_x": 3044.3, "px_y": 6129.8, "clat": 50.247088834286956, "clon": 82.36025492656891}, "geometry": {"type": "Point", "coordinates": [3044.2968678995967, 6129.834628917277]}}, {"type": "Feature", "properties": {"num": 170, "osm_id": 637127253, "housenumber": null, "area_m2": 199.1, "px_x": 3774.2, "px_y": 6096.2, "clat": 50.24720405, "clon": 82.3641707}, "geometry": {"type": "Point", "coordinates": [3774.2499419003725, 6096.248189091682]}}, {"type": "Feature", "properties": {"num": 171, "osm_id": 759800990, "housenumber": null, "area_m2": 52.7, "px_x": 4067.0, "px_y": 6114.8, "clat": 50.247140550000005, "clon": 82.36574114999999}, "geometry": {"type": "Point", "coordinates": [4067.003040418029, 6114.759033050388]}}, {"type": "Feature", "properties": {"num": 172, "osm_id": 496463541, "housenumber": null, "area_m2": 81.4, "px_x": 2916.5, "px_y": 6170.4, "clat": 50.24694971986677, "clon": 82.3595693616147}, "geometry": {"type": "Point", "coordinates": [2916.498297691345, 6170.387653425336]}}, {"type": "Feature", "properties": {"num": 173, "osm_id": 496463489, "housenumber": null, "area_m2": 342.2, "px_x": 3217.4, "px_y": 6198.5, "clat": 50.24685327484491, "clon": 82.3611833557754}, "geometry": {"type": "Point", "coordinates": [3217.3686160966754, 6198.502119656652]}}, {"type": "Feature", "properties": {"num": 174, "osm_id": 637127298, "housenumber": null, "area_m2": 198.9, "px_x": 3361.8, "px_y": 6183.1, "clat": 50.246906100000004, "clon": 82.3619579}, "geometry": {"type": "Point", "coordinates": [3361.7541245147586, 6183.103187382221]}}, {"type": "Feature", "properties": {"num": 175, "osm_id": 637127254, "housenumber": null, "area_m2": 210.3, "px_x": 3772.0, "px_y": 6181.3, "clat": 50.246912449999996, "clon": 82.3641586}, "geometry": {"type": "Point", "coordinates": [3771.994338415563, 6181.252113208175]}}, {"type": "Feature", "properties": {"num": 176, "osm_id": 637127252, "housenumber": null, "area_m2": 116.5, "px_x": 3886.0, "px_y": 6172.8, "clat": 50.2469416, "clon": 82.3647702}, "geometry": {"type": "Point", "coordinates": [3886.004841811955, 6172.754659280181]}}, {"type": "Feature", "properties": {"num": 177, "osm_id": 759800992, "housenumber": null, "area_m2": 76.1, "px_x": 4055.4, "px_y": 6195.0, "clat": 50.24686524516908, "clon": 82.36567872481204}, "geometry": {"type": "Point", "coordinates": [4055.3661419525743, 6195.012681111693]}}, {"type": "Feature", "properties": {"num": 178, "osm_id": 759800991, "housenumber": null, "area_m2": 58.1, "px_x": 4068.7, "px_y": 6163.9, "clat": 50.24697187445743, "clon": 82.36575037873581}, "geometry": {"type": "Point", "coordinates": [4068.7234014719725, 6163.929411679506]}}, {"type": "Feature", "properties": {"num": 179, "osm_id": 496463528, "housenumber": null, "area_m2": 94.1, "px_x": 2684.8, "px_y": 6218.2, "clat": 50.24678555585005, "clon": 82.35832652491544}, "geometry": {"type": "Point", "coordinates": [2684.816744849086, 6218.242693908513]}}, {"type": "Feature", "properties": {"num": 180, "osm_id": 496463527, "housenumber": null, "area_m2": 98.9, "px_x": 2746.2, "px_y": 6220.1, "clat": 50.2467793, "clon": 82.35865575}, "geometry": {"type": "Point", "coordinates": [2746.188748806715, 6220.066317792982]}}, {"type": "Feature", "properties": {"num": 181, "osm_id": 496463526, "housenumber": null, "area_m2": 92.1, "px_x": 2806.6, "px_y": 6219.1, "clat": 50.24678255, "clon": 82.3589797}, "geometry": {"type": "Point", "coordinates": [2806.5774057283998, 6219.118920173496]}}, {"type": "Feature", "properties": {"num": 182, "osm_id": 496463540, "housenumber": null, "area_m2": 86.5, "px_x": 2917.0, "px_y": 6225.3, "clat": 50.2467613, "clon": 82.35957205}, "geometry": {"type": "Point", "coordinates": [2916.999449029565, 6225.313441898674]}}, {"type": "Feature", "properties": {"num": 183, "osm_id": 759800993, "housenumber": null, "area_m2": 60.9, "px_x": 4069.5, "px_y": 6242.9, "clat": 50.24670097418765, "clon": 82.36575456309923}, "geometry": {"type": "Point", "coordinates": [4069.503423348069, 6242.898817680776]}}, {"type": "Feature", "properties": {"num": 184, "osm_id": 496463530, "housenumber": null, "area_m2": 209.6, "px_x": 2690.1, "px_y": 6312.3, "clat": 50.24646305, "clon": 82.35835465}, "geometry": {"type": "Point", "coordinates": [2690.059640608728, 6312.255084794015]}}, {"type": "Feature", "properties": {"num": 185, "osm_id": 496463539, "housenumber": null, "area_m2": 193.6, "px_x": 2916.0, "px_y": 6312.5, "clat": 50.2464621746999, "clon": 82.35956660687486}, "geometry": {"type": "Point", "coordinates": [2915.984776966274, 6312.510239161551]}}, {"type": "Feature", "properties": {"num": 186, "osm_id": 496463488, "housenumber": null, "area_m2": 332.8, "px_x": 3217.0, "px_y": 6311.3, "clat": 50.24646642476341, "clon": 82.36118130538719}, "geometry": {"type": "Point", "coordinates": [3216.9863960295916, 6311.271324303001]}}, {"type": "Feature", "properties": {"num": 187, "osm_id": 637127299, "housenumber": null, "area_m2": 203.9, "px_x": 3357.8, "px_y": 6293.6, "clat": 50.24652715, "clon": 82.36193685}, "geometry": {"type": "Point", "coordinates": [3357.8301201090217, 6293.569600738585]}}, {"type": "Feature", "properties": {"num": 188, "osm_id": 637127255, "housenumber": null, "area_m2": 277.7, "px_x": 3769.5, "px_y": 6312.0, "clat": 50.24646395, "clon": 82.3641452}, "geometry": {"type": "Point", "coordinates": [3769.49639736861, 6311.992730282247]}}, {"type": "Feature", "properties": {"num": 189, "osm_id": 759800983, "housenumber": null, "area_m2": 42.9, "px_x": 3986.5, "px_y": 6300.6, "clat": 50.24650312774589, "clon": 82.36530918636663}, "geometry": {"type": "Point", "coordinates": [3986.479182854295, 6300.572215951979]}}, {"type": "Feature", "properties": {"num": 190, "osm_id": 759800994, "housenumber": null, "area_m2": 56.6, "px_x": 4057.9, "px_y": 6316.3, "clat": 50.246449055728256, "clon": 82.3656922247864}, "geometry": {"type": "Point", "coordinates": [4057.8827195838094, 6316.334484599531]}}, {"type": "Feature", "properties": {"num": 191, "osm_id": 496463531, "housenumber": null, "area_m2": 54.0, "px_x": 2663.5, "px_y": 6380.1, "clat": 50.24623045, "clon": 82.35821215}, "geometry": {"type": "Point", "coordinates": [2663.4957152679563, 6380.058985926211]}}, {"type": "Feature", "properties": {"num": 192, "osm_id": 496463529, "housenumber": null, "area_m2": 129.3, "px_x": 2807.3, "px_y": 6387.3, "clat": 50.2462055, "clon": 82.3589836}, "geometry": {"type": "Point", "coordinates": [2807.304418414831, 6387.3319986611605]}}, {"type": "Feature", "properties": {"num": 193, "osm_id": 637127301, "housenumber": null, "area_m2": 451.3, "px_x": 3551.7, "px_y": 6365.4, "clat": 50.246280669084754, "clon": 82.36297709813955}, "geometry": {"type": "Point", "coordinates": [3551.746428221464, 6365.4199345856905]}}, {"type": "Feature", "properties": {"num": 194, "osm_id": 496463532, "housenumber": null, "area_m2": 177.9, "px_x": 2692.4, "px_y": 6415.4, "clat": 50.24610935, "clon": 82.3583671}, "geometry": {"type": "Point", "coordinates": [2692.380488820374, 6415.360026158392]}}, {"type": "Feature", "properties": {"num": 195, "osm_id": 496463538, "housenumber": null, "area_m2": 68.3, "px_x": 2914.3, "px_y": 6394.8, "clat": 50.24618004538437, "clon": 82.35955767491502}, "geometry": {"type": "Point", "coordinates": [2914.319738969207, 6394.752104703337]}}, {"type": "Feature", "properties": {"num": 196, "osm_id": 496463513, "housenumber": null, "area_m2": 1100.7, "px_x": 3038.6, "px_y": 6414.3, "clat": 50.24611295, "clon": 82.36022444999999}, "geometry": {"type": "Point", "coordinates": [3038.6156236752868, 6414.310615852475]}}, {"type": "Feature", "properties": {"num": 197, "osm_id": 496463487, "housenumber": null, "area_m2": 325.5, "px_x": 3217.1, "px_y": 6424.9, "clat": 50.24607667434619, "clon": 82.36118185493936}, "geometry": {"type": "Point", "coordinates": [3217.0888399779797, 6424.885069169104]}}, {"type": "Feature", "properties": {"num": 198, "osm_id": 637127300, "housenumber": null, "area_m2": 180.4, "px_x": 3353.5, "px_y": 6428.7, "clat": 50.24606369031628, "clon": 82.36191347984354}, "geometry": {"type": "Point", "coordinates": [3353.4736071899533, 6428.669947810471]}}, {"type": "Feature", "properties": {"num": 199, "osm_id": 637127256, "housenumber": null, "area_m2": 271.5, "px_x": 3769.5, "px_y": 6407.8, "clat": 50.24613545, "clon": 82.36414520000001}, "geometry": {"type": "Point", "coordinates": [3769.49639736861, 6407.751799639314]}}, {"type": "Feature", "properties": {"num": 200, "osm_id": 496463537, "housenumber": null, "area_m2": 79.7, "px_x": 2914.1, "px_y": 6451.0, "clat": 50.2459871, "clon": 82.35955630000001}, "geometry": {"type": "Point", "coordinates": [2914.0634362325072, 6450.99620411545]}}, {"type": "Feature", "properties": {"num": 201, "osm_id": 496463536, "housenumber": null, "area_m2": 81.1, "px_x": 2914.3, "px_y": 6505.7, "clat": 50.24579937449839, "clon": 82.35955751435817}, "geometry": {"type": "Point", "coordinates": [2914.2898090034723, 6505.718475088477]}}, {"type": "Feature", "properties": {"num": 202, "osm_id": 759800995, "housenumber": null, "area_m2": 84.7, "px_x": 4057.4, "px_y": 6508.0, "clat": 50.24579167405692, "clon": 82.36568951008513}, "geometry": {"type": "Point", "coordinates": [4057.376662582159, 6507.963160961866]}}, {"type": "Feature", "properties": {"num": 203, "osm_id": 496463533, "housenumber": null, "area_m2": 181.1, "px_x": 2693.4, "px_y": 6545.3, "clat": 50.24566355, "clon": 82.35837235}, "geometry": {"type": "Point", "coordinates": [2693.359159745276, 6545.311389815062]}}, {"type": "Feature", "properties": {"num": 204, "osm_id": 496463486, "housenumber": null, "area_m2": 292.5, "px_x": 3213.4, "px_y": 6529.8, "clat": 50.245716800000004, "clon": 82.3611619}, "geometry": {"type": "Point", "coordinates": [3213.368969671428, 6529.788999468088]}}, {"type": "Feature", "properties": {"num": 205, "osm_id": 496463534, "housenumber": null, "area_m2": 222.2, "px_x": 2817.1, "px_y": 6572.4, "clat": 50.24557062540145, "clon": 82.35903598474333}, "geometry": {"type": "Point", "coordinates": [2817.0696423500776, 6572.398895539343]}}, {"type": "Feature", "properties": {"num": 206, "osm_id": 496463535, "housenumber": null, "area_m2": 221.8, "px_x": 2911.2, "px_y": 6571.4, "clat": 50.245574170284435, "clon": 82.35954069005247}, "geometry": {"type": "Point", "coordinates": [2911.1535311043262, 6571.3655636794865]}}, {"type": "Feature", "properties": {"num": 207, "osm_id": 496463522, "housenumber": null, "area_m2": 257.9, "px_x": 2904.0, "px_y": 6666.8, "clat": 50.2452467, "clon": 82.35950225}, "geometry": {"type": "Point", "coordinates": [2903.987785950303, 6666.8226856812835]}}, {"type": "Feature", "properties": {"num": 208, "osm_id": 637127257, "housenumber": null, "area_m2": 94.3, "px_x": 3875.5, "px_y": 6631.4, "clat": 50.245368150000004, "clon": 82.36471375}, "geometry": {"type": "Point", "coordinates": [3875.481799118221, 6631.420259989798]}}, {"type": "Feature", "properties": {"num": 209, "osm_id": 637135471, "housenumber": null, "area_m2": 127.0, "px_x": 2097.9, "px_y": 6735.6, "clat": 50.245010799999996, "clon": 82.35517815}, "geometry": {"type": "Point", "coordinates": [2097.91712256521, 6735.586793646216]}}, {"type": "Feature", "properties": {"num": 210, "osm_id": 496463514, "housenumber": null, "area_m2": 916.8, "px_x": 3033.2, "px_y": 6700.8, "clat": 50.245130223319094, "clon": 82.36019540239242}, "geometry": {"type": "Point", "coordinates": [3033.200757160783, 6700.775314319879]}}, {"type": "Feature", "properties": {"num": 211, "osm_id": 496463485, "housenumber": null, "area_m2": 918.3, "px_x": 3188.5, "px_y": 6712.8, "clat": 50.245089027191405, "clon": 82.36102872672419}, "geometry": {"type": "Point", "coordinates": [3188.543671734631, 6712.783851135522]}}, {"type": "Feature", "properties": {"num": 212, "osm_id": 496463483, "housenumber": null, "area_m2": 914.0, "px_x": 3345.3, "px_y": 6716.6, "clat": 50.24507602577327, "clon": 82.36186944746389}, "geometry": {"type": "Point", "coordinates": [3345.2653766945004, 6716.57371994853]}}, {"type": "Feature", "properties": {"num": 213, "osm_id": 759800996, "housenumber": null, "area_m2": 57.3, "px_x": 3907.1, "px_y": 6716.8, "clat": 50.2450751, "clon": 82.3648834}, "geometry": {"type": "Point", "coordinates": [3907.106851272285, 6716.8435796462]}}, {"type": "Feature", "properties": {"num": 214, "osm_id": 637135470, "housenumber": null, "area_m2": 121.1, "px_x": 2006.1, "px_y": 6763.2, "clat": 50.24491622460878, "clon": 82.35468565977}, "geometry": {"type": "Point", "coordinates": [2006.1102895960212, 6763.155127108097]}}, {"type": "Feature", "properties": {"num": 215, "osm_id": 496463521, "housenumber": null, "area_m2": 208.9, "px_x": 2691.9, "px_y": 6776.0, "clat": 50.2448721, "clon": 82.35836435}, "geometry": {"type": "Point", "coordinates": [2691.8678516596556, 6776.017248466611]}}, {"type": "Feature", "properties": {"num": 216, "osm_id": 496463520, "housenumber": null, "area_m2": 231.7, "px_x": 2801.9, "px_y": 6786.5, "clat": 50.2448362, "clon": 82.35895465}, "geometry": {"type": "Point", "coordinates": [2801.9077472686768, 6786.4819252491]}}, {"type": "Feature", "properties": {"num": 217, "osm_id": 496463519, "housenumber": null, "area_m2": 257.1, "px_x": 2918.0, "px_y": 6780.4, "clat": 50.24485696659168, "clon": 82.35957743326057}, "geometry": {"type": "Point", "coordinates": [2918.002961538732, 6780.428564932197]}}, {"type": "Feature", "properties": {"num": 218, "osm_id": 637127258, "housenumber": null, "area_m2": 100.1, "px_x": 3877.9, "px_y": 6773.3, "clat": 50.2448814, "clon": 82.36472690000001}, "geometry": {"type": "Point", "coordinates": [3877.9331367835402, 6773.306342054158]}}, {"type": "Feature", "properties": {"num": 219, "osm_id": 637127296, "housenumber": null, "area_m2": 1657.9, "px_x": 3559.8, "px_y": 6867.7, "clat": 50.244557549614456, "clon": 82.36302009331398}, "geometry": {"type": "Point", "coordinates": [3559.7613096535206, 6867.70690010488]}}, {"type": "Feature", "properties": {"num": 220, "osm_id": 637127261, "housenumber": null, "area_m2": 70.0, "px_x": 3785.2, "px_y": 6829.1, "clat": 50.2446899, "clon": 82.3642297}, "geometry": {"type": "Point", "coordinates": [3785.2483390569687, 6829.1275878325105]}}, {"type": "Feature", "properties": {"num": 221, "osm_id": 637127260, "housenumber": null, "area_m2": 96.4, "px_x": 3879.0, "px_y": 6832.0, "clat": 50.24467992027309, "clon": 82.36473274002014}, "geometry": {"type": "Point", "coordinates": [3879.0217954441905, 6832.036619745195]}}, {"type": "Feature", "properties": {"num": 222, "osm_id": 496463518, "housenumber": null, "area_m2": 210.5, "px_x": 2688.2, "px_y": 6928.8, "clat": 50.24434800950578, "clon": 82.35834472557833}, "geometry": {"type": "Point", "coordinates": [2688.2095943167806, 6928.786316372454]}}, {"type": "Feature", "properties": {"num": 223, "osm_id": 496463517, "housenumber": null, "area_m2": 200.7, "px_x": 2811.9, "px_y": 6887.2, "clat": 50.24449065, "clon": 82.3590082}, "geometry": {"type": "Point", "coordinates": [2811.890190795064, 6887.207679882646]}}, {"type": "Feature", "properties": {"num": 224, "osm_id": 496463516, "housenumber": null, "area_m2": 241.5, "px_x": 2915.8, "px_y": 6915.9, "clat": 50.24439219242942, "clon": 82.3595656753636}, "geometry": {"type": "Point", "coordinates": [2915.8111306726933, 6915.907338116318]}}, {"type": "Feature", "properties": {"num": 225, "osm_id": 496463515, "housenumber": null, "area_m2": 913.7, "px_x": 3026.5, "px_y": 6929.2, "clat": 50.24434647623497, "clon": 82.36015939750796}, "geometry": {"type": "Point", "coordinates": [3026.488960236311, 6929.23325265944]}}, {"type": "Feature", "properties": {"num": 226, "osm_id": 637127259, "housenumber": null, "area_m2": 50.2, "px_x": 3876.9, "px_y": 6884.2, "clat": 50.24450090458279, "clon": 82.36472112479768}, "geometry": {"type": "Point", "coordinates": [3876.856561049819, 6884.21854095161]}}, {"type": "Feature", "properties": {"num": 227, "osm_id": 637127262, "housenumber": null, "area_m2": 196.9, "px_x": 3782.8, "px_y": 6938.6, "clat": 50.24431425, "clon": 82.3642163}, "geometry": {"type": "Point", "coordinates": [3782.7503980100155, 6938.6269414275885]}}, {"type": "Feature", "properties": {"num": 228, "osm_id": 637127263, "housenumber": null, "area_m2": 108.1, "px_x": 3880.5, "px_y": 6946.0, "clat": 50.24428907454995, "clon": 82.36474058646556}, "geometry": {"type": "Point", "coordinates": [3880.4844788834453, 6945.965378582478]}}, {"type": "Feature", "properties": {"num": 229, "osm_id": 496463482, "housenumber": null, "area_m2": 906.4, "px_x": 3339.7, "px_y": 7021.9, "clat": 50.244028650000004, "clon": 82.36183945}, "geometry": {"type": "Point", "coordinates": [3339.673444122076, 7021.876770928502]}}, {"type": "Feature", "properties": {"num": 230, "osm_id": 637127266, "housenumber": null, "area_m2": 147.8, "px_x": 3787.3, "px_y": 7048.2, "clat": 50.24393836619835, "clon": 82.36424047487202}, "geometry": {"type": "Point", "coordinates": [3787.256920784712, 7048.193582750857]}}, {"type": "Feature", "properties": {"num": 231, "osm_id": 637127265, "housenumber": null, "area_m2": 114.8, "px_x": 3881.1, "px_y": 7008.8, "clat": 50.244073624844766, "clon": 82.36474401488763}, "geometry": {"type": "Point", "coordinates": [3881.123583070934, 7008.767041563988]}}, {"type": "Feature", "properties": {"num": 232, "osm_id": 496463480, "housenumber": null, "area_m2": 919.2, "px_x": 3149.1, "px_y": 7092.4, "clat": 50.2437867, "clon": 82.3608171}, "geometry": {"type": "Point", "coordinates": [3149.093591041863, 7092.40262798965]}}, {"type": "Feature", "properties": {"num": 233, "osm_id": 637127264, "housenumber": null, "area_m2": 68.7, "px_x": 3879.6, "px_y": 7063.4, "clat": 50.243886125165375, "clon": 82.36473557633694}, "geometry": {"type": "Point", "coordinates": [3879.550523214042, 7063.421290867031]}}, {"type": "Feature", "properties": {"num": 234, "osm_id": 637127295, "housenumber": null, "area_m2": 1230.8, "px_x": 3577.7, "px_y": 7139.0, "clat": 50.243626910702076, "clon": 82.36311620009249}, "geometry": {"type": "Point", "coordinates": [3577.67691167444, 7138.979316115379]}}, {"type": "Feature", "properties": {"num": 235, "osm_id": 637127267, "housenumber": null, "area_m2": 198.6, "px_x": 3787.1, "px_y": 7154.4, "clat": 50.243574, "clon": 82.36423985}, "geometry": {"type": "Point", "coordinates": [3787.140436194837, 7154.402124788612]}}, {"type": "Feature", "properties": {"num": 236, "osm_id": 760127367, "housenumber": null, "area_m2": 68.7, "px_x": 3878.2, "px_y": 7129.8, "clat": 50.24365852516537, "clon": 82.36472857633693}, "geometry": {"type": "Point", "coordinates": [3878.245628632605, 7129.764086831361]}}, {"type": "Feature", "properties": {"num": 237, "osm_id": 760127366, "housenumber": null, "area_m2": 66.6, "px_x": 3869.8, "px_y": 7196.7, "clat": 50.24342890029363, "clon": 82.36468326878504}, "geometry": {"type": "Point", "coordinates": [3869.79968880862, 7196.696788705885]}}, {"type": "Feature", "properties": {"num": 238, "osm_id": 637127279, "housenumber": null, "area_m2": 347.4, "px_x": 2879.9, "px_y": 7285.8, "clat": 50.24312315, "clon": 82.35937299999999}, "geometry": {"type": "Point", "coordinates": [2879.8938396424055, 7285.818573128432]}}, {"type": "Feature", "properties": {"num": 239, "osm_id": 496463481, "housenumber": null, "area_m2": 453.5, "px_x": 3331.2, "px_y": 7284.3, "clat": 50.24312836498913, "clon": 82.36179422507087}, "geometry": {"type": "Point", "coordinates": [3331.242906294763, 7284.298484083265]}}, {"type": "Feature", "properties": {"num": 240, "osm_id": 637127268, "housenumber": null, "area_m2": 83.9, "px_x": 3782.6, "px_y": 7273.6, "clat": 50.24316505, "clon": 82.3642157}, "geometry": {"type": "Point", "coordinates": [3782.638549901545, 7273.605363495648]}}, {"type": "Feature", "properties": {"num": 241, "osm_id": 760127365, "housenumber": null, "area_m2": 57.3, "px_x": 3876.2, "px_y": 7272.8, "clat": 50.24316772514202, "clon": 82.3647175806792}, "geometry": {"type": "Point", "coordinates": [3876.1958894729614, 7272.825600117445]}}, {"type": "Feature", "properties": {"num": 242, "osm_id": 637127294, "housenumber": null, "area_m2": 769.3, "px_x": 3644.9, "px_y": 7347.5, "clat": 50.242911473962984, "clon": 82.36347692398282}, "geometry": {"type": "Point", "coordinates": [3644.9207186177373, 7347.51873870939]}}, {"type": "Feature", "properties": {"num": 243, "osm_id": 760127364, "housenumber": null, "area_m2": 96.7, "px_x": 3873.5, "px_y": 7314.3, "clat": 50.24302527151252, "clon": 82.36470330578969}, "geometry": {"type": "Point", "coordinates": [3873.534857198596, 7314.348614498973]}}, {"type": "Feature", "properties": {"num": 244, "osm_id": 637127278, "housenumber": null, "area_m2": 1549.0, "px_x": 2685.0, "px_y": 7383.2, "clat": 50.24278919882793, "clon": 82.35832773608149}, "geometry": {"type": "Point", "coordinates": [2685.04252255708, 7383.1598521620035]}}, {"type": "Feature", "properties": {"num": 245, "osm_id": 637127280, "housenumber": null, "area_m2": 719.1, "px_x": 3018.9, "px_y": 7418.7, "clat": 50.242667124492996, "clon": 82.36011845317405}, "geometry": {"type": "Point", "coordinates": [3018.856383189559, 7418.742344595492]}}, {"type": "Feature", "properties": {"num": 246, "osm_id": 637127292, "housenumber": null, "area_m2": 396.3, "px_x": 3456.3, "px_y": 7438.1, "clat": 50.24260065, "clon": 82.36246485}, "geometry": {"type": "Point", "coordinates": [3456.2564539685845, 7438.118435956538]}}, {"type": "Feature", "properties": {"num": 247, "osm_id": 637127269, "housenumber": null, "area_m2": 83.7, "px_x": 3779.3, "px_y": 7428.4, "clat": 50.24263397484652, "clon": 82.36419753974852}, "geometry": {"type": "Point", "coordinates": [3779.253233656287, 7428.404859859496]}}, {"type": "Feature", "properties": {"num": 248, "osm_id": 759948654, "housenumber": null, "area_m2": 92.9, "px_x": 876.1, "px_y": 7508.2, "clat": 50.24236024034663, "clon": 82.34862362355057}, "geometry": {"type": "Point", "coordinates": [876.0648334473372, 7508.19319999963]}}, {"type": "Feature", "properties": {"num": 249, "osm_id": 759948653, "housenumber": null, "area_m2": 87.5, "px_x": 972.5, "px_y": 7471.6, "clat": 50.2424857, "clon": 82.34914090000001}, "geometry": {"type": "Point", "coordinates": [972.4921526089311, 7471.62418172881]}}, {"type": "Feature", "properties": {"num": 250, "osm_id": 637127291, "housenumber": null, "area_m2": 429.6, "px_x": 3331.9, "px_y": 7579.6, "clat": 50.242115350000006, "clon": 82.3617976}, "geometry": {"type": "Point", "coordinates": [3331.8720386847854, 7579.573636077344]}}, {"type": "Feature", "properties": {"num": 251, "osm_id": 637127290, "housenumber": null, "area_m2": 406.8, "px_x": 3459.8, "px_y": 7579.6, "clat": 50.2421151, "clon": 82.36248405}, "geometry": {"type": "Point", "coordinates": [3459.835593394935, 7579.646505691111]}}, {"type": "Feature", "properties": {"num": 252, "osm_id": 637127293, "housenumber": null, "area_m2": 571.8, "px_x": 3668.9, "px_y": 7549.7, "clat": 50.242217954152764, "clon": 82.36360572625709}, "geometry": {"type": "Point", "coordinates": [3668.9312028065324, 7549.666706964374]}}, {"type": "Feature", "properties": {"num": 253, "osm_id": 759948655, "housenumber": null, "area_m2": 472.3, "px_x": 975.0, "px_y": 7624.6, "clat": 50.24196076490872, "clon": 82.34915442053513}, "geometry": {"type": "Point", "coordinates": [975.0125630274415, 7624.631782069802]}}, {"type": "Feature", "properties": {"num": 254, "osm_id": 637127277, "housenumber": null, "area_m2": 239.2, "px_x": 2605.2, "px_y": 7594.9, "clat": 50.242062798451826, "clon": 82.35789962372651}, "geometry": {"type": "Point", "coordinates": [2605.236595310271, 7594.891270171851]}}, {"type": "Feature", "properties": {"num": 255, "osm_id": 637127276, "housenumber": null, "area_m2": 231.8, "px_x": 2834.3, "px_y": 7628.1, "clat": 50.241948724776734, "clon": 82.35912850022508}, "geometry": {"type": "Point", "coordinates": [2834.3157781362534, 7628.141208961606]}}, {"type": "Feature", "properties": {"num": 256, "osm_id": 637127288, "housenumber": null, "area_m2": 288.5, "px_x": 3251.7, "px_y": 7600.3, "clat": 50.2420441, "clon": 82.3613674}, "geometry": {"type": "Point", "coordinates": [3251.676946207881, 7600.3414583951235]}}, {"type": "Feature", "properties": {"num": 257, "osm_id": 759948656, "housenumber": null, "area_m2": 1291.2, "px_x": 746.7, "px_y": 7738.1, "clat": 50.24157156242709, "clon": 82.3479293906233}, "geometry": {"type": "Point", "coordinates": [746.6504359543324, 7738.075077667832]}}, {"type": "Feature", "properties": {"num": 258, "osm_id": 637127289, "housenumber": null, "area_m2": 523.2, "px_x": 3248.4, "px_y": 7749.9, "clat": 50.241531099999996, "clon": 82.36134965}, "geometry": {"type": "Point", "coordinates": [3248.3681063726544, 7749.86886266619]}}, {"type": "Feature", "properties": {"num": 259, "osm_id": 637127281, "housenumber": null, "area_m2": 88.7, "px_x": 3553.0, "px_y": 7719.5, "clat": 50.2416353, "clon": 82.36298385}, "geometry": {"type": "Point", "coordinates": [3553.0050662383437, 7719.497149772942]}}, {"type": "Feature", "properties": {"num": 260, "osm_id": 637127270, "housenumber": null, "area_m2": 541.1, "px_x": 3777.7, "px_y": 7748.8, "clat": 50.241534900000005, "clon": 82.36418945000001}, "geometry": {"type": "Point", "coordinates": [3777.7451952397823, 7748.761258173734]}}, {"type": "Feature", "properties": {"num": 261, "osm_id": 637127286, "housenumber": null, "area_m2": 850.5, "px_x": 2866.0, "px_y": 7802.5, "clat": 50.241350470552554, "clon": 82.35929839075342}, "geometry": {"type": "Point", "coordinates": [2865.9856680333614, 7802.517704568803]}}, {"type": "Feature", "properties": {"num": 262, "osm_id": 637127287, "housenumber": null, "area_m2": 720.8, "px_x": 3013.0, "px_y": 7799.7, "clat": 50.241360197004134, "clon": 82.3600870282641}, "geometry": {"type": "Point", "coordinates": [3012.9983553886414, 7799.682698979974]}}, {"type": "Feature", "properties": {"num": 263, "osm_id": 637127284, "housenumber": null, "area_m2": 470.1, "px_x": 3331.1, "px_y": 7923.3, "clat": 50.24093615, "clon": 82.3617935}, "geometry": {"type": "Point", "coordinates": [3331.1077432855964, 7923.280744306743]}}, {"type": "Feature", "properties": {"num": 264, "osm_id": 637127283, "housenumber": null, "area_m2": 265.1, "px_x": 3448.0, "px_y": 7928.2, "clat": 50.240919250000005, "clon": 82.3624205}, "geometry": {"type": "Point", "coordinates": [3447.989014752209, 7928.206606969237]}}, {"type": "Feature", "properties": {"num": 265, "osm_id": 637127282, "housenumber": null, "area_m2": 523.0, "px_x": 3545.7, "px_y": 7919.4, "clat": 50.2409494, "clon": 82.36294485}, "geometry": {"type": "Point", "coordinates": [3545.7349393069744, 7919.418750166893]}}, {"type": "Feature", "properties": {"num": 266, "osm_id": 637127271, "housenumber": null, "area_m2": 561.6, "px_x": 3774.5, "px_y": 7910.2, "clat": 50.24098115, "clon": 82.364172}, "geometry": {"type": "Point", "coordinates": [3774.4922794625163, 7910.164533432573]}}, {"type": "Feature", "properties": {"num": 267, "osm_id": 759948650, "housenumber": null, "area_m2": 353.0, "px_x": 686.5, "px_y": 7953.2, "clat": 50.2408335, "clon": 82.34760685}, "geometry": {"type": "Point", "coordinates": [686.5245058909059, 7953.200232326984]}}, {"type": "Feature", "properties": {"num": 268, "osm_id": 637127285, "housenumber": null, "area_m2": 813.6, "px_x": 3069.8, "px_y": 7950.9, "clat": 50.24084125, "clon": 82.36039165}, "geometry": {"type": "Point", "coordinates": [3069.7839627340436, 7950.941335089505]}}, {"type": "Feature", "properties": {"num": 269, "osm_id": 637127272, "housenumber": null, "area_m2": 1399.0, "px_x": 3890.2, "px_y": 7995.0, "clat": 50.240690028637964, "clon": 82.36479259884176}, "geometry": {"type": "Point", "coordinates": [3890.1802885457873, 7995.0178515687585]}}, {"type": "Feature", "properties": {"num": 270, "osm_id": 1327888332, "housenumber": null, "area_m2": 66.7, "px_x": 904.0, "px_y": 8095.1, "clat": 50.2403465, "clon": 82.34877355}, "geometry": {"type": "Point", "coordinates": [904.0131493061781, 8095.145683333278]}}, {"type": "Feature", "properties": {"num": 271, "osm_id": 1327888331, "housenumber": null, "area_m2": 53.8, "px_x": 946.6, "px_y": 8123.2, "clat": 50.2402501, "clon": 82.34900195}, "geometry": {"type": "Point", "coordinates": [946.5899952352047, 8123.24313249439]}}, {"type": "Feature", "properties": {"num": 272, "osm_id": 759948639, "housenumber": null, "area_m2": 29.9, "px_x": 3409.7, "px_y": 8347.1, "clat": 50.23948207916173, "clon": 82.36221491678305}, "geometry": {"type": "Point", "coordinates": [3409.665525458753, 8347.094074442983]}}, {"type": "Feature", "properties": {"num": 273, "osm_id": 637127238, "housenumber": null, "area_m2": 1029.6, "px_x": 1228.1, "px_y": 8527.2, "clat": 50.23886406299606, "clon": 82.35051185871237}, "geometry": {"type": "Point", "coordinates": [1228.0573797672987, 8527.221334971488]}}, {"type": "Feature", "properties": {"num": 274, "osm_id": 637127239, "housenumber": null, "area_m2": 1704.3, "px_x": 1081.1, "px_y": 8564.4, "clat": 50.2387364, "clon": 82.34972365}, "geometry": {"type": "Point", "coordinates": [1081.1246262043715, 8564.429756335914]}}]}