{"type": "FeatureCollection", "village": "с. Перевальное", "key": "perevalnoe", "offset_px": [-4, 0], "mpp": 0.3819, "features": [{"type": "Feature", "properties": {"num": 1, "osm_id": 515222729, "housenumber": null, "area_m2": 460.6, "px_x": 576.9, "px_y": 553.2, "clat": 50.24651455, "clon": 82.2718203}, "geometry": {"type": "Point", "coordinates": [576.8876253888011, 553.2425683885813]}}, {"type": "Feature", "properties": {"num": 2, "osm_id": 515222730, "housenumber": null, "area_m2": 508.9, "px_x": 689.5, "px_y": 748.0, "clat": 50.24584645, "clon": 82.2724244}, "geometry": {"type": "Point", "coordinates": [689.5000274479389, 747.9959145858884]}}, {"type": "Feature", "properties": {"num": 3, "osm_id": 515222736, "housenumber": null, "area_m2": 214.6, "px_x": 858.1, "px_y": 786.3, "clat": 50.24571495, "clon": 82.2733291}, "geometry": {"type": "Point", "coordinates": [858.1483309566975, 786.3282752931118]}}, {"type": "Feature", "properties": {"num": 4, "osm_id": 515222737, "housenumber": null, "area_m2": 203.6, "px_x": 991.7, "px_y": 753.0, "clat": 50.24582936025365, "clon": 82.27404538152894}, "geometry": {"type": "Point", "coordinates": [991.6728857010603, 752.9775960147381]}}, {"type": "Feature", "properties": {"num": 5, "osm_id": 515222735, "housenumber": null, "area_m2": 218.9, "px_x": 756.3, "px_y": 846.2, "clat": 50.24550965, "clon": 82.2727825}, "geometry": {"type": "Point", "coordinates": [756.2547057792544, 846.1731866747141]}}, {"type": "Feature", "properties": {"num": 6, "osm_id": 515222738, "housenumber": null, "area_m2": 208.9, "px_x": 1044.9, "px_y": 855.6, "clat": 50.24547724317853, "clon": 82.2743309829029}, "geometry": {"type": "Point", "coordinates": [1044.9128405973315, 855.6197454854846]}}, {"type": "Feature", "properties": {"num": 7, "osm_id": 515222739, "housenumber": null, "area_m2": 223.9, "px_x": 1091.5, "px_y": 944.5, "clat": 50.2451724, "clon": 82.2745811}, "geometry": {"type": "Point", "coordinates": [1091.5380468592048, 944.4809386879206]}}, {"type": "Feature", "properties": {"num": 8, "osm_id": 515222734, "housenumber": null, "area_m2": 216.2, "px_x": 779.8, "px_y": 997.9, "clat": 50.24498929258404, "clon": 82.2729089834947}, "geometry": {"type": "Point", "coordinates": [779.8329381197691, 997.856120813638]}}, {"type": "Feature", "properties": {"num": 9, "osm_id": 515222740, "housenumber": null, "area_m2": 269.0, "px_x": 1143.9, "px_y": 1045.1, "clat": 50.24482715, "clon": 82.27486195}, "geometry": {"type": "Point", "coordinates": [1143.8922814577818, 1045.1199553385377]}}, {"type": "Feature", "properties": {"num": 10, "osm_id": 515222819, "housenumber": null, "area_m2": 72.7, "px_x": 1801.9, "px_y": 1030.0, "clat": 50.24487885, "clon": 82.2783917}, "geometry": {"type": "Point", "coordinates": [1801.8853722959757, 1030.0496551543474]}}, {"type": "Feature", "properties": {"num": 11, "osm_id": 515222733, "housenumber": null, "area_m2": 209.2, "px_x": 832.2, "px_y": 1070.8, "clat": 50.2447391769879, "clon": 82.27318993289086}, "geometry": {"type": "Point", "coordinates": [832.205701507628, 1070.7636256963015]}}, {"type": "Feature", "properties": {"num": 12, "osm_id": 515222741, "housenumber": null, "area_m2": 127.0, "px_x": 1250.7, "px_y": 1067.8, "clat": 50.24474945, "clon": 82.27543515}, "geometry": {"type": "Point", "coordinates": [1250.7445060312748, 1067.7690991386771]}}, {"type": "Feature", "properties": {"num": 13, "osm_id": 515222816, "housenumber": null, "area_m2": 42.1, "px_x": 1893.2, "px_y": 1086.4, "clat": 50.24468555, "clon": 82.27888134999999}, "geometry": {"type": "Point", "coordinates": [1893.162748016417, 1086.395587414503]}}, {"type": "Feature", "properties": {"num": 14, "osm_id": 515222731, "housenumber": null, "area_m2": 202.1, "px_x": 1035.4, "px_y": 1146.3, "clat": 50.24448015, "clon": 82.27427970000001}, "geometry": {"type": "Point", "coordinates": [1035.3530146181583, 1146.2683555409312]}}, {"type": "Feature", "properties": {"num": 15, "osm_id": 515222703, "housenumber": null, "area_m2": 189.2, "px_x": 1200.2, "px_y": 1153.6, "clat": 50.24445498312653, "clon": 82.27516420044302}, "geometry": {"type": "Point", "coordinates": [1200.2358477711678, 1153.6043182238936]}}, {"type": "Feature", "properties": {"num": 16, "osm_id": 515222742, "housenumber": null, "area_m2": 130.5, "px_x": 1352.8, "px_y": 1165.8, "clat": 50.2444131, "clon": 82.27598255000001}, "geometry": {"type": "Point", "coordinates": [1352.787262007594, 1165.8129399046302]}}, {"type": "Feature", "properties": {"num": 17, "osm_id": 515222814, "housenumber": null, "area_m2": 140.5, "px_x": 1928.0, "px_y": 1125.2, "clat": 50.244552266388936, "clon": 82.27906829519404}, "geometry": {"type": "Point", "coordinates": [1928.0118580311537, 1125.2469251826406]}}, {"type": "Feature", "properties": {"num": 18, "osm_id": 515222732, "housenumber": null, "area_m2": 199.3, "px_x": 939.7, "px_y": 1196.6, "clat": 50.244307499688965, "clon": 82.27376633300653}, "geometry": {"type": "Point", "coordinates": [939.6544708684087, 1196.5946020931005]}}, {"type": "Feature", "properties": {"num": 19, "osm_id": 515222705, "housenumber": null, "area_m2": 202.1, "px_x": 1036.9, "px_y": 1225.1, "clat": 50.24420955, "clon": 82.2742881}, "geometry": {"type": "Point", "coordinates": [1036.9188881143928, 1225.1461070105433]}}, {"type": "Feature", "properties": {"num": 20, "osm_id": 515222704, "housenumber": null, "area_m2": 212.6, "px_x": 1111.6, "px_y": 1186.8, "clat": 50.2443412, "clon": 82.27468895}, "geometry": {"type": "Point", "coordinates": [1111.6427440345287, 1186.7712332308292]}}, {"type": "Feature", "properties": {"num": 21, "osm_id": 515222812, "housenumber": null, "area_m2": 84.1, "px_x": 1996.3, "px_y": 1214.8, "clat": 50.24424515, "clon": 82.27943475}, "geometry": {"type": "Point", "coordinates": [1996.3239850699902, 1214.7690152525902]}}, {"type": "Feature", "properties": {"num": 22, "osm_id": 515222714, "housenumber": null, "area_m2": 215.0, "px_x": 954.7, "px_y": 1281.3, "clat": 50.24401705720242, "clon": 82.27384681679723}, "geometry": {"type": "Point", "coordinates": [954.6577368825674, 1281.2559565529227]}}, {"type": "Feature", "properties": {"num": 23, "osm_id": 515222702, "housenumber": null, "area_m2": 226.5, "px_x": 1252.2, "px_y": 1256.8, "clat": 50.24410080723871, "clon": 82.27544311703103}, "geometry": {"type": "Point", "coordinates": [1252.2296682596207, 1256.8436323814094]}}, {"type": "Feature", "properties": {"num": 24, "osm_id": 515222701, "housenumber": null, "area_m2": 207.1, "px_x": 1292.7, "px_y": 1336.0, "clat": 50.243829176415396, "clon": 82.27566023317782}, "geometry": {"type": "Point", "coordinates": [1292.7030514925718, 1336.0212296321988]}}, {"type": "Feature", "properties": {"num": 25, "osm_id": 515222716, "housenumber": null, "area_m2": 211.3, "px_x": 1014.7, "px_y": 1382.6, "clat": 50.24366924058885, "clon": 82.27416906664311}, "geometry": {"type": "Point", "coordinates": [1014.7294621169567, 1382.6406705901027]}}, {"type": "Feature", "properties": {"num": 26, "osm_id": 515222743, "housenumber": null, "area_m2": 70.2, "px_x": 1430.0, "px_y": 1401.4, "clat": 50.243604850000004, "clon": 82.2763967}, "geometry": {"type": "Point", "coordinates": [1429.990417636931, 1401.4097372554243]}}, {"type": "Feature", "properties": {"num": 27, "osm_id": 515222809, "housenumber": null, "area_m2": 79.4, "px_x": 2172.6, "px_y": 1365.7, "clat": 50.243727201971076, "clon": 82.28038036623475}, "geometry": {"type": "Point", "coordinates": [2172.599627546966, 1365.7456170916557]}}, {"type": "Feature", "properties": {"num": 28, "osm_id": 515222718, "housenumber": null, "area_m2": 200.3, "px_x": 1060.6, "px_y": 1458.2, "clat": 50.24341009211389, "clon": 82.2744153840054}, "geometry": {"type": "Point", "coordinates": [1060.6463464647532, 1458.1791173256934]}}, {"type": "Feature", "properties": {"num": 29, "osm_id": 515222700, "housenumber": null, "area_m2": 225.2, "px_x": 1333.5, "px_y": 1415.6, "clat": 50.243556067207194, "clon": 82.27587919870928}, "geometry": {"type": "Point", "coordinates": [1333.5211850255728, 1415.629305984825]}}, {"type": "Feature", "properties": {"num": 30, "osm_id": 515222697, "housenumber": null, "area_m2": 188.8, "px_x": 1384.4, "px_y": 1516.2, "clat": 50.24321102737633, "clon": 82.27615188639236}, "geometry": {"type": "Point", "coordinates": [1384.3538534715772, 1516.2036486193538]}}, {"type": "Feature", "properties": {"num": 31, "osm_id": 515222898, "housenumber": null, "area_m2": 94.5, "px_x": 2539.0, "px_y": 1501.9, "clat": 50.2432601, "clon": 82.28234574999999}, "geometry": {"type": "Point", "coordinates": [2538.9737159088254, 1501.899701360613]}}, {"type": "Feature", "properties": {"num": 32, "osm_id": 515222720, "housenumber": null, "area_m2": 203.4, "px_x": 1105.9, "px_y": 1534.7, "clat": 50.2431474566419, "clon": 82.27465796689066}, "geometry": {"type": "Point", "coordinates": [1105.867073841393, 1534.7335598021746]}}, {"type": "Feature", "properties": {"num": 33, "osm_id": 515222744, "housenumber": null, "area_m2": 66.2, "px_x": 1527.7, "px_y": 1575.4, "clat": 50.2430078, "clon": 82.2769206}, "geometry": {"type": "Point", "coordinates": [1527.6524561047554, 1575.4412797503173]}}, {"type": "Feature", "properties": {"num": 34, "osm_id": 515222901, "housenumber": null, "area_m2": 304.6, "px_x": 2930.2, "px_y": 1537.2, "clat": 50.2431391, "clon": 82.2844447}, "geometry": {"type": "Point", "coordinates": [2930.2463550567627, 1537.1693931631744]}}, {"type": "Feature", "properties": {"num": 35, "osm_id": 515222900, "housenumber": null, "area_m2": 88.4, "px_x": 3047.4, "px_y": 1552.3, "clat": 50.24308705, "clon": 82.28507305000001}, "geometry": {"type": "Point", "coordinates": [3047.379284761846, 1552.3411627970636]}}, {"type": "Feature", "properties": {"num": 36, "osm_id": 515222899, "housenumber": null, "area_m2": 89.2, "px_x": 3129.2, "px_y": 1563.9, "clat": 50.243047499999996, "clon": 82.28551215}, "geometry": {"type": "Point", "coordinates": [3129.233457490802, 1563.8693647682667]}}, {"type": "Feature", "properties": {"num": 37, "osm_id": 515222721, "housenumber": null, "area_m2": 214.0, "px_x": 1157.2, "px_y": 1630.7, "clat": 50.24281823310851, "clon": 82.27493315058574}, "geometry": {"type": "Point", "coordinates": [1157.1650326400995, 1630.6968635432422]}}, {"type": "Feature", "properties": {"num": 38, "osm_id": 515222696, "housenumber": null, "area_m2": 180.0, "px_x": 1429.8, "px_y": 1605.6, "clat": 50.242904404733586, "clon": 82.2763959178198}, "geometry": {"type": "Point", "coordinates": [1429.8446086794138, 1605.579300828278]}}, {"type": "Feature", "properties": {"num": 39, "osm_id": 515222902, "housenumber": null, "area_m2": 59.6, "px_x": 2798.7, "px_y": 1632.0, "clat": 50.2428138, "clon": 82.28373925}, "geometry": {"type": "Point", "coordinates": [2798.7409436404705, 1631.989038027823]}}, {"type": "Feature", "properties": {"num": 40, "osm_id": 515222905, "housenumber": null, "area_m2": 70.8, "px_x": 2931.5, "px_y": 1645.4, "clat": 50.242767923794965, "clon": 82.2844512614797}, "geometry": {"type": "Point", "coordinates": [2931.46950352937, 1645.361151561141]}}, {"type": "Feature", "properties": {"num": 41, "osm_id": 515222904, "housenumber": null, "area_m2": 65.7, "px_x": 2998.7, "px_y": 1649.3, "clat": 50.24275457638625, "clon": 82.28481199366036}, "geometry": {"type": "Point", "coordinates": [2998.7148558944464, 1649.251685962081]}}, {"type": "Feature", "properties": {"num": 42, "osm_id": 515222695, "housenumber": null, "area_m2": 198.5, "px_x": 1477.8, "px_y": 1699.3, "clat": 50.24258285, "clon": 82.2766533}, "geometry": {"type": "Point", "coordinates": [1477.8241245895624, 1699.306803792715]}}, {"type": "Feature", "properties": {"num": 43, "osm_id": 515222838, "housenumber": null, "area_m2": 105.9, "px_x": 2135.6, "px_y": 1689.3, "clat": 50.24261725, "clon": 82.2801821}, "geometry": {"type": "Point", "coordinates": [2135.640122592449, 1689.2798439785838]}}, {"type": "Feature", "properties": {"num": 44, "osm_id": 515222903, "housenumber": null, "area_m2": 83.3, "px_x": 2867.3, "px_y": 1653.6, "clat": 50.2427397, "clon": 82.28410715}, "geometry": {"type": "Point", "coordinates": [2867.3224743828177, 1653.5878890827298]}}, {"type": "Feature", "properties": {"num": 45, "osm_id": 515222906, "housenumber": null, "area_m2": 53.0, "px_x": 3124.2, "px_y": 1663.5, "clat": 50.242705823984124, "clon": 82.28548505245398}, "geometry": {"type": "Point", "coordinates": [3124.182108797133, 1663.462142687291]}}, {"type": "Feature", "properties": {"num": 46, "osm_id": 515222907, "housenumber": null, "area_m2": 80.0, "px_x": 3191.7, "px_y": 1673.9, "clat": 50.24267011981143, "clon": 82.28584726127275}, "geometry": {"type": "Point", "coordinates": [3191.7027264609933, 1673.8692637607455]}}, {"type": "Feature", "properties": {"num": 47, "osm_id": 515222908, "housenumber": null, "area_m2": 62.9, "px_x": 3244.5, "px_y": 1689.7, "clat": 50.24261586381904, "clon": 82.28613052743663}, "geometry": {"type": "Point", "coordinates": [3244.5073666498065, 1689.6838900744915]}}, {"type": "Feature", "properties": {"num": 48, "osm_id": 515222910, "housenumber": null, "area_m2": 36.5, "px_x": 3337.3, "px_y": 1704.8, "clat": 50.24256408309665, "clon": 82.28662821513396}, "geometry": {"type": "Point", "coordinates": [3337.2830777466297, 1704.7770038098097]}}, {"type": "Feature", "properties": {"num": 49, "osm_id": 515222722, "housenumber": null, "area_m2": 395.9, "px_x": 1305.0, "px_y": 1732.5, "clat": 50.24246905, "clon": 82.275726}, "geometry": {"type": "Point", "coordinates": [1304.96287573874, 1732.4773343801498]}}, {"type": "Feature", "properties": {"num": 50, "osm_id": 515222837, "housenumber": null, "area_m2": 69.0, "px_x": 2139.5, "px_y": 1743.6, "clat": 50.24243076701044, "clon": 82.28020271451486}, "geometry": {"type": "Point", "coordinates": [2139.4829466938972, 1743.6360782310367]}}, {"type": "Feature", "properties": {"num": 51, "osm_id": 515222909, "housenumber": null, "area_m2": 35.4, "px_x": 3391.1, "px_y": 1721.9, "clat": 50.24250533166437, "clon": 82.28691673911422}, "geometry": {"type": "Point", "coordinates": [3391.06784594059, 1721.9019294641912]}}, {"type": "Feature", "properties": {"num": 52, "osm_id": 515222911, "housenumber": null, "area_m2": 109.3, "px_x": 3455.4, "px_y": 1744.7, "clat": 50.24242705, "clon": 82.28726165}, "geometry": {"type": "Point", "coordinates": [3455.3638951852918, 1744.719513706863]}}, {"type": "Feature", "properties": {"num": 53, "osm_id": 515223050, "housenumber": null, "area_m2": 117.5, "px_x": 5445.9, "px_y": 1759.8, "clat": 50.2423753, "clon": 82.29793945}, "geometry": {"type": "Point", "coordinates": [5445.850084125996, 1759.8036126941442]}}, {"type": "Feature", "properties": {"num": 54, "osm_id": 515222694, "housenumber": null, "area_m2": 236.3, "px_x": 1525.4, "px_y": 1789.3, "clat": 50.242274099999996, "clon": 82.2769085}, "geometry": {"type": "Point", "coordinates": [1525.396852619946, 1789.3013589382172]}}, {"type": "Feature", "properties": {"num": 55, "osm_id": 515222835, "housenumber": null, "area_m2": 48.6, "px_x": 2190.1, "px_y": 1808.9, "clat": 50.242206868144386, "clon": 82.2804740888278}, "geometry": {"type": "Point", "coordinates": [2190.0707851946354, 1808.898045822978]}}, {"type": "Feature", "properties": {"num": 56, "osm_id": 515223047, "housenumber": null, "area_m2": 108.4, "px_x": 5520.0, "px_y": 1772.5, "clat": 50.2423316, "clon": 82.29833740000001}, "geometry": {"type": "Point", "coordinates": [5520.033340878785, 1772.5412835255265]}}, {"type": "Feature", "properties": {"num": 57, "osm_id": 515222723, "housenumber": null, "area_m2": 229.3, "px_x": 1317.1, "px_y": 1880.9, "clat": 50.2419598, "clon": 82.2757909}, "geometry": {"type": "Point", "coordinates": [1317.0611126050353, 1880.9130312278867]}}, {"type": "Feature", "properties": {"num": 58, "osm_id": 515222912, "housenumber": null, "area_m2": 136.7, "px_x": 3641.7, "px_y": 1849.3, "clat": 50.242068219435886, "clon": 82.2882613595545}, "geometry": {"type": "Point", "coordinates": [3641.7232633307576, 1849.3111719228327]}}, {"type": "Feature", "properties": {"num": 59, "osm_id": 515222913, "housenumber": null, "area_m2": 64.0, "px_x": 3718.5, "px_y": 1885.5, "clat": 50.241944100000005, "clon": 82.28867325}, "geometry": {"type": "Point", "coordinates": [3718.505207464099, 1885.4892268255353]}}, {"type": "Feature", "properties": {"num": 60, "osm_id": 515222693, "housenumber": null, "area_m2": 218.0, "px_x": 1582.9, "px_y": 1908.8, "clat": 50.2418642, "clon": 82.27721679999999}, "geometry": {"type": "Point", "coordinates": [1582.8681381046772, 1908.7782498523593]}}, {"type": "Feature", "properties": {"num": 61, "osm_id": 515222836, "housenumber": null, "area_m2": 59.1, "px_x": 2289.5, "px_y": 1942.8, "clat": 50.24174738243412, "clon": 82.28100755394186}, "geometry": {"type": "Point", "coordinates": [2289.5158901661634, 1942.8278289288282]}}, {"type": "Feature", "properties": {"num": 62, "osm_id": 515223033, "housenumber": null, "area_m2": 110.4, "px_x": 5191.5, "px_y": 1900.5, "clat": 50.24189262406607, "clon": 82.29657487832164}, "geometry": {"type": "Point", "coordinates": [5191.475486397743, 1900.4932890087366]}}, {"type": "Feature", "properties": {"num": 63, "osm_id": 515223036, "housenumber": null, "area_m2": 50.5, "px_x": 5362.9, "px_y": 1948.4, "clat": 50.24172832584039, "clon": 82.29749466502618}, "geometry": {"type": "Point", "coordinates": [5362.9361554682255, 1948.3823708817363]}}, {"type": "Feature", "properties": {"num": 64, "osm_id": 515223037, "housenumber": null, "area_m2": 98.3, "px_x": 5463.2, "px_y": 1943.1, "clat": 50.24174642815822, "clon": 82.29803244785803}, "geometry": {"type": "Point", "coordinates": [5463.186141364276, 1943.1059776172042]}}, {"type": "Feature", "properties": {"num": 65, "osm_id": 515223045, "housenumber": null, "area_m2": 114.4, "px_x": 5670.4, "px_y": 1933.7, "clat": 50.24177857512928, "clon": 82.29914417152592}, "geometry": {"type": "Point", "coordinates": [5670.426453687251, 1933.7358984574676]}}, {"type": "Feature", "properties": {"num": 66, "osm_id": 515222724, "housenumber": null, "area_m2": 205.5, "px_x": 1361.4, "px_y": 1955.9, "clat": 50.241702556710386, "clon": 82.27602901733117}, "geometry": {"type": "Point", "coordinates": [1361.449400357902, 1955.8934533074498]}}, {"type": "Feature", "properties": {"num": 67, "osm_id": 515223032, "housenumber": null, "area_m2": 106.0, "px_x": 5189.2, "px_y": 1997.1, "clat": 50.241561250000004, "clon": 82.2965628}, "geometry": {"type": "Point", "coordinates": [5189.2239240556955, 1997.080893062055]}}, {"type": "Feature", "properties": {"num": 68, "osm_id": 515222725, "housenumber": null, "area_m2": 254.7, "px_x": 1414.9, "px_y": 2039.5, "clat": 50.24141575, "clon": 82.2763157}, "geometry": {"type": "Point", "coordinates": [1414.8909232318401, 2039.4904462844133]}}, {"type": "Feature", "properties": {"num": 69, "osm_id": 515222745, "housenumber": null, "area_m2": 64.3, "px_x": 1808.9, "px_y": 2049.1, "clat": 50.24138285, "clon": 82.27842955}, "geometry": {"type": "Point", "coordinates": [1808.9411236941814, 2049.0799424424767]}}, {"type": "Feature", "properties": {"num": 70, "osm_id": 515222834, "housenumber": null, "area_m2": 65.3, "px_x": 2358.3, "px_y": 2048.3, "clat": 50.24138565, "clon": 82.2813763}, "geometry": {"type": "Point", "coordinates": [2358.2551375702024, 2048.2638153657317]}}, {"type": "Feature", "properties": {"num": 71, "osm_id": 515222889, "housenumber": null, "area_m2": 100.7, "px_x": 2592.0, "px_y": 2046.0, "clat": 50.241393446592845, "clon": 82.28263037750177}, "geometry": {"type": "Point", "coordinates": [2592.03212787956, 2045.9913113638759]}}, {"type": "Feature", "properties": {"num": 72, "osm_id": 515222890, "housenumber": null, "area_m2": 92.2, "px_x": 2658.6, "px_y": 2032.7, "clat": 50.24143897235268, "clon": 82.28298753901935}, "geometry": {"type": "Point", "coordinates": [2658.6118604019284, 2032.721729181707]}}, {"type": "Feature", "properties": {"num": 73, "osm_id": 515222891, "housenumber": null, "area_m2": 224.2, "px_x": 2849.6, "px_y": 2034.8, "clat": 50.24143187046111, "clon": 82.2840121225519}, "geometry": {"type": "Point", "coordinates": [2849.608074121177, 2034.7917478308082]}}, {"type": "Feature", "properties": {"num": 74, "osm_id": 515222892, "housenumber": null, "area_m2": 81.3, "px_x": 3059.9, "px_y": 2069.0, "clat": 50.2413146, "clon": 82.28514030000001}, "geometry": {"type": "Point", "coordinates": [3059.915593393147, 2068.9730250537395]}}, {"type": "Feature", "properties": {"num": 75, "osm_id": 515222915, "housenumber": null, "area_m2": 67.3, "px_x": 3974.6, "px_y": 2043.6, "clat": 50.241401816743696, "clon": 82.29004697710103}, "geometry": {"type": "Point", "coordinates": [3974.586499683559, 2043.5516296997666]}}, {"type": "Feature", "properties": {"num": 76, "osm_id": 515223035, "housenumber": null, "area_m2": 112.9, "px_x": 5279.7, "px_y": 2035.5, "clat": 50.2414293, "clon": 82.297048}, "geometry": {"type": "Point", "coordinates": [5279.671759650111, 2035.5409710258245]}}, {"type": "Feature", "properties": {"num": 77, "osm_id": 515223034, "housenumber": null, "area_m2": 129.9, "px_x": 5376.6, "px_y": 2031.6, "clat": 50.2414428, "clon": 82.2975679}, "geometry": {"type": "Point", "coordinates": [5376.5881440714, 2031.6060683578253]}}, {"type": "Feature", "properties": {"num": 78, "osm_id": 515223039, "housenumber": null, "area_m2": 137.1, "px_x": 5503.7, "px_y": 2025.5, "clat": 50.2414637, "clon": 82.2982499}, "geometry": {"type": "Point", "coordinates": [5503.722158640623, 2025.5142538771033]}}, {"type": "Feature", "properties": {"num": 79, "osm_id": 515223041, "housenumber": null, "area_m2": 72.4, "px_x": 5684.9, "px_y": 2017.9, "clat": 50.24148985, "clon": 82.2992218}, "geometry": {"type": "Point", "coordinates": [5684.897450096905, 2017.8921951502562]}}, {"type": "Feature", "properties": {"num": 80, "osm_id": 515223043, "housenumber": null, "area_m2": 121.1, "px_x": 5766.1, "px_y": 2014.9, "clat": 50.2415002, "clon": 82.29965755}, "geometry": {"type": "Point", "coordinates": [5766.127137564123, 2014.8754327073693]}}, {"type": "Feature", "properties": {"num": 81, "osm_id": 515222746, "housenumber": null, "area_m2": 61.9, "px_x": 1834.6, "px_y": 2098.7, "clat": 50.241212468615, "clon": 82.27856730181618}, "geometry": {"type": "Point", "coordinates": [1834.6199234127998, 2098.741588398814]}}, {"type": "Feature", "properties": {"num": 82, "osm_id": 515222888, "housenumber": null, "area_m2": 209.8, "px_x": 2503.3, "px_y": 2097.3, "clat": 50.2412175, "clon": 82.2821544}, "geometry": {"type": "Point", "coordinates": [2503.3034905567765, 2097.275075919926]}}, {"type": "Feature", "properties": {"num": 83, "osm_id": 515222893, "housenumber": null, "area_m2": 61.6, "px_x": 3183.6, "px_y": 2090.4, "clat": 50.2412412, "clon": 82.2858037}, "geometry": {"type": "Point", "coordinates": [3183.5823166519403, 2090.367165632546]}}, {"type": "Feature", "properties": {"num": 84, "osm_id": 515222894, "housenumber": null, "area_m2": 66.2, "px_x": 3299.7, "px_y": 2113.9, "clat": 50.24116057441785, "clon": 82.28642646274808}, "geometry": {"type": "Point", "coordinates": [3299.67370711267, 2113.8673325441778]}}, {"type": "Feature", "properties": {"num": 85, "osm_id": 515223031, "housenumber": null, "area_m2": 155.1, "px_x": 5185.5, "px_y": 2089.9, "clat": 50.241242750000005, "clon": 82.29654285}, "geometry": {"type": "Point", "coordinates": [5185.504974499345, 2089.9153823405504]}}, {"type": "Feature", "properties": {"num": 86, "osm_id": 515222726, "housenumber": null, "area_m2": 256.9, "px_x": 1469.4, "px_y": 2132.8, "clat": 50.24109555, "clon": 82.2766081}, "geometry": {"type": "Point", "coordinates": [1469.3982338830829, 2132.8201549351215]}}, {"type": "Feature", "properties": {"num": 87, "osm_id": 515222692, "housenumber": null, "area_m2": 272.0, "px_x": 1720.1, "px_y": 2181.1, "clat": 50.24093003247257, "clon": 82.27795300200845}, "geometry": {"type": "Point", "coordinates": [1720.1061393767595, 2181.0638273470104]}}, {"type": "Feature", "properties": {"num": 88, "osm_id": 515222747, "housenumber": null, "area_m2": 59.6, "px_x": 1870.3, "px_y": 2174.5, "clat": 50.240952403196935, "clon": 82.27875866844505}, "geometry": {"type": "Point", "coordinates": [1870.2932486087084, 2174.5434044376016]}}, {"type": "Feature", "properties": {"num": 89, "osm_id": 515222887, "housenumber": null, "area_m2": 227.1, "px_x": 2420.5, "px_y": 2134.6, "clat": 50.24108955590687, "clon": 82.28171031509244}, "geometry": {"type": "Point", "coordinates": [2420.5200637057424, 2134.5672662742436]}}, {"type": "Feature", "properties": {"num": 90, "osm_id": 515222895, "housenumber": null, "area_m2": 89.9, "px_x": 3415.2, "px_y": 2136.9, "clat": 50.2410816449633, "clon": 82.28704612132451}, "geometry": {"type": "Point", "coordinates": [3415.186438038945, 2136.8730858378112]}}, {"type": "Feature", "properties": {"num": 91, "osm_id": 515222896, "housenumber": null, "area_m2": 88.8, "px_x": 3448.3, "px_y": 2142.4, "clat": 50.241062646252885, "clon": 82.28722402349193}, "geometry": {"type": "Point", "coordinates": [3448.3498057052493, 2142.4106788486242]}}, {"type": "Feature", "properties": {"num": 92, "osm_id": 515222897, "housenumber": null, "area_m2": 67.1, "px_x": 3509.5, "px_y": 2145.5, "clat": 50.24105217762285, "clon": 82.28755189049042}, "geometry": {"type": "Point", "coordinates": [3509.468644067645, 2145.4619909264147]}}, {"type": "Feature", "properties": {"num": 93, "osm_id": 515222922, "housenumber": null, "area_m2": 51.5, "px_x": 3678.4, "px_y": 2178.7, "clat": 50.24093807077028, "clon": 82.28845835764145}, "geometry": {"type": "Point", "coordinates": [3678.446368396282, 2178.720895051956]}}, {"type": "Feature", "properties": {"num": 94, "osm_id": 515223030, "housenumber": null, "area_m2": 116.5, "px_x": 5187.7, "px_y": 2176.5, "clat": 50.24094557472768, "clon": 82.29655461671842}, "geometry": {"type": "Point", "coordinates": [5187.698449805379, 2176.533707205206]}}, {"type": "Feature", "properties": {"num": 95, "osm_id": 515222748, "housenumber": null, "area_m2": 115.8, "px_x": 1893.6, "px_y": 2220.9, "clat": 50.2407932, "clon": 82.2788836}, "geometry": {"type": "Point", "coordinates": [1893.582178413868, 2220.946492034942]}}, {"type": "Feature", "properties": {"num": 96, "osm_id": 515222886, "housenumber": null, "area_m2": 62.6, "px_x": 2480.6, "px_y": 2215.9, "clat": 50.24081035, "clon": 82.28203255}, "geometry": {"type": "Point", "coordinates": [2480.5890042334795, 2215.9477747902274]}}, {"type": "Feature", "properties": {"num": 97, "osm_id": 515222859, "housenumber": null, "area_m2": 50.1, "px_x": 2605.6, "px_y": 2249.2, "clat": 50.240696127065625, "clon": 82.28270289487637}, "geometry": {"type": "Point", "coordinates": [2605.5503462925553, 2249.240344516933]}}, {"type": "Feature", "properties": {"num": 98, "osm_id": 515222862, "housenumber": null, "area_m2": 55.2, "px_x": 2695.5, "px_y": 2242.2, "clat": 50.24072022112399, "clon": 82.28318565714854}, "geometry": {"type": "Point", "coordinates": [2695.5437564775348, 2242.217653632164]}}, {"type": "Feature", "properties": {"num": 99, "osm_id": 515222921, "housenumber": null, "area_m2": 59.9, "px_x": 3729.5, "px_y": 2190.1, "clat": 50.24089888374372, "clon": 82.2887321676458}, "geometry": {"type": "Point", "coordinates": [3729.488252684474, 2190.1427810639143]}}, {"type": "Feature", "properties": {"num": 100, "osm_id": 515222920, "housenumber": null, "area_m2": 51.7, "px_x": 3822.8, "px_y": 2224.9, "clat": 50.24077957476609, "clon": 82.2892325122353}, "geometry": {"type": "Point", "coordinates": [3822.759244374931, 2224.917843043804]}}, {"type": "Feature", "properties": {"num": 101, "osm_id": 515222919, "housenumber": null, "area_m2": 60.6, "px_x": 3867.2, "px_y": 2239.6, "clat": 50.240729255786135, "clon": 82.28947082828628}, "geometry": {"type": "Point", "coordinates": [3867.1845762059093, 2239.58432135731]}}, {"type": "Feature", "properties": {"num": 102, "osm_id": 515222727, "housenumber": null, "area_m2": 243.2, "px_x": 1550.0, "px_y": 2267.3, "clat": 50.24063406743092, "clon": 82.2770405979673}, "geometry": {"type": "Point", "coordinates": [1550.0216985195875, 2267.3288387954235]}}, {"type": "Feature", "properties": {"num": 103, "osm_id": 515222691, "housenumber": null, "area_m2": 265.8, "px_x": 1766.4, "px_y": 2278.6, "clat": 50.240595568010576, "clon": 82.27820119710128}, "geometry": {"type": "Point", "coordinates": [1766.3730580732226, 2278.5502359829843]}}, {"type": "Feature", "properties": {"num": 104, "osm_id": 515222749, "housenumber": null, "area_m2": 73.0, "px_x": 1929.4, "px_y": 2273.7, "clat": 50.24061225, "clon": 82.279076}, "geometry": {"type": "Point", "coordinates": [1929.448137961328, 2273.687950141728]}}, {"type": "Feature", "properties": {"num": 105, "osm_id": 515222885, "housenumber": null, "area_m2": 73.3, "px_x": 2501.5, "px_y": 2263.6, "clat": 50.240647, "clon": 82.2821449}, "geometry": {"type": "Point", "coordinates": [2501.5325622037053, 2263.5593905486166]}}, {"type": "Feature", "properties": {"num": 106, "osm_id": 515222864, "housenumber": null, "area_m2": 74.2, "px_x": 2757.8, "px_y": 2279.8, "clat": 50.240591323385694, "clon": 82.28351977377395}, "geometry": {"type": "Point", "coordinates": [2757.8276097401977, 2279.78741305694]}}, {"type": "Feature", "properties": {"num": 107, "osm_id": 515222867, "housenumber": null, "area_m2": 117.7, "px_x": 2931.5, "px_y": 2300.2, "clat": 50.24052115, "clon": 82.28445155}, "geometry": {"type": "Point", "coordinates": [2931.523287601769, 2300.240772046149]}}, {"type": "Feature", "properties": {"num": 108, "osm_id": 515222917, "housenumber": null, "area_m2": 78.1, "px_x": 3956.7, "px_y": 2254.4, "clat": 50.240678254107, "clon": 82.2899508272945}, "geometry": {"type": "Point", "coordinates": [3956.662876650691, 2254.4497702755034]}}, {"type": "Feature", "properties": {"num": 109, "osm_id": 515222728, "housenumber": null, "area_m2": 278.1, "px_x": 1604.7, "px_y": 2357.8, "clat": 50.2403236, "clon": 82.27733365}, "geometry": {"type": "Point", "coordinates": [1604.6505568698049, 2357.8202899880707]}}, {"type": "Feature", "properties": {"num": 110, "osm_id": 515222751, "housenumber": null, "area_m2": 72.9, "px_x": 1961.1, "px_y": 2335.9, "clat": 50.24039865, "clon": 82.27924589999999}, "geometry": {"type": "Point", "coordinates": [1961.1197934895754, 2335.9456391707063]}}, {"type": "Feature", "properties": {"num": 111, "osm_id": 515222883, "housenumber": null, "area_m2": 92.5, "px_x": 2702.7, "px_y": 2357.8, "clat": 50.240323700000005, "clon": 82.28322415}, "geometry": {"type": "Point", "coordinates": [2702.719344072044, 2357.7911432422698]}}, {"type": "Feature", "properties": {"num": 112, "osm_id": 515222881, "housenumber": null, "area_m2": 137.5, "px_x": 2903.3, "px_y": 2365.3, "clat": 50.240297850000005, "clon": 82.28429995}, "geometry": {"type": "Point", "coordinates": [2903.2629993259907, 2365.3255753070116]}}, {"type": "Feature", "properties": {"num": 113, "osm_id": 515222869, "housenumber": null, "area_m2": 127.5, "px_x": 3014.9, "px_y": 2312.2, "clat": 50.24048004686212, "clon": 82.28489897205476}, "geometry": {"type": "Point", "coordinates": [3014.9288037866354, 2312.2210441231728]}}, {"type": "Feature", "properties": {"num": 114, "osm_id": 515222871, "housenumber": null, "area_m2": 73.3, "px_x": 3193.2, "px_y": 2338.8, "clat": 50.24038872757239, "clon": 82.28585503530556}, "geometry": {"type": "Point", "coordinates": [3193.1519112065434, 2338.8377082943916]}}, {"type": "Feature", "properties": {"num": 115, "osm_id": 515222872, "housenumber": null, "area_m2": 56.9, "px_x": 3267.2, "px_y": 2347.2, "clat": 50.24035990353074, "clon": 82.28625207854435}, "geometry": {"type": "Point", "coordinates": [3267.166135415435, 2347.238987714052]}}, {"type": "Feature", "properties": {"num": 116, "osm_id": 515222923, "housenumber": null, "area_m2": 146.4, "px_x": 3642.2, "px_y": 2368.6, "clat": 50.240286668566455, "clon": 82.28826373986422}, "geometry": {"type": "Point", "coordinates": [3642.1669852137566, 2368.5845973044634]}}, {"type": "Feature", "properties": {"num": 117, "osm_id": 515223029, "housenumber": null, "area_m2": 88.6, "px_x": 5156.8, "px_y": 2329.1, "clat": 50.2404222, "clon": 82.2963889}, "geometry": {"type": "Point", "coordinates": [5156.806614473462, 2329.0815677568316]}}, {"type": "Feature", "properties": {"num": 118, "osm_id": 515222752, "housenumber": null, "area_m2": 73.0, "px_x": 2000.3, "px_y": 2402.0, "clat": 50.24017210264855, "clon": 82.2794561183371}, "geometry": {"type": "Point", "coordinates": [2000.3073318079114, 2401.976769514382]}}, {"type": "Feature", "properties": {"num": 119, "osm_id": 515222884, "housenumber": null, "area_m2": 196.0, "px_x": 2626.3, "px_y": 2370.9, "clat": 50.24027868087226, "clon": 82.28281396583097}, "geometry": {"type": "Point", "coordinates": [2626.2554729282856, 2370.912748325616]}}, {"type": "Feature", "properties": {"num": 120, "osm_id": 515222880, "housenumber": null, "area_m2": 51.9, "px_x": 2969.7, "px_y": 2372.0, "clat": 50.240275021715675, "clon": 82.28465636166293}, "geometry": {"type": "Point", "coordinates": [2969.7029488161206, 2371.979272387922]}}, {"type": "Feature", "properties": {"num": 121, "osm_id": 515222879, "housenumber": null, "area_m2": 32.7, "px_x": 3040.7, "px_y": 2393.3, "clat": 50.24020175, "clon": 82.2850374}, "geometry": {"type": "Point", "coordinates": [3040.7336430847645, 2393.3355557769537]}}, {"type": "Feature", "properties": {"num": 122, "osm_id": 515222878, "housenumber": null, "area_m2": 67.6, "px_x": 3140.9, "px_y": 2397.1, "clat": 50.24018875, "clon": 82.2855749}, "geometry": {"type": "Point", "coordinates": [3140.9309053197503, 2397.124622680247]}}, {"type": "Feature", "properties": {"num": 123, "osm_id": 515222877, "housenumber": null, "area_m2": 133.0, "px_x": 3201.9, "px_y": 2415.7, "clat": 50.24012494724864, "clon": 82.28590222271372}, "geometry": {"type": "Point", "coordinates": [3201.948281645775, 2415.7209841273725]}}, {"type": "Feature", "properties": {"num": 124, "osm_id": 515222873, "housenumber": null, "area_m2": 97.7, "px_x": 3495.6, "px_y": 2381.7, "clat": 50.2402415548829, "clon": 82.28747742686693}, "geometry": {"type": "Point", "coordinates": [3495.587618559599, 2381.733752090484]}}, {"type": "Feature", "properties": {"num": 125, "osm_id": 515222952, "housenumber": null, "area_m2": 70.5, "px_x": 3894.5, "px_y": 2425.8, "clat": 50.2400905, "clon": 82.28961735}, "geometry": {"type": "Point", "coordinates": [3894.49820330739, 2425.7611910551786]}}, {"type": "Feature", "properties": {"num": 126, "osm_id": 515223028, "housenumber": null, "area_m2": 87.5, "px_x": 5148.5, "px_y": 2426.6, "clat": 50.24008752408949, "clon": 82.29634422776107}, "geometry": {"type": "Point", "coordinates": [5148.479105569422, 2426.6285678967834]}}, {"type": "Feature", "properties": {"num": 127, "osm_id": 515223027, "housenumber": null, "area_m2": 62.7, "px_x": 5227.2, "px_y": 2426.8, "clat": 50.2400871, "clon": 82.2967664}, "geometry": {"type": "Point", "coordinates": [5227.177714921534, 2426.7521755732596]}}, {"type": "Feature", "properties": {"num": 128, "osm_id": 515223026, "housenumber": null, "area_m2": 91.9, "px_x": 5298.4, "px_y": 2425.6, "clat": 50.240090949999995, "clon": 82.2971483}, "geometry": {"type": "Point", "coordinates": [5298.369034811854, 2425.630031336099]}}, {"type": "Feature", "properties": {"num": 129, "osm_id": 515223025, "housenumber": null, "area_m2": 97.5, "px_x": 5384.2, "px_y": 2428.2, "clat": 50.240082, "clon": 82.2976087}, "geometry": {"type": "Point", "coordinates": [5384.193815328181, 2428.238652214408]}}, {"type": "Feature", "properties": {"num": 130, "osm_id": 515223024, "housenumber": null, "area_m2": 79.3, "px_x": 5462.3, "px_y": 2425.1, "clat": 50.2400927, "clon": 82.29802745}, "geometry": {"type": "Point", "coordinates": [5462.254473105073, 2425.1199657432735]}}, {"type": "Feature", "properties": {"num": 131, "osm_id": 515223023, "housenumber": null, "area_m2": 81.3, "px_x": 5526.8, "px_y": 2428.7, "clat": 50.24008035453218, "clon": 82.29837362582745}, "geometry": {"type": "Point", "coordinates": [5526.786324568093, 2428.7182501144707]}}, {"type": "Feature", "properties": {"num": 132, "osm_id": 515222847, "housenumber": null, "area_m2": 44.5, "px_x": 2553.1, "px_y": 2436.8, "clat": 50.240052776257784, "clon": 82.2824216458161}, "geometry": {"type": "Point", "coordinates": [2553.121721468866, 2436.756376631558]}}, {"type": "Feature", "properties": {"num": 133, "osm_id": 515222876, "housenumber": null, "area_m2": 113.0, "px_x": 3315.0, "px_y": 2438.1, "clat": 50.240048127056745, "clon": 82.28650883451489}, "geometry": {"type": "Point", "coordinates": [3315.028917387128, 2438.1114597283304]}}, {"type": "Feature", "properties": {"num": 134, "osm_id": 515222875, "housenumber": null, "area_m2": 116.7, "px_x": 3413.9, "px_y": 2451.3, "clat": 50.2400028, "clon": 82.28703945}, "geometry": {"type": "Point", "coordinates": [3413.9428130164742, 2451.322739638388]}}, {"type": "Feature", "properties": {"num": 135, "osm_id": 515222874, "housenumber": null, "area_m2": 44.9, "px_x": 3488.4, "px_y": 2461.3, "clat": 50.23996855, "clon": 82.28743899999999}, "geometry": {"type": "Point", "coordinates": [3488.424331381917, 2461.3054297082126]}}, {"type": "Feature", "properties": {"num": 136, "osm_id": 515222956, "housenumber": null, "area_m2": 155.9, "px_x": 3560.8, "px_y": 2474.7, "clat": 50.2399227, "clon": 82.287827}, "geometry": {"type": "Point", "coordinates": [3560.7527736872435, 2474.6691072285175]}}, {"type": "Feature", "properties": {"num": 137, "osm_id": 515222955, "housenumber": null, "area_m2": 117.7, "px_x": 3626.5, "px_y": 2477.4, "clat": 50.2399134, "clon": 82.28817985}, "geometry": {"type": "Point", "coordinates": [3626.5287810862064, 2477.379731632769]}}, {"type": "Feature", "properties": {"num": 138, "osm_id": 515222953, "housenumber": null, "area_m2": 59.2, "px_x": 3701.3, "px_y": 2472.6, "clat": 50.23992970524176, "clon": 82.2885807756253}, "geometry": {"type": "Point", "coordinates": [3701.2667345926166, 2472.627324156463]}}, {"type": "Feature", "properties": {"num": 139, "osm_id": 515222950, "housenumber": null, "area_m2": 43.8, "px_x": 3934.7, "px_y": 2436.7, "clat": 50.2400528, "clon": 82.2898329}, "geometry": {"type": "Point", "coordinates": [3934.6796356216073, 2436.7494565844536]}}, {"type": "Feature", "properties": {"num": 140, "osm_id": 515222949, "housenumber": null, "area_m2": 59.5, "px_x": 3971.3, "px_y": 2441.3, "clat": 50.24003715, "clon": 82.2900295}, "geometry": {"type": "Point", "coordinates": [3971.3285319134593, 2441.3108958229423]}}, {"type": "Feature", "properties": {"num": 141, "osm_id": 515222948, "housenumber": null, "area_m2": 70.9, "px_x": 4051.2, "px_y": 2441.6, "clat": 50.24003613202595, "clon": 82.29045796395445}, "geometry": {"type": "Point", "coordinates": [4051.2000020444393, 2441.607600361109]}}, {"type": "Feature", "properties": {"num": 142, "osm_id": 515222947, "housenumber": null, "area_m2": 56.6, "px_x": 4106.1, "px_y": 2449.8, "clat": 50.2400079, "clon": 82.29075230000001}, "geometry": {"type": "Point", "coordinates": [4106.068217746913, 2449.8362654671073]}}, {"type": "Feature", "properties": {"num": 143, "osm_id": 515222945, "housenumber": null, "area_m2": 96.2, "px_x": 4144.3, "px_y": 2452.7, "clat": 50.239997979574255, "clon": 82.2909572861115}, "geometry": {"type": "Point", "coordinates": [4144.280398517847, 2452.727727405727]}}, {"type": "Feature", "properties": {"num": 144, "osm_id": 515222942, "housenumber": null, "area_m2": 78.4, "px_x": 4187.2, "px_y": 2463.5, "clat": 50.23996102207438, "clon": 82.29118746143786}, "geometry": {"type": "Point", "coordinates": [4187.188189275563, 2463.499558620155]}}, {"type": "Feature", "properties": {"num": 145, "osm_id": 515222940, "housenumber": null, "area_m2": 104.8, "px_x": 4236.0, "px_y": 2453.0, "clat": 50.23999702111402, "clon": 82.29144920719689}, "geometry": {"type": "Point", "coordinates": [4235.981135234237, 2453.0070854723454]}}, {"type": "Feature", "properties": {"num": 146, "osm_id": 515222939, "housenumber": null, "area_m2": 147.2, "px_x": 4285.6, "px_y": 2454.6, "clat": 50.23999167765469, "clon": 82.29171543181049}, "geometry": {"type": "Point", "coordinates": [4285.609000198543, 2454.5645192861557]}}, {"type": "Feature", "properties": {"num": 147, "osm_id": 515222938, "housenumber": null, "area_m2": 58.8, "px_x": 4359.2, "px_y": 2481.4, "clat": 50.239899444910876, "clon": 82.29211012179307}, "geometry": {"type": "Point", "coordinates": [4359.184545651078, 2481.447150554508]}}, {"type": "Feature", "properties": {"num": 148, "osm_id": 515223022, "housenumber": null, "area_m2": 86.3, "px_x": 5585.3, "px_y": 2430.1, "clat": 50.240075745301695, "clon": 82.29868747402004}, "geometry": {"type": "Point", "coordinates": [5585.29186809063, 2430.061683945358]}}, {"type": "Feature", "properties": {"num": 149, "osm_id": 515222753, "housenumber": null, "area_m2": 89.2, "px_x": 2018.2, "px_y": 2516.2, "clat": 50.2397803, "clon": 82.2795522}, "geometry": {"type": "Point", "coordinates": [2018.2182519510388, 2516.1736638620496]}}, {"type": "Feature", "properties": {"num": 150, "osm_id": 515222846, "housenumber": null, "area_m2": 60.6, "px_x": 2574.8, "px_y": 2502.3, "clat": 50.239827970428365, "clon": 82.28253808946413}, "geometry": {"type": "Point", "coordinates": [2574.8283907473087, 2502.279436133802]}}, {"type": "Feature", "properties": {"num": 151, "osm_id": 515222882, "housenumber": null, "area_m2": 198.0, "px_x": 2661.0, "px_y": 2520.3, "clat": 50.23976605, "clon": 82.2830001}, "geometry": {"type": "Point", "coordinates": [2660.9533969014883, 2520.3270273432136]}}, {"type": "Feature", "properties": {"num": 152, "osm_id": 515222954, "housenumber": null, "area_m2": 48.3, "px_x": 3750.0, "px_y": 2495.2, "clat": 50.239852156279625, "clon": 82.28884222521108}, "geometry": {"type": "Point", "coordinates": [3750.0044698491693, 2495.2301187738776]}}, {"type": "Feature", "properties": {"num": 153, "osm_id": 515222924, "housenumber": null, "area_m2": 57.0, "px_x": 4032.7, "px_y": 2525.0, "clat": 50.23975, "clon": 82.29035895}, "geometry": {"type": "Point", "coordinates": [4032.7424631416798, 2525.005024731159]}}, {"type": "Feature", "properties": {"num": 154, "osm_id": 515222926, "housenumber": null, "area_m2": 69.0, "px_x": 4135.7, "px_y": 2527.4, "clat": 50.2397418, "clon": 82.2909111}, "geometry": {"type": "Point", "coordinates": [4135.670683309436, 2527.395029015839]}}, {"type": "Feature", "properties": {"num": 155, "osm_id": 515222927, "housenumber": null, "area_m2": 75.6, "px_x": 4278.7, "px_y": 2544.1, "clat": 50.23968432349388, "clon": 82.29167846010226}, "geometry": {"type": "Point", "coordinates": [4278.716974258423, 2544.1473462581635]}}, {"type": "Feature", "properties": {"num": 156, "osm_id": 515222936, "housenumber": null, "area_m2": 83.0, "px_x": 4445.3, "px_y": 2490.1, "clat": 50.239869726586576, "clon": 82.29257203995924}, "geometry": {"type": "Point", "coordinates": [4445.292332850397, 2490.1089955717325]}}, {"type": "Feature", "properties": {"num": 157, "osm_id": 515222934, "housenumber": null, "area_m2": 85.0, "px_x": 4627.1, "px_y": 2515.2, "clat": 50.23978377634125, "clon": 82.29354715008625}, "geometry": {"type": "Point", "coordinates": [4627.066035352647, 2515.1604349836707]}}, {"type": "Feature", "properties": {"num": 158, "osm_id": 515223008, "housenumber": null, "area_m2": 178.7, "px_x": 4837.4, "px_y": 2535.5, "clat": 50.2397139, "clon": 82.29467525}, "geometry": {"type": "Point", "coordinates": [4837.359101161361, 2535.526869788766]}}, {"type": "Feature", "properties": {"num": 159, "osm_id": 515222754, "housenumber": null, "area_m2": 50.0, "px_x": 2044.0, "px_y": 2580.1, "clat": 50.23956100258597, "clon": 82.27969066892128}, "geometry": {"type": "Point", "coordinates": [2044.030729740858, 2580.0908507220447]}}, {"type": "Feature", "properties": {"num": 160, "osm_id": 515222930, "housenumber": null, "area_m2": 69.8, "px_x": 4362.8, "px_y": 2553.5, "clat": 50.2396522558803, "clon": 82.29212962580254}, "geometry": {"type": "Point", "coordinates": [4362.820356540382, 2553.493883959949]}}, {"type": "Feature", "properties": {"num": 161, "osm_id": 515222932, "housenumber": null, "area_m2": 77.0, "px_x": 4470.1, "px_y": 2565.8, "clat": 50.2396101, "clon": 82.29270515}, "geometry": {"type": "Point", "coordinates": [4470.105842918158, 2565.7807732522488]}}, {"type": "Feature", "properties": {"num": 162, "osm_id": 515223021, "housenumber": null, "area_m2": 254.0, "px_x": 5284.7, "px_y": 2555.6, "clat": 50.23964495, "clon": 82.29707499999999}, "geometry": {"type": "Point", "coordinates": [5284.704924449325, 2555.6232802532613]}}, {"type": "Feature", "properties": {"num": 163, "osm_id": 515223020, "housenumber": null, "area_m2": 109.4, "px_x": 5435.1, "px_y": 2568.7, "clat": 50.239600100000004, "clon": 82.29788185}, "geometry": {"type": "Point", "coordinates": [5435.112665884197, 2568.6954040154815]}}, {"type": "Feature", "properties": {"num": 164, "osm_id": 515223019, "housenumber": null, "area_m2": 159.6, "px_x": 5514.0, "px_y": 2580.5, "clat": 50.2395596, "clon": 82.2983053}, "geometry": {"type": "Point", "coordinates": [5514.049467161298, 2580.49965236336]}}, {"type": "Feature", "properties": {"num": 165, "osm_id": 515223018, "housenumber": null, "area_m2": 138.0, "px_x": 5677.3, "px_y": 2597.5, "clat": 50.23950125, "clon": 82.29918085}, "geometry": {"type": "Point", "coordinates": [5677.263816811144, 2597.5064962357283]}}, {"type": "Feature", "properties": {"num": 166, "osm_id": 515223017, "housenumber": null, "area_m2": 146.1, "px_x": 5759.2, "px_y": 2606.2, "clat": 50.23947127695204, "clon": 82.2996201773936}, "geometry": {"type": "Point", "coordinates": [5759.160378783941, 2606.242511231452]}}, {"type": "Feature", "properties": {"num": 167, "osm_id": 515222755, "housenumber": null, "area_m2": 64.8, "px_x": 2104.4, "px_y": 2619.4, "clat": 50.239426099999996, "clon": 82.2800145}, "geometry": {"type": "Point", "coordinates": [2104.397218130529, 2619.4098814576864]}}, {"type": "Feature", "properties": {"num": 168, "osm_id": 515222857, "housenumber": null, "area_m2": 65.1, "px_x": 2787.4, "px_y": 2653.7, "clat": 50.239308300000005, "clon": 82.2836783}, "geometry": {"type": "Point", "coordinates": [2787.379040144384, 2653.7440605275333]}}, {"type": "Feature", "properties": {"num": 169, "osm_id": 515222856, "housenumber": null, "area_m2": 73.0, "px_x": 2861.5, "px_y": 2658.9, "clat": 50.23929044471014, "clon": 82.28407592369636}, "geometry": {"type": "Point", "coordinates": [2861.5014694854617, 2658.948184862733]}}, {"type": "Feature", "properties": {"num": 170, "osm_id": 515222854, "housenumber": null, "area_m2": 77.6, "px_x": 2935.0, "px_y": 2664.0, "clat": 50.23927295522654, "clon": 82.28447022552906}, "geometry": {"type": "Point", "coordinates": [2935.004658550024, 2664.0456889793277]}}, {"type": "Feature", "properties": {"num": 171, "osm_id": 515222853, "housenumber": null, "area_m2": 73.4, "px_x": 3010.7, "px_y": 2669.2, "clat": 50.23925535, "clon": 82.28487635}, "geometry": {"type": "Point", "coordinates": [3010.711747124791, 2669.1769257709384]}}, {"type": "Feature", "properties": {"num": 172, "osm_id": 515223009, "housenumber": null, "area_m2": 50.9, "px_x": 5336.2, "px_y": 2649.4, "clat": 50.239323173589746, "clon": 82.29735115959427}, "geometry": {"type": "Point", "coordinates": [5336.184804037213, 2649.408984616399]}}, {"type": "Feature", "properties": {"num": 173, "osm_id": 515223010, "housenumber": null, "area_m2": 79.4, "px_x": 5396.8, "px_y": 2660.6, "clat": 50.23928465725264, "clon": 82.2976764262795}, "geometry": {"type": "Point", "coordinates": [5396.818908885121, 2660.63500379771]}}, {"type": "Feature", "properties": {"num": 174, "osm_id": 515223011, "housenumber": null, "area_m2": 72.0, "px_x": 5474.0, "px_y": 2667.9, "clat": 50.23925965, "clon": 82.29809025}, "geometry": {"type": "Point", "coordinates": [5473.961241595447, 2667.923643682152]}}, {"type": "Feature", "properties": {"num": 175, "osm_id": 515223012, "housenumber": null, "area_m2": 70.7, "px_x": 5527.9, "px_y": 2668.5, "clat": 50.23925765, "clon": 82.29837985}, "geometry": {"type": "Point", "coordinates": [5527.946594417095, 2668.5065656006336]}}, {"type": "Feature", "properties": {"num": 176, "osm_id": 515223016, "housenumber": null, "area_m2": 252.2, "px_x": 5842.9, "px_y": 2618.1, "clat": 50.239430756459946, "clon": 82.30006918810803}, "geometry": {"type": "Point", "coordinates": [5842.862042583525, 2618.052700344473]}}, {"type": "Feature", "properties": {"num": 177, "osm_id": 515222756, "housenumber": null, "area_m2": 57.8, "px_x": 2131.9, "px_y": 2692.7, "clat": 50.239174500000004, "clon": 82.2801623}, "geometry": {"type": "Point", "coordinates": [2131.94913507998, 2692.7415226362646]}}, {"type": "Feature", "properties": {"num": 178, "osm_id": 515222848, "housenumber": null, "area_m2": 47.6, "px_x": 2641.8, "px_y": 2677.4, "clat": 50.2392272, "clon": 82.2828971}, "geometry": {"type": "Point", "coordinates": [2641.752805262804, 2677.381548758596]}}, {"type": "Feature", "properties": {"num": 179, "osm_id": 515222824, "housenumber": null, "area_m2": 78.8, "px_x": 3163.1, "px_y": 2680.4, "clat": 50.2392169, "clon": 82.2856936}, "geometry": {"type": "Point", "coordinates": [3163.058189086616, 2680.383594326675]}}, {"type": "Feature", "properties": {"num": 180, "osm_id": 515222826, "housenumber": null, "area_m2": 83.5, "px_x": 3235.7, "px_y": 2685.7, "clat": 50.239198599999995, "clon": 82.28608345}, "geometry": {"type": "Point", "coordinates": [3235.73149638623, 2685.71732416749]}}, {"type": "Feature", "properties": {"num": 181, "osm_id": 515222821, "housenumber": null, "area_m2": 80.9, "px_x": 3290.8, "px_y": 2703.2, "clat": 50.2391387077794, "clon": 82.2863786267186}, "geometry": {"type": "Point", "coordinates": [3290.7564249038696, 2703.173535220325]}}, {"type": "Feature", "properties": {"num": 182, "osm_id": 515222827, "housenumber": null, "area_m2": 142.3, "px_x": 3346.7, "px_y": 2694.6, "clat": 50.23916817342131, "clon": 82.28667883171848}, "geometry": {"type": "Point", "coordinates": [3346.7186929807067, 2694.585469946265]}}, {"type": "Feature", "properties": {"num": 183, "osm_id": 515222828, "housenumber": null, "area_m2": 159.9, "px_x": 3445.9, "px_y": 2700.7, "clat": 50.23914727658217, "clon": 82.2872109211887}, "geometry": {"type": "Point", "coordinates": [3445.907359354198, 2700.6760698109865]}}, {"type": "Feature", "properties": {"num": 184, "osm_id": 515222958, "housenumber": null, "area_m2": 96.5, "px_x": 3546.2, "px_y": 2710.1, "clat": 50.239114924144104, "clon": 82.28774912446931}, "geometry": {"type": "Point", "coordinates": [3546.2357225865126, 2710.1055171862245]}}, {"type": "Feature", "properties": {"num": 185, "osm_id": 515222972, "housenumber": null, "area_m2": 87.4, "px_x": 3635.6, "px_y": 2716.5, "clat": 50.239092902775106, "clon": 82.28822877634315}, "geometry": {"type": "Point", "coordinates": [3635.6493124961853, 2716.523865662515]}}, {"type": "Feature", "properties": {"num": 186, "osm_id": 515222959, "housenumber": null, "area_m2": 102.6, "px_x": 3682.7, "px_y": 2723.0, "clat": 50.2390706, "clon": 82.2884813}, "geometry": {"type": "Point", "coordinates": [3682.72313401103, 2723.024229746312]}}, {"type": "Feature", "properties": {"num": 187, "osm_id": 515222973, "housenumber": null, "area_m2": 140.3, "px_x": 3730.4, "px_y": 2724.2, "clat": 50.2390667, "clon": 82.2887369}, "geometry": {"type": "Point", "coordinates": [3730.370427452028, 2724.1609229557216]}}, {"type": "Feature", "properties": {"num": 188, "osm_id": 515223013, "housenumber": null, "area_m2": 81.8, "px_x": 5591.9, "px_y": 2677.3, "clat": 50.2392275, "clon": 82.2987229}, "geometry": {"type": "Point", "coordinates": [5591.895749412477, 2677.2941105291247]}}, {"type": "Feature", "properties": {"num": 189, "osm_id": 515223014, "housenumber": null, "area_m2": 98.3, "px_x": 5682.4, "px_y": 2686.2, "clat": 50.23919679480228, "clon": 82.29920832356989}, "geometry": {"type": "Point", "coordinates": [5682.385261438787, 2686.2434681504965]}}, {"type": "Feature", "properties": {"num": 190, "osm_id": 515223015, "housenumber": null, "area_m2": 215.0, "px_x": 5756.7, "px_y": 2690.7, "clat": 50.23918155, "clon": 82.2996072}, "geometry": {"type": "Point", "coordinates": [5756.7412172704935, 2690.6867263540626]}}, {"type": "Feature", "properties": {"num": 191, "osm_id": 515222757, "housenumber": null, "area_m2": 84.5, "px_x": 2144.2, "px_y": 2734.8, "clat": 50.2390302, "clon": 82.28022805}, "geometry": {"type": "Point", "coordinates": [2144.205823428929, 2734.799201026559]}}, {"type": "Feature", "properties": {"num": 192, "osm_id": 515222850, "housenumber": null, "area_m2": 72.9, "px_x": 2775.5, "px_y": 2737.4, "clat": 50.239021419807656, "clon": 82.2836145619088}, "geometry": {"type": "Point", "coordinates": [2775.4973987713456, 2737.3582717999816]}}, {"type": "Feature", "properties": {"num": 193, "osm_id": 515222851, "housenumber": null, "area_m2": 92.3, "px_x": 2855.5, "px_y": 2737.2, "clat": 50.23902206745108, "clon": 82.28404393448463}, "geometry": {"type": "Point", "coordinates": [2855.5382482111454, 2737.1695099659264]}}, {"type": "Feature", "properties": {"num": 194, "osm_id": 515222852, "housenumber": null, "area_m2": 88.0, "px_x": 3012.3, "px_y": 2755.3, "clat": 50.23895969512621, "clon": 82.28488492385942}, "geometry": {"type": "Point", "coordinates": [3012.3100303635, 2755.3485054299235]}}, {"type": "Feature", "properties": {"num": 195, "osm_id": 515222832, "housenumber": null, "area_m2": 88.4, "px_x": 3182.9, "px_y": 2766.6, "clat": 50.238921000000005, "clon": 82.2857998}, "geometry": {"type": "Point", "coordinates": [3182.855303965509, 2766.626548692584]}}, {"type": "Feature", "properties": {"num": 196, "osm_id": 515222831, "housenumber": null, "area_m2": 89.7, "px_x": 3278.7, "px_y": 2771.3, "clat": 50.238904947498234, "clon": 82.28631377366408}, "geometry": {"type": "Point", "coordinates": [3278.666939303279, 2771.3051923140883]}}, {"type": "Feature", "properties": {"num": 197, "osm_id": 515222830, "housenumber": null, "area_m2": 106.4, "px_x": 3365.6, "px_y": 2777.4, "clat": 50.23888415233998, "clon": 82.28678017596776}, "geometry": {"type": "Point", "coordinates": [3365.6106303185225, 2777.36612277478]}}, {"type": "Feature", "properties": {"num": 198, "osm_id": 515222829, "housenumber": null, "area_m2": 74.1, "px_x": 3460.1, "px_y": 2782.6, "clat": 50.23886635399434, "clon": 82.28728712632572}, "geometry": {"type": "Point", "coordinates": [3460.1130265146494, 2782.5536039322615]}}, {"type": "Feature", "properties": {"num": 199, "osm_id": 515222986, "housenumber": null, "area_m2": 47.5, "px_x": 3559.8, "px_y": 2788.9, "clat": 50.23884469474004, "clon": 82.28782212449023}, "geometry": {"type": "Point", "coordinates": [3559.843912795186, 2788.8663775622845]}}, {"type": "Feature", "properties": {"num": 200, "osm_id": 515222974, "housenumber": null, "area_m2": 111.5, "px_x": 3824.3, "px_y": 2730.2, "clat": 50.239046120805504, "clon": 82.2892406956999}, "geometry": {"type": "Point", "coordinates": [3824.2847527489066, 2730.158929258585]}}, {"type": "Feature", "properties": {"num": 201, "osm_id": 515222975, "housenumber": null, "area_m2": 109.6, "px_x": 3918.3, "px_y": 2737.9, "clat": 50.23901945, "clon": 82.2897452}, "geometry": {"type": "Point", "coordinates": [3918.33117069304, 2737.9323909543455]}}, {"type": "Feature", "properties": {"num": 202, "osm_id": 515222976, "housenumber": null, "area_m2": 135.5, "px_x": 4017.3, "px_y": 2743.8, "clat": 50.23899915, "clon": 82.29027635}, "geometry": {"type": "Point", "coordinates": [4017.344707131386, 2743.8490174636245]}}, {"type": "Feature", "properties": {"num": 203, "osm_id": 515222977, "housenumber": null, "area_m2": 129.0, "px_x": 4102.1, "px_y": 2750.3, "clat": 50.23897707133716, "clon": 82.29073094782112}, "geometry": {"type": "Point", "coordinates": [4102.087883099914, 2750.2840491719544]}}, {"type": "Feature", "properties": {"num": 204, "osm_id": 515222978, "housenumber": null, "area_m2": 133.1, "px_x": 4192.6, "px_y": 2757.3, "clat": 50.23895309731261, "clon": 82.29121657402374}, "geometry": {"type": "Point", "coordinates": [4192.615168623626, 2757.271498311311]}}, {"type": "Feature", "properties": {"num": 205, "osm_id": 515222979, "housenumber": null, "area_m2": 108.4, "px_x": 4274.5, "px_y": 2765.2, "clat": 50.23892602419517, "clon": 82.29165597025245}, "geometry": {"type": "Point", "coordinates": [4274.5245623886585, 2765.162202246487]}}, {"type": "Feature", "properties": {"num": 206, "osm_id": 515222980, "housenumber": null, "area_m2": 129.5, "px_x": 4352.6, "px_y": 2769.6, "clat": 50.23891067402127, "clon": 82.29207462316278}, "geometry": {"type": "Point", "coordinates": [4352.567121334374, 2769.6361467018723]}}, {"type": "Feature", "properties": {"num": 207, "osm_id": 515222981, "housenumber": null, "area_m2": 111.7, "px_x": 4428.2, "px_y": 2773.1, "clat": 50.238898853363956, "clon": 82.29248047619046}, "geometry": {"type": "Point", "coordinates": [4428.223609223962, 2773.081381238997]}}, {"type": "Feature", "properties": {"num": 208, "osm_id": 515222982, "housenumber": null, "area_m2": 100.4, "px_x": 4511.0, "px_y": 2782.5, "clat": 50.23886655, "clon": 82.2929243}, "geometry": {"type": "Point", "coordinates": [4510.958363875747, 2782.496476404369]}}, {"type": "Feature", "properties": {"num": 209, "osm_id": 515222758, "housenumber": null, "area_m2": 54.9, "px_x": 2168.5, "px_y": 2791.3, "clat": 50.2388362, "clon": 82.2803586}, "geometry": {"type": "Point", "coordinates": [2168.542107306421, 2791.3422409147024]}}, {"type": "Feature", "properties": {"num": 210, "osm_id": 515222759, "housenumber": null, "area_m2": 62.2, "px_x": 2205.5, "px_y": 2840.2, "clat": 50.2386686182184, "clon": 82.28055684188449}, "geometry": {"type": "Point", "coordinates": [2205.497073046863, 2840.185268882662]}}, {"type": "Feature", "properties": {"num": 211, "osm_id": 515222849, "housenumber": null, "area_m2": 67.7, "px_x": 2670.7, "px_y": 2790.3, "clat": 50.23883980342797, "clon": 82.28305261954928}, "geometry": {"type": "Point", "coordinates": [2670.743750490248, 2790.2919916138053]}}, {"type": "Feature", "properties": {"num": 212, "osm_id": 515222985, "housenumber": null, "area_m2": 96.3, "px_x": 3634.1, "px_y": 2794.2, "clat": 50.23882645267341, "clon": 82.28822042578581}, "geometry": {"type": "Point", "coordinates": [3634.092655785382, 2794.1831806004047]}}, {"type": "Feature", "properties": {"num": 213, "osm_id": 515222984, "housenumber": null, "area_m2": 109.3, "px_x": 3725.9, "px_y": 2800.9, "clat": 50.23880345, "clon": 82.2887131}, "geometry": {"type": "Point", "coordinates": [3725.9337858855724, 2800.8874994292855]}}, {"type": "Feature", "properties": {"num": 214, "osm_id": 515222983, "housenumber": null, "area_m2": 96.7, "px_x": 3819.9, "px_y": 2806.5, "clat": 50.23878424715596, "clon": 82.28921742357802}, "geometry": {"type": "Point", "coordinates": [3819.946514800191, 2806.4843241870403]}}, {"type": "Feature", "properties": {"num": 215, "osm_id": 515222992, "housenumber": null, "area_m2": 131.3, "px_x": 3904.2, "px_y": 2828.6, "clat": 50.2387085, "clon": 82.28966935}, "geometry": {"type": "Point", "coordinates": [3904.1917058825493, 2828.5614256076515]}}, {"type": "Feature", "properties": {"num": 216, "osm_id": 515222993, "housenumber": null, "area_m2": 151.6, "px_x": 4028.4, "px_y": 2838.2, "clat": 50.238675474200626, "clon": 82.29033570655386}, "geometry": {"type": "Point", "coordinates": [4028.409570738673, 2838.1870423182845]}}, {"type": "Feature", "properties": {"num": 217, "osm_id": 515223007, "housenumber": null, "area_m2": 127.3, "px_x": 4643.7, "px_y": 2791.8, "clat": 50.23883474779186, "clon": 82.29363642360191}, "geometry": {"type": "Point", "coordinates": [4643.707824856043, 2791.7654991298914]}}, {"type": "Feature", "properties": {"num": 218, "osm_id": 515223006, "housenumber": null, "area_m2": 100.5, "px_x": 4717.7, "px_y": 2797.5, "clat": 50.23881505, "clon": 82.2940332}, "geometry": {"type": "Point", "coordinates": [4717.672306343913, 2797.506584189832]}}, {"type": "Feature", "properties": {"num": 219, "osm_id": 515222844, "housenumber": null, "area_m2": 110.9, "px_x": 2794.6, "px_y": 2895.4, "clat": 50.23847925, "clon": 82.28371700000001}, "geometry": {"type": "Point", "coordinates": [2794.5932430252433, 2895.377918533981]}}, {"type": "Feature", "properties": {"num": 220, "osm_id": 515223000, "housenumber": null, "area_m2": 130.2, "px_x": 4575.8, "px_y": 2878.8, "clat": 50.23853600792558, "clon": 82.29327187659719}, "geometry": {"type": "Point", "coordinates": [4575.751337736845, 2878.835459768772]}}, {"type": "Feature", "properties": {"num": 221, "osm_id": 515222991, "housenumber": null, "area_m2": 117.9, "px_x": 3900.0, "px_y": 2915.9, "clat": 50.23840895, "clon": 82.2896467}, "geometry": {"type": "Point", "coordinates": [3899.969439856708, 2915.8672738075256]}}, {"type": "Feature", "properties": {"num": 222, "osm_id": 515222994, "housenumber": null, "area_m2": 148.8, "px_x": 4022.1, "px_y": 2923.8, "clat": 50.23838183919046, "clon": 82.29030162407408}, "geometry": {"type": "Point", "coordinates": [4022.0561360120773, 2923.768873244524]}}, {"type": "Feature", "properties": {"num": 223, "osm_id": 515222999, "housenumber": null, "area_m2": 166.1, "px_x": 4569.2, "px_y": 2966.2, "clat": 50.23823625967283, "clon": 82.2932366765142}, "geometry": {"type": "Point", "coordinates": [4569.189566679299, 2966.1987737603486]}}, {"type": "Feature", "properties": {"num": 224, "osm_id": 515223001, "housenumber": null, "area_m2": 118.2, "px_x": 5103.1, "px_y": 2912.0, "clat": 50.23842215, "clon": 82.2961007}, "geometry": {"type": "Point", "coordinates": [5103.082240574062, 2912.020057193935]}}, {"type": "Feature", "properties": {"num": 225, "osm_id": 515222845, "housenumber": null, "area_m2": 128.8, "px_x": 2733.8, "px_y": 3011.9, "clat": 50.23807942450481, "clon": 82.2833910696496}, "geometry": {"type": "Point", "coordinates": [2733.8354220315814, 3011.9090465940535]}}, {"type": "Feature", "properties": {"num": 226, "osm_id": 515222843, "housenumber": null, "area_m2": 116.5, "px_x": 2858.5, "px_y": 3014.9, "clat": 50.238069196760605, "clon": 82.2840600748754}, "geometry": {"type": "Point", "coordinates": [2858.5470351204276, 3014.889960668981]}}, {"type": "Feature", "properties": {"num": 227, "osm_id": 515222842, "housenumber": null, "area_m2": 135.9, "px_x": 2943.2, "px_y": 3015.1, "clat": 50.23806852548134, "clon": 82.28451432533002}, "geometry": {"type": "Point", "coordinates": [2943.225457288325, 3015.085607483983]}}, {"type": "Feature", "properties": {"num": 228, "osm_id": 515222841, "housenumber": null, "area_m2": 127.8, "px_x": 3041.3, "px_y": 3016.3, "clat": 50.23806452894945, "clon": 82.28504040426942}, "geometry": {"type": "Point", "coordinates": [3041.2936795055866, 3016.2504113689065]}}, {"type": "Feature", "properties": {"num": 229, "osm_id": 515222840, "housenumber": null, "area_m2": 150.3, "px_x": 3122.2, "px_y": 3019.6, "clat": 50.2380529, "clon": 82.28547455}, "geometry": {"type": "Point", "coordinates": [3122.22430947423, 3019.63971080631]}}, {"type": "Feature", "properties": {"num": 230, "osm_id": 515222839, "housenumber": null, "area_m2": 103.8, "px_x": 3221.0, "px_y": 3021.2, "clat": 50.238047424585645, "clon": 82.28600436874981}, "geometry": {"type": "Point", "coordinates": [3220.9896828755736, 3021.235539868474]}}, {"type": "Feature", "properties": {"num": 231, "osm_id": 515222987, "housenumber": null, "area_m2": 136.1, "px_x": 3539.9, "px_y": 3027.6, "clat": 50.23802565, "clon": 82.28771495000001}, "geometry": {"type": "Point", "coordinates": [3539.8651397675276, 3027.581818766892]}}, {"type": "Feature", "properties": {"num": 232, "osm_id": 515222988, "housenumber": null, "area_m2": 111.6, "px_x": 3622.2, "px_y": 3028.9, "clat": 50.2380211, "clon": 82.2881565}, "geometry": {"type": "Point", "coordinates": [3622.1760255992413, 3028.907931767404]}}, {"type": "Feature", "properties": {"num": 233, "osm_id": 515222990, "housenumber": null, "area_m2": 107.8, "px_x": 3894.3, "px_y": 2995.5, "clat": 50.23813585951823, "clon": 82.28961647673819}, "geometry": {"type": "Point", "coordinates": [3894.335415497422, 2995.4608406424522]}}, {"type": "Feature", "properties": {"num": 234, "osm_id": 496322807, "housenumber": null, "area_m2": 1986.7, "px_x": 4178.9, "px_y": 3015.3, "clat": 50.238067863120136, "clon": 82.29114320457306}, "geometry": {"type": "Point", "coordinates": [4178.938111715019, 3015.278655089438]}}, {"type": "Feature", "properties": {"num": 235, "osm_id": 515223004, "housenumber": null, "area_m2": 66.7, "px_x": 5093.3, "px_y": 3012.1, "clat": 50.23807862408458, "clon": 82.29604836470932}, "geometry": {"type": "Point", "coordinates": [5093.3262352868915, 3012.142332073301]}}, {"type": "Feature", "properties": {"num": 236, "osm_id": 515223005, "housenumber": null, "area_m2": 98.0, "px_x": 5170.6, "px_y": 3013.1, "clat": 50.238075349999995, "clon": 82.29646305}, "geometry": {"type": "Point", "coordinates": [5170.6291763186455, 3013.0965762473643]}}, {"type": "Feature", "properties": {"num": 237, "osm_id": 515222807, "housenumber": null, "area_m2": 248.8, "px_x": 2372.1, "px_y": 3070.8, "clat": 50.2378774, "clon": 82.28145065}, "geometry": {"type": "Point", "coordinates": [2372.1149821206927, 3070.7897210866213]}}, {"type": "Feature", "properties": {"num": 238, "osm_id": 515222989, "housenumber": null, "area_m2": 155.9, "px_x": 3792.2, "px_y": 3031.3, "clat": 50.23801297755214, "clon": 82.28906869851475}, "geometry": {"type": "Point", "coordinates": [3792.2221535667777, 3031.2752465456724]}}, {"type": "Feature", "properties": {"num": 239, "osm_id": 515222998, "housenumber": null, "area_m2": 100.6, "px_x": 4560.7, "px_y": 3058.8, "clat": 50.2379184559441, "clon": 82.2931909256054}, "geometry": {"type": "Point", "coordinates": [4560.660979136825, 3058.8238578289747]}}, {"type": "Feature", "properties": {"num": 240, "osm_id": 515223002, "housenumber": null, "area_m2": 170.9, "px_x": 4958.2, "px_y": 3081.8, "clat": 50.23783975, "clon": 82.29532335}, "geometry": {"type": "Point", "coordinates": [4958.173697702587, 3081.762903895229]}}, {"type": "Feature", "properties": {"num": 241, "osm_id": 515222997, "housenumber": null, "area_m2": 52.4, "px_x": 4292.0, "px_y": 3092.8, "clat": 50.23780185, "clon": 82.29174985}, "geometry": {"type": "Point", "coordinates": [4292.025015749037, 3092.8089410439134]}}, {"type": "Feature", "properties": {"num": 242, "osm_id": 515222996, "housenumber": null, "area_m2": 149.3, "px_x": 4361.0, "px_y": 3095.0, "clat": 50.237794452495265, "clon": 82.2921200769541}, "geometry": {"type": "Point", "coordinates": [4361.040322177112, 3094.964958809316]}}, {"type": "Feature", "properties": {"num": 243, "osm_id": 515222995, "housenumber": null, "area_m2": 146.1, "px_x": 4442.9, "px_y": 3100.9, "clat": 50.23777425, "clon": 82.29255905000001}, "geometry": {"type": "Point", "coordinates": [4442.870828948915, 3100.8530153408647]}}, {"type": "Feature", "properties": {"num": 244, "osm_id": 515223003, "housenumber": null, "area_m2": 69.2, "px_x": 5085.3, "px_y": 3095.5, "clat": 50.23779248052478, "clon": 82.29600546106671}, "geometry": {"type": "Point", "coordinates": [5085.328416623175, 3095.5396935492754]}}, {"type": "Feature", "properties": {"num": 245, "osm_id": 515222684, "housenumber": null, "area_m2": 107.8, "px_x": 4651.7, "px_y": 3268.2, "clat": 50.2372002, "clon": 82.2936792}, "geometry": {"type": "Point", "coordinates": [4651.681923411787, 3268.159961462021]}}, {"type": "Feature", "properties": {"num": 246, "osm_id": 515222767, "housenumber": null, "area_m2": 105.0, "px_x": 2790.1, "px_y": 3325.9, "clat": 50.237002004163486, "clon": 82.28369287185475}, "geometry": {"type": "Point", "coordinates": [2790.095430754125, 3325.9236955828965]}}, {"type": "Feature", "properties": {"num": 247, "osm_id": 515222795, "housenumber": null, "area_m2": 56.0, "px_x": 2888.6, "px_y": 3299.5, "clat": 50.237092499999996, "clon": 82.28422135}, "geometry": {"type": "Point", "coordinates": [2888.610897347331, 3299.54891583696]}}, {"type": "Feature", "properties": {"num": 248, "osm_id": 515222796, "housenumber": null, "area_m2": 152.0, "px_x": 3176.2, "px_y": 3306.5, "clat": 50.2370686, "clon": 82.28576385000001}, "geometry": {"type": "Point", "coordinates": [3176.153738245368, 3306.514514479786]}}, {"type": "Feature", "properties": {"num": 249, "osm_id": 515222683, "housenumber": null, "area_m2": 506.2, "px_x": 4759.7, "px_y": 3273.6, "clat": 50.23718142629683, "clon": 82.2942588945601}, "geometry": {"type": "Point", "coordinates": [4759.744821742177, 3273.6315256394446]}}, {"type": "Feature", "properties": {"num": 250, "osm_id": 515222760, "housenumber": null, "area_m2": 131.5, "px_x": 2456.4, "px_y": 3362.6, "clat": 50.236876179737656, "clon": 82.28190280674514}, "geometry": {"type": "Point", "coordinates": [2456.4031085520983, 3362.5948190018535]}}, {"type": "Feature", "properties": {"num": 251, "osm_id": 515222794, "housenumber": null, "area_m2": 66.2, "px_x": 2914.2, "px_y": 3374.9, "clat": 50.23683396624719, "clon": 82.28435841775872}, "geometry": {"type": "Point", "coordinates": [2914.1621795147657, 3374.8977830708027]}}, {"type": "Feature", "properties": {"num": 252, "osm_id": 515222690, "housenumber": null, "area_m2": 472.4, "px_x": 4126.3, "px_y": 3332.6, "clat": 50.236979000000005, "clon": 82.29086104999999}, "geometry": {"type": "Point", "coordinates": [4126.340687073767, 3332.628192126751]}}, {"type": "Feature", "properties": {"num": 253, "osm_id": 515222687, "housenumber": null, "area_m2": 477.1, "px_x": 4511.5, "px_y": 3361.1, "clat": 50.23688118513124, "clon": 82.29292717479335}, "geometry": {"type": "Point", "coordinates": [4511.49426420033, 3361.1360150165856]}}, {"type": "Feature", "properties": {"num": 254, "osm_id": 515222685, "housenumber": null, "area_m2": 918.3, "px_x": 4701.7, "px_y": 3378.2, "clat": 50.23682268327235, "clon": 82.29394734336522}, "geometry": {"type": "Point", "coordinates": [4701.6674696058035, 3378.1861620880663]}}, {"type": "Feature", "properties": {"num": 255, "osm_id": 515222768, "housenumber": null, "area_m2": 103.5, "px_x": 2808.4, "px_y": 3402.0, "clat": 50.23674092824246, "clon": 82.28379106316788}, "geometry": {"type": "Point", "coordinates": [2808.399618193507, 3402.013323467225]}}, {"type": "Feature", "properties": {"num": 256, "osm_id": 515222797, "housenumber": null, "area_m2": 138.8, "px_x": 3204.0, "px_y": 3410.7, "clat": 50.2367111, "clon": 82.2859131}, "geometry": {"type": "Point", "coordinates": [3203.9759547784925, 3410.706629753113]}}, {"type": "Feature", "properties": {"num": 257, "osm_id": 515222686, "housenumber": null, "area_m2": 163.3, "px_x": 4569.4, "px_y": 3433.3, "clat": 50.23663352620531, "clon": 82.29323772566673}, "geometry": {"type": "Point", "coordinates": [4569.385142877698, 3433.315135702491]}}, {"type": "Feature", "properties": {"num": 258, "osm_id": 515222761, "housenumber": null, "area_m2": 95.0, "px_x": 2482.1, "px_y": 3461.8, "clat": 50.236535871784426, "clon": 82.28204048618261}, "geometry": {"type": "Point", "coordinates": [2482.0684158951044, 3461.7759903930128]}}, {"type": "Feature", "properties": {"num": 259, "osm_id": 515222769, "housenumber": null, "area_m2": 64.4, "px_x": 2831.8, "px_y": 3475.0, "clat": 50.236490599999996, "clon": 82.28391675}, "geometry": {"type": "Point", "coordinates": [2831.829341866076, 3474.9701882079244]}}, {"type": "Feature", "properties": {"num": 260, "osm_id": 515222793, "housenumber": null, "area_m2": 69.3, "px_x": 2929.8, "px_y": 3453.5, "clat": 50.236564428171604, "clon": 82.28444216314658}, "geometry": {"type": "Point", "coordinates": [2929.773451305926, 3453.4533912763]}}, {"type": "Feature", "properties": {"num": 261, "osm_id": 515222770, "housenumber": null, "area_m2": 97.0, "px_x": 2860.9, "px_y": 3614.3, "clat": 50.23601265, "clon": 82.2840727}, "geometry": {"type": "Point", "coordinates": [2860.9005289301276, 3614.265166796744]}}, {"type": "Feature", "properties": {"num": 262, "osm_id": 515222792, "housenumber": null, "area_m2": 62.7, "px_x": 2962.5, "px_y": 3588.8, "clat": 50.236100050000005, "clon": 82.28461785}, "geometry": {"type": "Point", "coordinates": [2962.523854508996, 3588.793190099299]}}, {"type": "Feature", "properties": {"num": 263, "osm_id": 515222798, "housenumber": null, "area_m2": 152.8, "px_x": 3254.5, "px_y": 3599.4, "clat": 50.2360636, "clon": 82.2861842}, "geometry": {"type": "Point", "coordinates": [3254.512657634914, 3599.416234113276]}}, {"type": "Feature", "properties": {"num": 264, "osm_id": 515222805, "housenumber": null, "area_m2": 244.5, "px_x": 3359.9, "px_y": 3613.9, "clat": 50.23601375, "clon": 82.28674960000001}, "geometry": {"type": "Point", "coordinates": [3359.910856820643, 3613.944581568241]}}, {"type": "Feature", "properties": {"num": 265, "osm_id": 515222762, "housenumber": null, "area_m2": 140.1, "px_x": 2530.0, "px_y": 3633.8, "clat": 50.23594574068474, "clon": 82.28229772904488}, "geometry": {"type": "Point", "coordinates": [2530.0219610631466, 3633.765278480947]}}, {"type": "Feature", "properties": {"num": 266, "osm_id": 515222771, "housenumber": null, "area_m2": 65.4, "px_x": 2881.9, "px_y": 3674.6, "clat": 50.23580549306781, "clon": 82.28418522908684}, "geometry": {"type": "Point", "coordinates": [2881.8774711042643, 3674.639082696289]}}, {"type": "Feature", "properties": {"num": 267, "osm_id": 515222791, "housenumber": null, "area_m2": 68.9, "px_x": 2972.6, "px_y": 3645.3, "clat": 50.235906071451055, "clon": 82.28467163542042}, "geometry": {"type": "Point", "coordinates": [2972.550183571875, 3645.326503098011]}}, {"type": "Feature", "properties": {"num": 268, "osm_id": 515222763, "housenumber": null, "area_m2": 86.9, "px_x": 2549.9, "px_y": 3696.3, "clat": 50.23573125, "clon": 82.2824041}, "geometry": {"type": "Point", "coordinates": [2549.850944288075, 3696.2764542140067]}}, {"type": "Feature", "properties": {"num": 269, "osm_id": 515222772, "housenumber": null, "area_m2": 75.6, "px_x": 2895.6, "px_y": 3734.7, "clat": 50.23559935577684, "clon": 82.28425892089768}, "geometry": {"type": "Point", "coordinates": [2895.614620305598, 3734.715573474765]}}, {"type": "Feature", "properties": {"num": 270, "osm_id": 515222790, "housenumber": null, "area_m2": 92.2, "px_x": 2990.9, "px_y": 3707.9, "clat": 50.2356915, "clon": 82.28477029999999}, "geometry": {"type": "Point", "coordinates": [2990.9425942748785, 3707.861165281385]}}, {"type": "Feature", "properties": {"num": 271, "osm_id": 515222799, "housenumber": null, "area_m2": 159.1, "px_x": 3283.2, "px_y": 3700.9, "clat": 50.235715459152615, "clon": 82.28633796975826}, "geometry": {"type": "Point", "coordinates": [3283.17741817981, 3700.8785284385085]}}, {"type": "Feature", "properties": {"num": 272, "osm_id": 515222764, "housenumber": null, "area_m2": 64.4, "px_x": 2577.2, "px_y": 3768.0, "clat": 50.235485129461786, "clon": 82.28255055758278}, "geometry": {"type": "Point", "coordinates": [2577.1526165232062, 3768.0054895058274]}}, {"type": "Feature", "properties": {"num": 273, "osm_id": 515222773, "housenumber": null, "area_m2": 73.6, "px_x": 2909.8, "px_y": 3794.3, "clat": 50.2353948, "clon": 82.28433475}, "geometry": {"type": "Point", "coordinates": [2909.7501895055175, 3794.3308922424912]}}, {"type": "Feature", "properties": {"num": 274, "osm_id": 515222789, "housenumber": null, "area_m2": 82.2, "px_x": 3002.0, "px_y": 3770.4, "clat": 50.23547685, "clon": 82.2848298}, "geometry": {"type": "Point", "coordinates": [3002.0341981872916, 3770.4184381626546]}}, {"type": "Feature", "properties": {"num": 275, "osm_id": 515222774, "housenumber": null, "area_m2": 84.0, "px_x": 2924.8, "px_y": 3857.7, "clat": 50.23517737153585, "clon": 82.28441573863107}, "geometry": {"type": "Point", "coordinates": [2924.8475645929575, 3857.6975203454494]}}, {"type": "Feature", "properties": {"num": 276, "osm_id": 515222788, "housenumber": null, "area_m2": 98.6, "px_x": 3019.7, "px_y": 3842.0, "clat": 50.235231218816786, "clon": 82.28492450814093}, "geometry": {"type": "Point", "coordinates": [3019.689075268805, 3842.0044748857617]}}, {"type": "Feature", "properties": {"num": 277, "osm_id": 515222800, "housenumber": null, "area_m2": 150.6, "px_x": 3315.7, "px_y": 3819.6, "clat": 50.23530795841963, "clon": 82.28651227089507}, "geometry": {"type": "Point", "coordinates": [3315.6695050746202, 3819.639748122543]}}, {"type": "Feature", "properties": {"num": 278, "osm_id": 515222765, "housenumber": null, "area_m2": 113.4, "px_x": 2610.0, "px_y": 3918.6, "clat": 50.23496839266467, "clon": 82.28272657970376}, "geometry": {"type": "Point", "coordinates": [2609.9655181244016, 3918.6013548374176]}}, {"type": "Feature", "properties": {"num": 279, "osm_id": 515222775, "housenumber": null, "area_m2": 70.5, "px_x": 2940.2, "px_y": 3920.1, "clat": 50.2349633, "clon": 82.2844981}, "geometry": {"type": "Point", "coordinates": [2940.2008365541697, 3920.0855341143906]}}, {"type": "Feature", "properties": {"num": 280, "osm_id": 515222804, "housenumber": null, "area_m2": 101.0, "px_x": 3440.0, "px_y": 3909.3, "clat": 50.235000476497675, "clon": 82.2871792138145}, "geometry": {"type": "Point", "coordinates": [3439.996676400304, 3909.251008465886]}}, {"type": "Feature", "properties": {"num": 281, "osm_id": 515222766, "housenumber": null, "area_m2": 101.1, "px_x": 2621.5, "px_y": 3980.9, "clat": 50.2347545, "clon": 82.2827885}, "geometry": {"type": "Point", "coordinates": [2621.5082979500294, 3980.936966113746]}}, {"type": "Feature", "properties": {"num": 282, "osm_id": 515222776, "housenumber": null, "area_m2": 85.7, "px_x": 2958.7, "px_y": 3981.7, "clat": 50.23475195, "clon": 82.2845976}, "geometry": {"type": "Point", "coordinates": [2958.7489809021354, 3981.680121317506]}}, {"type": "Feature", "properties": {"num": 283, "osm_id": 515222787, "housenumber": null, "area_m2": 109.6, "px_x": 3038.7, "px_y": 3935.6, "clat": 50.23490996537937, "clon": 82.28502671910172}, "geometry": {"type": "Point", "coordinates": [3038.7425793409348, 3935.6290845535696]}}, {"type": "Feature", "properties": {"num": 284, "osm_id": 515222801, "housenumber": null, "area_m2": 103.6, "px_x": 3345.1, "px_y": 3931.3, "clat": 50.234924799999995, "clon": 82.28667035000001}, "geometry": {"type": "Point", "coordinates": [3345.1375860646367, 3931.305765517056]}}, {"type": "Feature", "properties": {"num": 285, "osm_id": 515222777, "housenumber": null, "area_m2": 70.9, "px_x": 2970.5, "px_y": 4035.4, "clat": 50.23456745, "clon": 82.28466075}, "geometry": {"type": "Point", "coordinates": [2970.5209941342473, 4035.4494809806347]}}, {"type": "Feature", "properties": {"num": 286, "osm_id": 515222786, "housenumber": null, "area_m2": 154.5, "px_x": 3060.8, "px_y": 4024.8, "clat": 50.23460405, "clon": 82.28514515}, "geometry": {"type": "Point", "coordinates": [3060.8196989148855, 4024.783055447042]}}, {"type": "Feature", "properties": {"num": 287, "osm_id": 515222784, "housenumber": null, "area_m2": 31.8, "px_x": 3075.3, "px_y": 4086.5, "clat": 50.234392168419255, "clon": 82.28522265670723}, "geometry": {"type": "Point", "coordinates": [3075.26799634099, 4086.532097764313]}}, {"type": "Feature", "properties": {"num": 288, "osm_id": 515222802, "housenumber": null, "area_m2": 344.5, "px_x": 3387.5, "px_y": 4096.5, "clat": 50.234358, "clon": 82.28689735}, "geometry": {"type": "Point", "coordinates": [3387.4534530863166, 4096.48983791098]}}, {"type": "Feature", "properties": {"num": 289, "osm_id": 515222778, "housenumber": null, "area_m2": 261.2, "px_x": 3015.3, "px_y": 4201.7, "clat": 50.23399715, "clon": 82.28490120000001}, "geometry": {"type": "Point", "coordinates": [3015.3441228866577, 4201.652316149324]}}, {"type": "Feature", "properties": {"num": 290, "osm_id": 515222782, "housenumber": null, "area_m2": 59.3, "px_x": 3108.6, "px_y": 4223.7, "clat": 50.233921335698085, "clon": 82.28540142843042}, "geometry": {"type": "Point", "coordinates": [3108.5934609547257, 4223.746769152582]}}, {"type": "Feature", "properties": {"num": 291, "osm_id": 515222780, "housenumber": null, "area_m2": 58.9, "px_x": 3130.2, "px_y": 4182.0, "clat": 50.234064599999996, "clon": 82.28551755000001}, "geometry": {"type": "Point", "coordinates": [3130.2400904521346, 4181.995430096984]}}, {"type": "Feature", "properties": {"num": 292, "osm_id": 515222803, "housenumber": null, "area_m2": 161.1, "px_x": 3419.0, "px_y": 4200.3, "clat": 50.2340017764647, "clon": 82.28706673904131}, "geometry": {"type": "Point", "coordinates": [3419.0298590138555, 4200.304031051695]}}]}