{"type": "FeatureCollection", "village": "с. Пригородное", "key": "prigorodnoe", "offset_px": [-10, 0], "mpp": 0.3813, "features": [{"type": "Feature", "properties": {"num": 1, "osm_id": 686131170, "housenumber": "9", "area_m2": 181.4, "px_x": 2249.1, "px_y": 650.9, "clat": 50.332347567474, "clon": 83.5161413538461}, "geometry": {"type": "Point", "coordinates": [2249.1442223116755, 650.892650552094]}}, {"type": "Feature", "properties": {"num": 2, "osm_id": 685678849, "housenumber": "67", "area_m2": 167.9, "px_x": 3327.2, "px_y": 671.7, "clat": 50.33227624676003, "clon": 83.52192447542754}, "geometry": {"type": "Point", "coordinates": [3327.196221500635, 671.720537815243]}}, {"type": "Feature", "properties": {"num": 3, "osm_id": 686131172, "housenumber": "11", "area_m2": 100.1, "px_x": 2218.4, "px_y": 748.8, "clat": 50.33201215, "clon": 83.51597665}, "geometry": {"type": "Point", "coordinates": [2218.4412000626326, 748.8448095992208]}}, {"type": "Feature", "properties": {"num": 4, "osm_id": 685678850, "housenumber": "69", "area_m2": 112.6, "px_x": 3330.8, "px_y": 720.9, "clat": 50.332107807933895, "clon": 83.52194362486503}, "geometry": {"type": "Point", "coordinates": [3330.765935368836, 720.9098382890224]}}, {"type": "Feature", "properties": {"num": 5, "osm_id": 685678851, "housenumber": "71", "area_m2": 101.5, "px_x": 3317.3, "px_y": 787.6, "clat": 50.331879275139514, "clon": 83.52187116011989}, "geometry": {"type": "Point", "coordinates": [3317.2575277984142, 787.6481407806277]}}, {"type": "Feature", "properties": {"num": 6, "osm_id": 686131175, "housenumber": "15", "area_m2": 65.1, "px_x": 2162.1, "px_y": 867.2, "clat": 50.33160686991288, "clon": 83.51567451446722}, "geometry": {"type": "Point", "coordinates": [2162.119054570794, 867.1980654709041]}}, {"type": "Feature", "properties": {"num": 7, "osm_id": 686131173, "housenumber": "13", "area_m2": 61.1, "px_x": 2175.6, "px_y": 810.7, "clat": 50.331800293229826, "clon": 83.51574681812855}, "geometry": {"type": "Point", "coordinates": [2175.5974339470267, 810.7131084911525]}}, {"type": "Feature", "properties": {"num": 8, "osm_id": 685678852, "housenumber": "73", "area_m2": 73.3, "px_x": 3319.8, "px_y": 856.8, "clat": 50.3316424, "clon": 83.52188455000001}, "geometry": {"type": "Point", "coordinates": [3319.7535823583603, 856.8223148137331]}}, {"type": "Feature", "properties": {"num": 9, "osm_id": 686131177, "housenumber": "17", "area_m2": 89.0, "px_x": 2135.1, "px_y": 897.5, "clat": 50.33150321842296, "clon": 83.51552967793647}, "geometry": {"type": "Point", "coordinates": [2135.1195683404803, 897.4670720174909]}}, {"type": "Feature", "properties": {"num": 10, "osm_id": 685678853, "housenumber": "75", "area_m2": 98.3, "px_x": 3326.7, "px_y": 913.3, "clat": 50.33144895, "clon": 83.5219217}, "geometry": {"type": "Point", "coordinates": [3326.6788443028927, 913.3148762397468]}}, {"type": "Feature", "properties": {"num": 11, "osm_id": 686131180, "housenumber": "19", "area_m2": 67.3, "px_x": 2131.6, "px_y": 964.4, "clat": 50.3312739, "clon": 83.51551055}, "geometry": {"type": "Point", "coordinates": [2131.553862541914, 964.4339485093951]}}, {"type": "Feature", "properties": {"num": 12, "osm_id": 685678854, "housenumber": "77", "area_m2": 73.0, "px_x": 3329.7, "px_y": 967.0, "clat": 50.33126505, "clon": 83.5219379}, "geometry": {"type": "Point", "coordinates": [3329.698743186891, 967.018369615078]}}, {"type": "Feature", "properties": {"num": 13, "osm_id": 686131182, "housenumber": "21", "area_m2": 67.8, "px_x": 2120.0, "px_y": 1011.2, "clat": 50.331113681527725, "clon": 83.51544858553156}, "geometry": {"type": "Point", "coordinates": [2120.002848416567, 1011.2216706871986]}}, {"type": "Feature", "properties": {"num": 14, "osm_id": 685678855, "housenumber": "79", "area_m2": 77.5, "px_x": 3335.3, "px_y": 1032.4, "clat": 50.33104107060241, "clon": 83.52196778920779}, "geometry": {"type": "Point", "coordinates": [3335.2704953476787, 1032.4257892221212]}}, {"type": "Feature", "properties": {"num": 15, "osm_id": 686131184, "housenumber": "23", "area_m2": 75.6, "px_x": 2132.7, "px_y": 1067.6, "clat": 50.330920674838794, "clon": 83.51551653033745}, "geometry": {"type": "Point", "coordinates": [2132.668678238988, 1067.5841465443373]}}, {"type": "Feature", "properties": {"num": 16, "osm_id": 685678856, "housenumber": "81", "area_m2": 92.7, "px_x": 3340.1, "px_y": 1091.4, "clat": 50.33083925, "clon": 83.5219938}, "geometry": {"type": "Point", "coordinates": [3340.119258455932, 1091.3620388247073]}}, {"type": "Feature", "properties": {"num": 17, "osm_id": 687285188, "housenumber": null, "area_m2": 71.2, "px_x": 3238.1, "px_y": 1123.4, "clat": 50.330729495477, "clon": 83.52144657481828}, "geometry": {"type": "Point", "coordinates": [3238.109090961516, 1123.41277436167]}}, {"type": "Feature", "properties": {"num": 18, "osm_id": 685678858, "housenumber": "83", "area_m2": 80.9, "px_x": 3356.4, "px_y": 1131.4, "clat": 50.33070205, "clon": 83.52208095}, "geometry": {"type": "Point", "coordinates": [3356.365195952356, 1131.4274459294975]}}, {"type": "Feature", "properties": {"num": 19, "osm_id": 687769580, "housenumber": null, "area_m2": 50.8, "px_x": 2035.0, "px_y": 1201.6, "clat": 50.3304617, "clon": 83.5149926}, "geometry": {"type": "Point", "coordinates": [2035.000984467566, 1201.614635001868]}}, {"type": "Feature", "properties": {"num": 20, "osm_id": 685678859, "housenumber": "85", "area_m2": 169.0, "px_x": 3360.1, "px_y": 1179.5, "clat": 50.33053748404815, "clon": 83.5221007277787}, "geometry": {"type": "Point", "coordinates": [3360.052041120827, 1179.4841581732035]}}, {"type": "Feature", "properties": {"num": 21, "osm_id": 687769581, "housenumber": null, "area_m2": 50.4, "px_x": 2024.3, "px_y": 1270.2, "clat": 50.3302267, "clon": 83.5149352}, "geometry": {"type": "Point", "coordinates": [2024.300848916173, 1270.239169768989]}}, {"type": "Feature", "properties": {"num": 22, "osm_id": 687769582, "housenumber": null, "area_m2": 205.0, "px_x": 2090.1, "px_y": 1274.7, "clat": 50.3302115, "clon": 83.51528795}, "geometry": {"type": "Point", "coordinates": [2090.058214969933, 1274.6778513938189]}}, {"type": "Feature", "properties": {"num": 23, "osm_id": 685678860, "housenumber": "85А", "area_m2": 116.7, "px_x": 3370.9, "px_y": 1248.8, "clat": 50.3303001, "clon": 83.52215885}, "geometry": {"type": "Point", "coordinates": [3370.886808462441, 1248.8049898222089]}}, {"type": "Feature", "properties": {"num": 24, "osm_id": 966433738, "housenumber": "25", "area_m2": 75.8, "px_x": 2246.0, "px_y": 1320.0, "clat": 50.33005632483897, "clon": 83.5161244303683}, "geometry": {"type": "Point", "coordinates": [2245.989457398653, 1319.991792269051]}}, {"type": "Feature", "properties": {"num": 25, "osm_id": 687769591, "housenumber": null, "area_m2": 2767.0, "px_x": 1732.1, "px_y": 1377.9, "clat": 50.32985817071374, "clon": 83.51336785175504}, "geometry": {"type": "Point", "coordinates": [1732.1259594485164, 1377.856149367988]}}, {"type": "Feature", "properties": {"num": 26, "osm_id": 966433737, "housenumber": "27", "area_m2": 75.6, "px_x": 2267.0, "px_y": 1382.0, "clat": 50.329843974838795, "clon": 83.51623713033744}, "geometry": {"type": "Point", "coordinates": [2266.998254351318, 1382.001575767994]}}, {"type": "Feature", "properties": {"num": 27, "osm_id": 435778914, "housenumber": null, "area_m2": 855.0, "px_x": 1283.1, "px_y": 1478.8, "clat": 50.329512565877884, "clon": 83.51095923627103}, "geometry": {"type": "Point", "coordinates": [1283.1274901628494, 1478.7780312299728]}}, {"type": "Feature", "properties": {"num": 28, "osm_id": 687769583, "housenumber": null, "area_m2": 154.9, "px_x": 1157.9, "px_y": 1551.5, "clat": 50.32926342337765, "clon": 83.51028772324847}, "geometry": {"type": "Point", "coordinates": [1157.9483898580074, 1551.5309849232435]}}, {"type": "Feature", "properties": {"num": 29, "osm_id": 686131162, "housenumber": null, "area_m2": 117.6, "px_x": 2374.1, "px_y": 1645.4, "clat": 50.328942068942666, "clon": 83.51681173659114}, "geometry": {"type": "Point", "coordinates": [2374.1126236096025, 1645.3702293857932]}}, {"type": "Feature", "properties": {"num": 30, "osm_id": 686131160, "housenumber": null, "area_m2": 118.0, "px_x": 2422.4, "px_y": 1648.7, "clat": 50.3289308047172, "clon": 83.51707077527477}, "geometry": {"type": "Point", "coordinates": [2422.400934137404, 1648.6595031321049]}}, {"type": "Feature", "properties": {"num": 31, "osm_id": 686131159, "housenumber": null, "area_m2": 104.9, "px_x": 2570.4, "px_y": 1641.3, "clat": 50.32895612470867, "clon": 83.5178646379839}, "geometry": {"type": "Point", "coordinates": [2570.3876690864563, 1641.2657949849963]}}, {"type": "Feature", "properties": {"num": 32, "osm_id": 435778884, "housenumber": "65", "area_m2": 663.7, "px_x": 886.3, "px_y": 1657.7, "clat": 50.3288998, "clon": 83.5088306}, "geometry": {"type": "Point", "coordinates": [886.3209289982915, 1657.7132065966725]}}, {"type": "Feature", "properties": {"num": 33, "osm_id": 687731323, "housenumber": "1/1", "area_m2": 117.8, "px_x": 2312.2, "px_y": 1857.4, "clat": 50.328216000000005, "clon": 83.51647985}, "geometry": {"type": "Point", "coordinates": [2312.2444788590074, 1857.3884954676032]}}, {"type": "Feature", "properties": {"num": 34, "osm_id": 687731327, "housenumber": "2Б", "area_m2": 234.0, "px_x": 2409.4, "px_y": 1857.0, "clat": 50.3282172246332, "clon": 83.51700127806676}, "geometry": {"type": "Point", "coordinates": [2409.4457155764103, 1857.0308949574828]}}, {"type": "Feature", "properties": {"num": 35, "osm_id": 687731326, "housenumber": "3/1", "area_m2": 195.0, "px_x": 2496.6, "px_y": 1852.3, "clat": 50.328233524433855, "clon": 83.51746893705467}, "geometry": {"type": "Point", "coordinates": [2496.6236695200205, 1852.2712508626282]}}, {"type": "Feature", "properties": {"num": 36, "osm_id": 687731325, "housenumber": null, "area_m2": 95.9, "px_x": 2564.9, "px_y": 1845.9, "clat": 50.32825517484688, "clon": 83.51783504461639}, "geometry": {"type": "Point", "coordinates": [2564.871065542102, 1845.949191853404]}}, {"type": "Feature", "properties": {"num": 37, "osm_id": 687731324, "housenumber": "4/1", "area_m2": 97.3, "px_x": 2618.5, "px_y": 1830.5, "clat": 50.3283081, "clon": 83.5181227}, "geometry": {"type": "Point", "coordinates": [2618.4939155876637, 1830.494696676731]}}, {"type": "Feature", "properties": {"num": 38, "osm_id": 966156682, "housenumber": "7В", "area_m2": 95.9, "px_x": 2863.0, "px_y": 1831.0, "clat": 50.32830637484688, "clon": 83.51943434461639}, "geometry": {"type": "Point", "coordinates": [2863.0021938607097, 1830.9984530843794]}}, {"type": "Feature", "properties": {"num": 39, "osm_id": 687731317, "housenumber": null, "area_m2": 165.2, "px_x": 2175.1, "px_y": 1903.4, "clat": 50.3280585, "clon": 83.51574425}, "geometry": {"type": "Point", "coordinates": [2175.118700094521, 1903.3793986737728]}}, {"type": "Feature", "properties": {"num": 40, "osm_id": 687731316, "housenumber": null, "area_m2": 113.0, "px_x": 2401.7, "px_y": 1914.1, "clat": 50.32802194758569, "clon": 83.51695972633676}, "geometry": {"type": "Point", "coordinates": [2401.699911698699, 1914.0528914704919]}}, {"type": "Feature", "properties": {"num": 41, "osm_id": 435778854, "housenumber": null, "area_m2": 157.9, "px_x": 774.9, "px_y": 1985.4, "clat": 50.327777744004, "clon": 83.508232829461}, "geometry": {"type": "Point", "coordinates": [774.888423986733, 1985.3613815009594]}}, {"type": "Feature", "properties": {"num": 42, "osm_id": 687731318, "housenumber": null, "area_m2": 279.1, "px_x": 2188.1, "px_y": 1965.3, "clat": 50.32784637387498, "clon": 83.51581388167271}, "geometry": {"type": "Point", "coordinates": [2188.0989846885204, 1965.3212027437985]}}, {"type": "Feature", "properties": {"num": 43, "osm_id": 687731322, "housenumber": "1А", "area_m2": 235.5, "px_x": 2317.7, "px_y": 1987.8, "clat": 50.32776928379064, "clon": 83.51650927363661}, "geometry": {"type": "Point", "coordinates": [2317.7294422760606, 1987.8317934051156]}}, {"type": "Feature", "properties": {"num": 44, "osm_id": 687731320, "housenumber": null, "area_m2": 209.3, "px_x": 2368.3, "px_y": 1993.2, "clat": 50.32775105, "clon": 83.5167804}, "geometry": {"type": "Point", "coordinates": [2368.2710596323013, 1993.1561225876212]}}, {"type": "Feature", "properties": {"num": 45, "osm_id": 687731328, "housenumber": "2А", "area_m2": 152.8, "px_x": 2422.6, "px_y": 2000.9, "clat": 50.327724700000005, "clon": 83.5170718}, "geometry": {"type": "Point", "coordinates": [2422.5919567644596, 2000.850409027189]}}, {"type": "Feature", "properties": {"num": 46, "osm_id": 687731315, "housenumber": "4А", "area_m2": 96.3, "px_x": 2563.1, "px_y": 1971.3, "clat": 50.32782575, "clon": 83.51782535}, "geometry": {"type": "Point", "coordinates": [2563.063858062029, 1971.3434543386102]}}, {"type": "Feature", "properties": {"num": 47, "osm_id": 687731329, "housenumber": "5А", "area_m2": 258.1, "px_x": 2674.7, "px_y": 1974.5, "clat": 50.32781500305578, "clon": 83.51842412448211}, "geometry": {"type": "Point", "coordinates": [2674.6835116371512, 1974.4816027544439]}}, {"type": "Feature", "properties": {"num": 48, "osm_id": 685403026, "housenumber": "91", "area_m2": 112.9, "px_x": 3509.4, "px_y": 1971.3, "clat": 50.3278258, "clon": 83.52290215000001}, "geometry": {"type": "Point", "coordinates": [3509.4479712694883, 1971.3288541436195]}}, {"type": "Feature", "properties": {"num": 49, "osm_id": 687731319, "housenumber": null, "area_m2": 154.7, "px_x": 2181.8, "px_y": 2037.1, "clat": 50.32760042047076, "clon": 83.51577998926176}, "geometry": {"type": "Point", "coordinates": [2181.780981361866, 2037.1403817608953]}}, {"type": "Feature", "properties": {"num": 50, "osm_id": 687731321, "housenumber": null, "area_m2": 142.7, "px_x": 2332.9, "px_y": 2037.3, "clat": 50.32759995, "clon": 83.51659055}, "geometry": {"type": "Point", "coordinates": [2332.8804545402527, 2037.2777603641152]}}, {"type": "Feature", "properties": {"num": 51, "osm_id": 685403028, "housenumber": "93", "area_m2": 83.7, "px_x": 3514.9, "px_y": 2043.3, "clat": 50.327579479955155, "clon": 83.52293156239831}, "geometry": {"type": "Point", "coordinates": [3514.9308397099376, 2043.2550619766116]}}, {"type": "Feature", "properties": {"num": 52, "osm_id": 687731336, "housenumber": null, "area_m2": 185.5, "px_x": 2330.4, "px_y": 2115.4, "clat": 50.3273325, "clon": 83.5165771}, "geometry": {"type": "Point", "coordinates": [2330.3731928169727, 2115.373591326177]}}, {"type": "Feature", "properties": {"num": 53, "osm_id": 687731335, "housenumber": null, "area_m2": 258.4, "px_x": 2393.6, "px_y": 2115.4, "clat": 50.3273325, "clon": 83.5169164}, "geometry": {"type": "Point", "coordinates": [2393.6232971400023, 2115.373591326177]}}, {"type": "Feature", "properties": {"num": 54, "osm_id": 687731333, "housenumber": null, "area_m2": 157.1, "px_x": 2529.3, "px_y": 2101.6, "clat": 50.32737958292188, "clon": 83.51764449015667}, "geometry": {"type": "Point", "coordinates": [2529.3491396456957, 2101.6253341436386]}}, {"type": "Feature", "properties": {"num": 55, "osm_id": 687731332, "housenumber": null, "area_m2": 449.3, "px_x": 2698.5, "px_y": 2109.9, "clat": 50.32735139202445, "clon": 83.51855196110431}, "geometry": {"type": "Point", "coordinates": [2698.5139852315187, 2109.8571041710675]}}, {"type": "Feature", "properties": {"num": 56, "osm_id": 687731331, "housenumber": "7", "area_m2": 275.5, "px_x": 2873.7, "px_y": 2079.1, "clat": 50.32745665, "clon": 83.51949175}, "geometry": {"type": "Point", "coordinates": [2873.703332975507, 2079.1216459311545]}}, {"type": "Feature", "properties": {"num": 57, "osm_id": 685403030, "housenumber": "95", "area_m2": 84.3, "px_x": 3520.4, "px_y": 2087.4, "clat": 50.3274283736095, "clon": 83.52296063739904}, "geometry": {"type": "Point", "coordinates": [3520.3508126810193, 2087.3783934004605]}}, {"type": "Feature", "properties": {"num": 58, "osm_id": 435778872, "housenumber": null, "area_m2": 379.7, "px_x": 788.2, "px_y": 2145.5, "clat": 50.3272292, "clon": 83.50830425000001}, "geometry": {"type": "Point", "coordinates": [788.2021774277091, 2145.537240114063]}}, {"type": "Feature", "properties": {"num": 59, "osm_id": 687731334, "housenumber": null, "area_m2": 221.6, "px_x": 2478.3, "px_y": 2180.4, "clat": 50.32710989847181, "clon": 83.5173703752897}, "geometry": {"type": "Point", "coordinates": [2478.2504248544574, 2180.373261101544]}}, {"type": "Feature", "properties": {"num": 60, "osm_id": 687731314, "housenumber": null, "area_m2": 71.0, "px_x": 2559.0, "px_y": 2161.7, "clat": 50.327173949999995, "clon": 83.51780355}, "geometry": {"type": "Point", "coordinates": [2559.0000435188413, 2161.6702392995358]}}, {"type": "Feature", "properties": {"num": 61, "osm_id": 687731330, "housenumber": null, "area_m2": 148.4, "px_x": 2830.9, "px_y": 2148.8, "clat": 50.32721795, "clon": 83.51926195}, "geometry": {"type": "Point", "coordinates": [2830.8655081242323, 2148.8222414702177]}}, {"type": "Feature", "properties": {"num": 62, "osm_id": 685403032, "housenumber": "105", "area_m2": 133.3, "px_x": 3534.9, "px_y": 2133.2, "clat": 50.32727135, "clon": 83.52303859999999}, "geometry": {"type": "Point", "coordinates": [3534.88409486413, 2133.229428127408]}}, {"type": "Feature", "properties": {"num": 63, "osm_id": 687731346, "housenumber": "20", "area_m2": 212.8, "px_x": 2728.6, "px_y": 2247.6, "clat": 50.3268795533125, "clon": 83.51871347483267}, "geometry": {"type": "Point", "coordinates": [2728.622326426208, 2247.6337514445186]}}, {"type": "Feature", "properties": {"num": 64, "osm_id": 687731307, "housenumber": null, "area_m2": 125.2, "px_x": 3066.5, "px_y": 2229.7, "clat": 50.3269409, "clon": 83.52052615}, "geometry": {"type": "Point", "coordinates": [3066.5294688791037, 2229.7206294238567]}}, {"type": "Feature", "properties": {"num": 65, "osm_id": 685403022, "housenumber": "107", "area_m2": 111.9, "px_x": 3537.0, "px_y": 2212.1, "clat": 50.32700114348731, "clon": 83.52305017735274}, "geometry": {"type": "Point", "coordinates": [3537.042269833386, 2212.1296173632145]}}, {"type": "Feature", "properties": {"num": 66, "osm_id": 1527485771, "housenumber": null, "area_m2": 51.8, "px_x": 800.5, "px_y": 2275.2, "clat": 50.326785090076115, "clon": 83.50837027324881}, "geometry": {"type": "Point", "coordinates": [800.5098030492663, 2275.2168007418513]}}, {"type": "Feature", "properties": {"num": 67, "osm_id": 687731337, "housenumber": null, "area_m2": 255.6, "px_x": 2347.4, "px_y": 2265.7, "clat": 50.32681752483381, "clon": 83.51666829075836}, "geometry": {"type": "Point", "coordinates": [2347.3723822683096, 2265.745931752026]}}, {"type": "Feature", "properties": {"num": 68, "osm_id": 687731347, "housenumber": "19", "area_m2": 224.4, "px_x": 2607.8, "px_y": 2254.1, "clat": 50.32685732517, "clon": 83.51806507005738}, "geometry": {"type": "Point", "coordinates": [2607.750915646553, 2254.1243232265115]}}, {"type": "Feature", "properties": {"num": 69, "osm_id": 685403021, "housenumber": null, "area_m2": 56.9, "px_x": 3544.8, "px_y": 2263.4, "clat": 50.3268254695422, "clon": 83.52309183600444}, "geometry": {"type": "Point", "coordinates": [3544.808005362749, 2263.426095575094]}}, {"type": "Feature", "properties": {"num": 70, "osm_id": 685403034, "housenumber": "97", "area_m2": 91.4, "px_x": 3829.9, "px_y": 2308.2, "clat": 50.32667219744664, "clon": 83.52462093353134}, "geometry": {"type": "Point", "coordinates": [3829.852444179356, 2308.181118827313]}}, {"type": "Feature", "properties": {"num": 71, "osm_id": 687731350, "housenumber": "31", "area_m2": 139.4, "px_x": 2535.0, "px_y": 2363.0, "clat": 50.326484474844754, "clon": 83.51767478798656}, "geometry": {"type": "Point", "coordinates": [2534.9970644935966, 2362.995396926999]}}, {"type": "Feature", "properties": {"num": 72, "osm_id": 687731349, "housenumber": "32", "area_m2": 150.0, "px_x": 2608.4, "px_y": 2359.0, "clat": 50.32649815505038, "clon": 83.51806842484147}, "geometry": {"type": "Point", "coordinates": [2608.3762927278876, 2359.000836789608]}}, {"type": "Feature", "properties": {"num": 73, "osm_id": 687731348, "housenumber": null, "area_m2": 155.4, "px_x": 2682.6, "px_y": 2355.1, "clat": 50.3265114, "clon": 83.51846675}, "geometry": {"type": "Point", "coordinates": [2682.6294840946794, 2355.1333684027195]}}, {"type": "Feature", "properties": {"num": 74, "osm_id": 687731310, "housenumber": "35", "area_m2": 127.3, "px_x": 2856.7, "px_y": 2347.4, "clat": 50.32653785, "clon": 83.51940055}, "geometry": {"type": "Point", "coordinates": [2856.7024207636714, 2347.4100788123906]}}, {"type": "Feature", "properties": {"num": 75, "osm_id": 687731309, "housenumber": "36", "area_m2": 92.2, "px_x": 2930.4, "px_y": 2333.6, "clat": 50.32658505, "clon": 83.51979610000001}, "geometry": {"type": "Point", "coordinates": [2930.4382850825787, 2333.6278651580215]}}, {"type": "Feature", "properties": {"num": 76, "osm_id": 685403020, "housenumber": "109", "area_m2": 80.6, "px_x": 3558.5, "px_y": 2319.2, "clat": 50.32663445, "clon": 83.52316525}, "geometry": {"type": "Point", "coordinates": [3558.49336604774, 2319.2032455280423]}}, {"type": "Feature", "properties": {"num": 77, "osm_id": 966156681, "housenumber": "101", "area_m2": 91.4, "px_x": 3771.0, "px_y": 2335.0, "clat": 50.32658039744664, "clon": 83.52430523353134}, "geometry": {"type": "Point", "coordinates": [3771.0016987249255, 2334.9863929748535]}}, {"type": "Feature", "properties": {"num": 78, "osm_id": 687731312, "housenumber": null, "area_m2": 57.1, "px_x": 2325.9, "px_y": 2376.7, "clat": 50.32643739962337, "clon": 83.51655321660664}, "geometry": {"type": "Point", "coordinates": [2325.9210056066513, 2376.7411466427147]}}, {"type": "Feature", "properties": {"num": 79, "osm_id": 687731313, "housenumber": null, "area_m2": 96.6, "px_x": 2365.5, "px_y": 2428.5, "clat": 50.326260166620244, "clon": 83.51676560181984}, "geometry": {"type": "Point", "coordinates": [2365.512478902936, 2428.492252252996]}}, {"type": "Feature", "properties": {"num": 80, "osm_id": 685403019, "housenumber": "113", "area_m2": 145.8, "px_x": 3567.3, "px_y": 2378.1, "clat": 50.326432807005666, "clon": 83.5232124228865}, "geometry": {"type": "Point", "coordinates": [3567.2870294451714, 2378.082169316709]}}, {"type": "Feature", "properties": {"num": 81, "osm_id": 685403017, "housenumber": "103", "area_m2": 97.5, "px_x": 3708.2, "px_y": 2427.0, "clat": 50.32626512518572, "clon": 83.52396813970438}, "geometry": {"type": "Point", "coordinates": [3708.162854872644, 2427.0443798154593]}}, {"type": "Feature", "properties": {"num": 82, "osm_id": 687731356, "housenumber": "139", "area_m2": 325.1, "px_x": 2265.1, "px_y": 2489.4, "clat": 50.32605162566503, "clon": 83.51622703513537}, "geometry": {"type": "Point", "coordinates": [2265.1163722872734, 2489.3848682120442]}}, {"type": "Feature", "properties": {"num": 83, "osm_id": 687731311, "housenumber": null, "area_m2": 62.0, "px_x": 2464.9, "px_y": 2447.8, "clat": 50.326194, "clon": 83.51729875000001}, "geometry": {"type": "Point", "coordinates": [2464.8985031098127, 2447.8125082030892]}}, {"type": "Feature", "properties": {"num": 84, "osm_id": 966156684, "housenumber": "51", "area_m2": 230.1, "px_x": 3011.0, "px_y": 2481.0, "clat": 50.326080353273504, "clon": 83.52022832482781}, "geometry": {"type": "Point", "coordinates": [3011.0108328312635, 2480.9966074079275]}}, {"type": "Feature", "properties": {"num": 85, "osm_id": 966156683, "housenumber": "53", "area_m2": 230.1, "px_x": 3130.0, "px_y": 2482.0, "clat": 50.32607695327351, "clon": 83.5208666248278}, "geometry": {"type": "Point", "coordinates": [3129.9985769689083, 2481.9893838986754]}}, {"type": "Feature", "properties": {"num": 86, "osm_id": 685403018, "housenumber": null, "area_m2": 86.7, "px_x": 3570.0, "px_y": 2432.5, "clat": 50.326246324680554, "clon": 83.52322698892594}, "geometry": {"type": "Point", "coordinates": [3570.0023360028863, 2432.5340177826583]}}, {"type": "Feature", "properties": {"num": 87, "osm_id": 685403016, "housenumber": "99", "area_m2": 112.2, "px_x": 3797.5, "px_y": 2472.4, "clat": 50.3261097, "clon": 83.52444715}, "geometry": {"type": "Point", "coordinates": [3797.4568459391594, 2472.427563227713]}}, {"type": "Feature", "properties": {"num": 88, "osm_id": 687731355, "housenumber": "44", "area_m2": 203.7, "px_x": 2484.3, "px_y": 2522.8, "clat": 50.32593727318773, "clon": 83.51740277683614}, "geometry": {"type": "Point", "coordinates": [2484.2905108854175, 2522.774941738695]}}, {"type": "Feature", "properties": {"num": 89, "osm_id": 687731354, "housenumber": "45", "area_m2": 131.9, "px_x": 2552.4, "px_y": 2525.7, "clat": 50.32592723134265, "clon": 83.5177681638223}, "geometry": {"type": "Point", "coordinates": [2552.403581894934, 2525.707082040608]}}, {"type": "Feature", "properties": {"num": 90, "osm_id": 687731353, "housenumber": "46", "area_m2": 344.8, "px_x": 2627.3, "px_y": 2525.4, "clat": 50.32592843874915, "clon": 83.51816968258511}, "geometry": {"type": "Point", "coordinates": [2627.2521042376757, 2525.3545288033783]}}, {"type": "Feature", "properties": {"num": 91, "osm_id": 687731352, "housenumber": "47", "area_m2": 169.8, "px_x": 2690.6, "px_y": 2517.6, "clat": 50.3259549, "clon": 83.51850965}, "geometry": {"type": "Point", "coordinates": [2690.62662371248, 2517.6280487924814]}}, {"type": "Feature", "properties": {"num": 92, "osm_id": 687731351, "housenumber": "48", "area_m2": 173.0, "px_x": 2757.4, "px_y": 2514.1, "clat": 50.32596687515062, "clon": 83.51886771300305}, "geometry": {"type": "Point", "coordinates": [2757.374405309558, 2514.131396278739]}}, {"type": "Feature", "properties": {"num": 93, "osm_id": 687731345, "housenumber": "49", "area_m2": 158.0, "px_x": 2864.1, "px_y": 2505.6, "clat": 50.32599599401034, "clon": 83.51944037515706}, "geometry": {"type": "Point", "coordinates": [2864.1263681203127, 2505.6289079748094]}}, {"type": "Feature", "properties": {"num": 94, "osm_id": 687731344, "housenumber": "50", "area_m2": 230.1, "px_x": 2940.8, "px_y": 2500.1, "clat": 50.326014853273506, "clon": 83.5198514248278}, "geometry": {"type": "Point", "coordinates": [2940.751580491662, 2500.1221420168877]}}, {"type": "Feature", "properties": {"num": 95, "osm_id": 685403013, "housenumber": "127", "area_m2": 104.0, "px_x": 3588.0, "px_y": 2548.2, "clat": 50.32585015774264, "clon": 83.52332332358662}, "geometry": {"type": "Point", "coordinates": [3587.960418343544, 2548.211950365454]}}, {"type": "Feature", "properties": {"num": 96, "osm_id": 685403015, "housenumber": "115", "area_m2": 68.0, "px_x": 3701.4, "px_y": 2492.0, "clat": 50.3260427, "clon": 83.52393165}, "geometry": {"type": "Point", "coordinates": [3701.3606809601188, 2491.9910989552736]}}, {"type": "Feature", "properties": {"num": 97, "osm_id": 687731283, "housenumber": null, "area_m2": 94.4, "px_x": 2669.5, "px_y": 2600.5, "clat": 50.3256712, "clon": 83.5183962}, "geometry": {"type": "Point", "coordinates": [2669.478010877967, 2600.4660242050886]}}, {"type": "Feature", "properties": {"num": 98, "osm_id": 687731343, "housenumber": "59", "area_m2": 154.5, "px_x": 2819.3, "px_y": 2608.5, "clat": 50.325643679463724, "clon": 83.51919964096344}, "geometry": {"type": "Point", "coordinates": [2819.250261850655, 2608.50175928697]}}, {"type": "Feature", "properties": {"num": 99, "osm_id": 687731342, "housenumber": "60", "area_m2": 159.5, "px_x": 2890.2, "px_y": 2605.4, "clat": 50.3256544, "clon": 83.5195805}, "geometry": {"type": "Point", "coordinates": [2890.247532092035, 2605.3714651204646]}}, {"type": "Feature", "properties": {"num": 100, "osm_id": 687731341, "housenumber": "61", "area_m2": 159.0, "px_x": 2954.5, "px_y": 2600.6, "clat": 50.32567065, "clon": 83.5199252}, "geometry": {"type": "Point", "coordinates": [2954.5042693689466, 2600.626619026065]}}, {"type": "Feature", "properties": {"num": 101, "osm_id": 685403014, "housenumber": "119", "area_m2": 59.6, "px_x": 3694.4, "px_y": 2550.4, "clat": 50.32584274454723, "clon": 83.5238941752117}, "geometry": {"type": "Point", "coordinates": [3694.3748740926385, 2550.3765415921807]}}, {"type": "Feature", "properties": {"num": 102, "osm_id": 435778955, "housenumber": null, "area_m2": 247.9, "px_x": 947.7, "px_y": 2657.4, "clat": 50.32547635867226, "clon": 83.50915967095779}, "geometry": {"type": "Point", "coordinates": [947.6642016395926, 2657.3577402979136]}}, {"type": "Feature", "properties": {"num": 103, "osm_id": 687731284, "housenumber": "69", "area_m2": 85.4, "px_x": 2599.9, "px_y": 2630.8, "clat": 50.32556721593144, "clon": 83.5180231948835}, "geometry": {"type": "Point", "coordinates": [2599.9448174461722, 2630.8283597044647]}}, {"type": "Feature", "properties": {"num": 104, "osm_id": 687731340, "housenumber": "58", "area_m2": 193.6, "px_x": 2752.1, "px_y": 2613.4, "clat": 50.325627, "clon": 83.51883955}, "geometry": {"type": "Point", "coordinates": [2752.1244410276413, 2613.372001938522]}}, {"type": "Feature", "properties": {"num": 105, "osm_id": 685403012, "housenumber": "129", "area_m2": 79.5, "px_x": 3596.6, "px_y": 2613.2, "clat": 50.32562745, "clon": 83.5233698}, "geometry": {"type": "Point", "coordinates": [3596.624249741435, 2613.2406062968075]}}, {"type": "Feature", "properties": {"num": 106, "osm_id": 685403011, "housenumber": "121", "area_m2": 66.1, "px_x": 3683.2, "px_y": 2610.3, "clat": 50.32563765629993, "clon": 83.52383447608729}, "geometry": {"type": "Point", "coordinates": [3683.246150702238, 2610.260465260595]}}, {"type": "Feature", "properties": {"num": 107, "osm_id": 687731285, "housenumber": "70", "area_m2": 120.2, "px_x": 2616.0, "px_y": 2675.5, "clat": 50.32541435, "clon": 83.51810935}, "geometry": {"type": "Point", "coordinates": [2616.005295224488, 2675.4636025726795]}}, {"type": "Feature", "properties": {"num": 108, "osm_id": 687731281, "housenumber": "78", "area_m2": 137.1, "px_x": 3233.9, "px_y": 2726.9, "clat": 50.32523832473434, "clon": 83.52142373603704}, "geometry": {"type": "Point", "coordinates": [3233.851633556187, 2726.8609494008124]}}, {"type": "Feature", "properties": {"num": 109, "osm_id": 685403010, "housenumber": "123", "area_m2": 76.6, "px_x": 3673.5, "px_y": 2677.8, "clat": 50.325406291802814, "clon": 83.52378212436282}, "geometry": {"type": "Point", "coordinates": [3673.4870819300413, 2677.816507343203]}}, {"type": "Feature", "properties": {"num": 110, "osm_id": 687731306, "housenumber": "142", "area_m2": 164.1, "px_x": 2295.9, "px_y": 2761.9, "clat": 50.3251183, "clon": 83.51639209999999}, "geometry": {"type": "Point", "coordinates": [2295.886693254113, 2761.906677991152]}}, {"type": "Feature", "properties": {"num": 111, "osm_id": 687731282, "housenumber": null, "area_m2": 93.6, "px_x": 2695.6, "px_y": 2786.2, "clat": 50.325035, "clon": 83.51853645}, "geometry": {"type": "Point", "coordinates": [2695.622505813837, 2786.2291892021894]}}, {"type": "Feature", "properties": {"num": 112, "osm_id": 687731339, "housenumber": "72", "area_m2": 414.2, "px_x": 2813.4, "px_y": 2760.7, "clat": 50.32512227084606, "clon": 83.51916814126514}, "geometry": {"type": "Point", "coordinates": [2813.3782924860716, 2760.747241780162]}}, {"type": "Feature", "properties": {"num": 113, "osm_id": 687731338, "housenumber": "73", "area_m2": 135.5, "px_x": 2881.9, "px_y": 2771.4, "clat": 50.32508587213597, "clon": 83.519535549237}, "geometry": {"type": "Point", "coordinates": [2881.868102528155, 2771.375195503235]}}, {"type": "Feature", "properties": {"num": 114, "osm_id": 685403008, "housenumber": "135", "area_m2": 104.1, "px_x": 3669.4, "px_y": 2753.9, "clat": 50.3251458, "clon": 83.5237601}, "geometry": {"type": "Point", "coordinates": [3669.3814431279898, 2753.877028077841]}}, {"type": "Feature", "properties": {"num": 115, "osm_id": 685403009, "housenumber": null, "area_m2": 116.9, "px_x": 3708.2, "px_y": 2743.3, "clat": 50.32518206629011, "clon": 83.52396858295089}, "geometry": {"type": "Point", "coordinates": [3708.2454820126295, 2743.2877259403467]}}, {"type": "Feature", "properties": {"num": 116, "osm_id": 687731305, "housenumber": "144", "area_m2": 209.2, "px_x": 2451.4, "px_y": 2823.7, "clat": 50.324906539902166, "clon": 83.51722609922126}, "geometry": {"type": "Point", "coordinates": [2451.355416364968, 2823.737775146961]}}, {"type": "Feature", "properties": {"num": 117, "osm_id": 687731304, "housenumber": null, "area_m2": 116.6, "px_x": 2540.9, "px_y": 2864.3, "clat": 50.3247676813755, "clon": 83.51770670577457}, "geometry": {"type": "Point", "coordinates": [2540.946971423924, 2864.282445602119]}}, {"type": "Feature", "properties": {"num": 118, "osm_id": 685403007, "housenumber": null, "area_m2": 148.0, "px_x": 3619.4, "px_y": 2852.5, "clat": 50.324808055184235, "clon": 83.52349202473366}, "geometry": {"type": "Point", "coordinates": [3619.408591479063, 2852.4938927963376]}}, {"type": "Feature", "properties": {"num": 119, "osm_id": 687731294, "housenumber": "123", "area_m2": 122.8, "px_x": 2320.0, "px_y": 2910.8, "clat": 50.32460845, "clon": 83.51652125}, "geometry": {"type": "Point", "coordinates": [2319.961998216808, 2910.7755458429456]}}, {"type": "Feature", "properties": {"num": 120, "osm_id": 687731292, "housenumber": null, "area_m2": 64.4, "px_x": 2458.3, "px_y": 2926.8, "clat": 50.324553711767074, "clon": 83.5172634874637}, "geometry": {"type": "Point", "coordinates": [2458.3250899091363, 2926.7582277283072]}}, {"type": "Feature", "properties": {"num": 121, "osm_id": 687731303, "housenumber": null, "area_m2": 58.1, "px_x": 2491.1, "px_y": 2954.5, "clat": 50.324458645401485, "clon": 83.5174392305651}, "geometry": {"type": "Point", "coordinates": [2491.085978500545, 2954.516030713916]}}, {"type": "Feature", "properties": {"num": 122, "osm_id": 687731286, "housenumber": null, "area_m2": 137.3, "px_x": 2595.2, "px_y": 2915.4, "clat": 50.32459277404828, "clon": 83.51799797926579}, "geometry": {"type": "Point", "coordinates": [2595.2442856132984, 2915.3526730015874]}}, {"type": "Feature", "properties": {"num": 123, "osm_id": 687731289, "housenumber": null, "area_m2": 58.5, "px_x": 2753.2, "px_y": 2926.9, "clat": 50.32455322918235, "clon": 83.51884526544728}, "geometry": {"type": "Point", "coordinates": [2753.18987762928, 2926.8991346135736]}}, {"type": "Feature", "properties": {"num": 124, "osm_id": 685403006, "housenumber": "1", "area_m2": 63.4, "px_x": 3729.2, "px_y": 2946.2, "clat": 50.324487245978865, "clon": 83.5240809246397}, "geometry": {"type": "Point", "coordinates": [3729.1874906644225, 2946.1651420257986]}}, {"type": "Feature", "properties": {"num": 125, "osm_id": 687731295, "housenumber": "122", "area_m2": 147.9, "px_x": 2254.9, "px_y": 3021.9, "clat": 50.324227949999994, "clon": 83.51617205000001}, "geometry": {"type": "Point", "coordinates": [2254.8664001449943, 3021.8750332072377]}}, {"type": "Feature", "properties": {"num": 126, "osm_id": 687731293, "housenumber": null, "area_m2": 50.4, "px_x": 2319.6, "px_y": 2973.7, "clat": 50.324392849999995, "clon": 83.5165191}, "geometry": {"type": "Point", "coordinates": [2319.5612091720104, 2973.7271648459136]}}, {"type": "Feature", "properties": {"num": 127, "osm_id": 966156685, "housenumber": "125", "area_m2": 69.6, "px_x": 2483.4, "px_y": 3011.6, "clat": 50.324263207242105, "clon": 83.51739806915612}, "geometry": {"type": "Point", "coordinates": [2483.4129357263446, 3011.5805593654513]}}, {"type": "Feature", "properties": {"num": 128, "osm_id": 687731302, "housenumber": "126", "area_m2": 171.0, "px_x": 2546.2, "px_y": 3024.1, "clat": 50.32422035, "clon": 83.517735}, "geometry": {"type": "Point", "coordinates": [2546.221397332847, 3024.094094067812]}}, {"type": "Feature", "properties": {"num": 129, "osm_id": 687731301, "housenumber": "127", "area_m2": 156.2, "px_x": 2597.5, "px_y": 3007.5, "clat": 50.32427708039277, "clon": 83.51801030930136}, "geometry": {"type": "Point", "coordinates": [2597.5427708402276, 3007.5298494435847]}}, {"type": "Feature", "properties": {"num": 130, "osm_id": 1416776611, "housenumber": null, "area_m2": 184.5, "px_x": 2691.4, "px_y": 3000.4, "clat": 50.3243014, "clon": 83.51851375000001}, "geometry": {"type": "Point", "coordinates": [2691.390919111669, 3000.4289596527815]}}, {"type": "Feature", "properties": {"num": 131, "osm_id": 685403005, "housenumber": "3", "area_m2": 64.1, "px_x": 3718.7, "px_y": 3018.9, "clat": 50.324238199999996, "clon": 83.5240249}, "geometry": {"type": "Point", "coordinates": [3718.743740864098, 3018.8822203055024]}}, {"type": "Feature", "properties": {"num": 132, "osm_id": 687731296, "housenumber": null, "area_m2": 74.3, "px_x": 2227.5, "px_y": 3085.9, "clat": 50.32400875, "clon": 83.5160252}, "geometry": {"type": "Point", "coordinates": [2227.491576038301, 3085.8772775903344]}}, {"type": "Feature", "properties": {"num": 133, "osm_id": 1416776610, "housenumber": null, "area_m2": 251.2, "px_x": 2615.7, "px_y": 3072.0, "clat": 50.324056196420365, "clon": 83.51810762243043}, "geometry": {"type": "Point", "coordinates": [2615.6832529082894, 3072.02384737134]}}, {"type": "Feature", "properties": {"num": 134, "osm_id": 687731288, "housenumber": "96", "area_m2": 119.9, "px_x": 2873.0, "px_y": 3048.6, "clat": 50.32413630189068, "clon": 83.51948797079216}, "geometry": {"type": "Point", "coordinates": [2872.9988375753164, 3048.6345795579255]}}, {"type": "Feature", "properties": {"num": 135, "osm_id": 1069550135, "housenumber": "99", "area_m2": 134.6, "px_x": 3098.3, "px_y": 3058.4, "clat": 50.324102803828936, "clon": 83.52069642208583}, "geometry": {"type": "Point", "coordinates": [3098.2704862356186, 3058.415378779173]}}, {"type": "Feature", "properties": {"num": 136, "osm_id": 1069550134, "housenumber": "100", "area_m2": 108.2, "px_x": 3175.5, "px_y": 3044.0, "clat": 50.32415228142758, "clon": 83.52111047954325}, "geometry": {"type": "Point", "coordinates": [3175.4563906788826, 3043.9688551835716]}}, {"type": "Feature", "properties": {"num": 137, "osm_id": 685403004, "housenumber": "5", "area_m2": 107.3, "px_x": 3722.1, "px_y": 3086.9, "clat": 50.3240051250717, "clon": 83.5240429621773}, "geometry": {"type": "Point", "coordinates": [3722.1107747629285, 3086.9356854483485]}}, {"type": "Feature", "properties": {"num": 138, "osm_id": 687731300, "housenumber": "124", "area_m2": 148.4, "px_x": 2434.3, "px_y": 3128.6, "clat": 50.32386255, "clon": 83.5171347}, "geometry": {"type": "Point", "coordinates": [2434.317366607487, 3128.5647418126464]}}, {"type": "Feature", "properties": {"num": 139, "osm_id": 687731291, "housenumber": "120", "area_m2": 116.1, "px_x": 2331.6, "px_y": 3206.1, "clat": 50.3235969, "clon": 83.51658385}, "geometry": {"type": "Point", "coordinates": [2331.6314840242267, 3206.128871358931]}}, {"type": "Feature", "properties": {"num": 140, "osm_id": 687731298, "housenumber": "130", "area_m2": 145.9, "px_x": 2589.9, "px_y": 3195.9, "clat": 50.323631895186956, "clon": 83.51796943028641}, "geometry": {"type": "Point", "coordinates": [2589.922370135784, 3195.911048553884]}}, {"type": "Feature", "properties": {"num": 141, "osm_id": 966156686, "housenumber": "131", "area_m2": 145.9, "px_x": 2645.0, "px_y": 3168.0, "clat": 50.32372749518696, "clon": 83.51826483028641}, "geometry": {"type": "Point", "coordinates": [2644.988921314478, 3167.997918572277]}}, {"type": "Feature", "properties": {"num": 142, "osm_id": 687731299, "housenumber": "128", "area_m2": 144.5, "px_x": 2451.7, "px_y": 3245.6, "clat": 50.3234617, "clon": 83.5172278}, "geometry": {"type": "Point", "coordinates": [2451.6724644973874, 3245.6042189635336]}}, {"type": "Feature", "properties": {"num": 143, "osm_id": 688327561, "housenumber": "38", "area_m2": 178.3, "px_x": 3195.5, "px_y": 3264.1, "clat": 50.323398233335965, "clon": 83.5212180753493}, "geometry": {"type": "Point", "coordinates": [3195.513702660799, 3264.1350132524967]}}, {"type": "Feature", "properties": {"num": 144, "osm_id": 688327845, "housenumber": "37", "area_m2": 243.7, "px_x": 3292.4, "px_y": 3261.1, "clat": 50.32340853960546, "clon": 83.52173762994703}, "geometry": {"type": "Point", "coordinates": [3292.365699440241, 3261.12582321465]}}, {"type": "Feature", "properties": {"num": 145, "osm_id": 688327769, "housenumber": "2", "area_m2": 172.1, "px_x": 3491.5, "px_y": 3250.3, "clat": 50.32344558750684, "clon": 83.52280567565838}, "geometry": {"type": "Point", "coordinates": [3491.463850520551, 3250.3086957111955]}}, {"type": "Feature", "properties": {"num": 146, "osm_id": 685403003, "housenumber": "7", "area_m2": 92.1, "px_x": 3674.5, "px_y": 3221.3, "clat": 50.323544831496605, "clon": 83.52378753577838}, "geometry": {"type": "Point", "coordinates": [3674.495842911303, 3221.3317120969296]}}, {"type": "Feature", "properties": {"num": 147, "osm_id": 687731287, "housenumber": "11А", "area_m2": 119.8, "px_x": 2845.0, "px_y": 3302.8, "clat": 50.32326594621215, "clon": 83.51933767538107}, "geometry": {"type": "Point", "coordinates": [2844.981742285192, 3302.7597065120935]}}, {"type": "Feature", "properties": {"num": 148, "osm_id": 685403002, "housenumber": "9", "area_m2": 294.9, "px_x": 3678.9, "px_y": 3313.1, "clat": 50.323230374749095, "clon": 83.52381090951086}, "geometry": {"type": "Point", "coordinates": [3678.8530224487185, 3313.1457091979682]}}, {"type": "Feature", "properties": {"num": 149, "osm_id": 688327613, "housenumber": "6", "area_m2": 90.9, "px_x": 2668.5, "px_y": 3369.7, "clat": 50.32303685, "clon": 83.51839095}, "geometry": {"type": "Point", "coordinates": [2668.499339953065, 3369.650096334517]}}, {"type": "Feature", "properties": {"num": 150, "osm_id": 688327557, "housenumber": "2", "area_m2": 166.0, "px_x": 3195.0, "px_y": 3356.5, "clat": 50.32308205, "clon": 83.52121535}, "geometry": {"type": "Point", "coordinates": [3195.0056607350707, 3356.452847275883]}}, {"type": "Feature", "properties": {"num": 151, "osm_id": 688327841, "housenumber": "35", "area_m2": 168.0, "px_x": 3291.4, "px_y": 3356.9, "clat": 50.32308055, "clon": 83.52173225}, "geometry": {"type": "Point", "coordinates": [3291.362804621458, 3356.890809278935]}}, {"type": "Feature", "properties": {"num": 152, "osm_id": 688327767, "housenumber": "4", "area_m2": 166.2, "px_x": 3494.3, "px_y": 3347.9, "clat": 50.32311125, "clon": 83.52282079999999}, "geometry": {"type": "Point", "coordinates": [3494.283232137561, 3347.927184127271]}}, {"type": "Feature", "properties": {"num": 153, "osm_id": 685403001, "housenumber": "11", "area_m2": 235.5, "px_x": 3676.2, "px_y": 3393.4, "clat": 50.3229555775337, "clon": 83.5237964246422}, "geometry": {"type": "Point", "coordinates": [3676.152847222984, 3393.379555463791]}}, {"type": "Feature", "properties": {"num": 154, "osm_id": 688327615, "housenumber": "12А", "area_m2": 197.7, "px_x": 2505.1, "px_y": 3450.2, "clat": 50.3227608, "clon": 83.51751455}, "geometry": {"type": "Point", "coordinates": [2505.1265388056636, 3450.249394826591]}}, {"type": "Feature", "properties": {"num": 155, "osm_id": 688327611, "housenumber": null, "area_m2": 195.1, "px_x": 2630.3, "px_y": 3491.1, "clat": 50.32262077468376, "clon": 83.51818616516766}, "geometry": {"type": "Point", "coordinates": [2630.324680328369, 3491.1329045519233]}}, {"type": "Feature", "properties": {"num": 156, "osm_id": 688327587, "housenumber": "10А", "area_m2": 231.3, "px_x": 3028.5, "px_y": 3472.7, "clat": 50.32268405, "clon": 83.5203221}, "geometry": {"type": "Point", "coordinates": [3028.4917919263244, 3472.658281620592]}}, {"type": "Feature", "properties": {"num": 157, "osm_id": 688327554, "housenumber": "4", "area_m2": 124.1, "px_x": 3190.5, "px_y": 3473.7, "clat": 50.322680574871136, "clon": 83.52119120509313}, "geometry": {"type": "Point", "coordinates": [3190.504723869264, 3473.672922708094]}}, {"type": "Feature", "properties": {"num": 158, "osm_id": 688327837, "housenumber": "1", "area_m2": 237.5, "px_x": 3291.3, "px_y": 3454.6, "clat": 50.322745850000004, "clon": 83.52173164999999}, "geometry": {"type": "Point", "coordinates": [3291.2509565129876, 3454.614386033267]}}, {"type": "Feature", "properties": {"num": 159, "osm_id": 688327737, "housenumber": "6", "area_m2": 150.9, "px_x": 3498.0, "px_y": 3467.5, "clat": 50.32270167546528, "clon": 83.52284090611467}, "geometry": {"type": "Point", "coordinates": [3498.031283572316, 3467.5121342502534]}}, {"type": "Feature", "properties": {"num": 160, "osm_id": 685403000, "housenumber": "13", "area_m2": 288.4, "px_x": 3678.2, "px_y": 3474.2, "clat": 50.32267888156133, "clon": 83.52380761301917}, "geometry": {"type": "Point", "coordinates": [3678.2385118603706, 3474.1673221066594]}}, {"type": "Feature", "properties": {"num": 161, "osm_id": 688327649, "housenumber": "5", "area_m2": 265.5, "px_x": 2306.5, "px_y": 3561.0, "clat": 50.32238155757804, "clon": 83.51644917473845}, "geometry": {"type": "Point", "coordinates": [2306.526195652783, 3560.977387778461]}}, {"type": "Feature", "properties": {"num": 162, "osm_id": 688327735, "housenumber": "8", "area_m2": 149.7, "px_x": 3499.9, "px_y": 3563.2, "clat": 50.322374012401646, "clon": 83.52285087488036}, "geometry": {"type": "Point", "coordinates": [3499.8895961865783, 3563.18035556376]}}, {"type": "Feature", "properties": {"num": 163, "osm_id": 685678891, "housenumber": "15", "area_m2": 163.9, "px_x": 3669.2, "px_y": 3563.3, "clat": 50.32237344412673, "clon": 83.52375915040642}, "geometry": {"type": "Point", "coordinates": [3669.2044260576367, 3563.3462749756873]}}, {"type": "Feature", "properties": {"num": 164, "osm_id": 688327618, "housenumber": "12", "area_m2": 249.8, "px_x": 2540.6, "px_y": 3570.1, "clat": 50.3223502, "clon": 83.517705}, "geometry": {"type": "Point", "coordinates": [2540.628991998732, 3570.1328684985638]}}, {"type": "Feature", "properties": {"num": 165, "osm_id": 688327609, "housenumber": "13", "area_m2": 232.2, "px_x": 2629.9, "px_y": 3571.7, "clat": 50.32234485, "clon": 83.51818375}, "geometry": {"type": "Point", "coordinates": [2629.8744604438543, 3571.6949088722467]}}, {"type": "Feature", "properties": {"num": 166, "osm_id": 688327603, "housenumber": "11", "area_m2": 214.5, "px_x": 2881.5, "px_y": 3571.8, "clat": 50.322344524716385, "clon": 83.51953365797246}, "geometry": {"type": "Point", "coordinates": [2881.515545271337, 3571.789881978184]}}, {"type": "Feature", "properties": {"num": 167, "osm_id": 688327583, "housenumber": null, "area_m2": 62.1, "px_x": 2960.7, "px_y": 3622.0, "clat": 50.3221727, "clon": 83.5199587}, "geometry": {"type": "Point", "coordinates": [2960.74912199378, 3621.9574786536396]}}, {"type": "Feature", "properties": {"num": 168, "osm_id": 688327585, "housenumber": "10", "area_m2": 175.3, "px_x": 2983.1, "px_y": 3581.9, "clat": 50.32231001282079, "clon": 83.52007876918557}, "geometry": {"type": "Point", "coordinates": [2983.131640456617, 3581.866321478039]}}, {"type": "Feature", "properties": {"num": 169, "osm_id": 688327550, "housenumber": "6", "area_m2": 134.7, "px_x": 3192.4, "px_y": 3576.6, "clat": 50.3223279652374, "clon": 83.52120117460764}, "geometry": {"type": "Point", "coordinates": [3192.3631760701537, 3576.624754615128]}}, {"type": "Feature", "properties": {"num": 170, "osm_id": 688327832, "housenumber": "3", "area_m2": 143.3, "px_x": 3291.2, "px_y": 3573.5, "clat": 50.32233855, "clon": 83.52173115000001}, "geometry": {"type": "Point", "coordinates": [3291.1577497571707, 3573.5343206748366]}}, {"type": "Feature", "properties": {"num": 171, "osm_id": 688327647, "housenumber": "7/1", "area_m2": 272.1, "px_x": 2313.2, "px_y": 3684.1, "clat": 50.3219597, "clon": 83.5164848}, "geometry": {"type": "Point", "coordinates": [2313.16722574085, 3684.146755374968]}}, {"type": "Feature", "properties": {"num": 172, "osm_id": 688327620, "housenumber": "14", "area_m2": 274.5, "px_x": 2544.5, "px_y": 3676.4, "clat": 50.321986100000004, "clon": 83.51772559999999}, "geometry": {"type": "Point", "coordinates": [2544.4691103324294, 3676.4388038143516]}}, {"type": "Feature", "properties": {"num": 173, "osm_id": 688327607, "housenumber": "15", "area_m2": 221.0, "px_x": 2629.8, "px_y": 3672.5, "clat": 50.321999458142336, "clon": 83.5181831251861}, "geometry": {"type": "Point", "coordinates": [2629.7579866945744, 3672.538653921336]}}, {"type": "Feature", "properties": {"num": 174, "osm_id": 688327601, "housenumber": "9", "area_m2": 256.7, "px_x": 2880.6, "px_y": 3676.6, "clat": 50.32198545, "clon": 83.51952890000001}, "geometry": {"type": "Point", "coordinates": [2880.628594920039, 3676.6285829767585]}}, {"type": "Feature", "properties": {"num": 175, "osm_id": 688327581, "housenumber": "8", "area_m2": 158.1, "px_x": 2981.5, "px_y": 3687.6, "clat": 50.32194775, "clon": 83.52007}, "geometry": {"type": "Point", "coordinates": [2981.496945783496, 3687.6357699222863]}}, {"type": "Feature", "properties": {"num": 176, "osm_id": 688327549, "housenumber": "8", "area_m2": 172.6, "px_x": 3192.0, "px_y": 3682.0, "clat": 50.32196695, "clon": 83.5211992}, "geometry": {"type": "Point", "coordinates": [3191.995082527399, 3682.0299888029695]}}, {"type": "Feature", "properties": {"num": 177, "osm_id": 688327828, "housenumber": "5", "area_m2": 198.4, "px_x": 3289.9, "px_y": 3680.1, "clat": 50.32197345, "clon": 83.52172424999999}, "geometry": {"type": "Point", "coordinates": [3289.871496528387, 3680.132197804749]}}, {"type": "Feature", "properties": {"num": 178, "osm_id": 688327733, "housenumber": "10", "area_m2": 72.1, "px_x": 3505.4, "px_y": 3677.7, "clat": 50.321981799999996, "clon": 83.5228803}, "geometry": {"type": "Point", "coordinates": [3505.374836049974, 3677.6942659169436]}}, {"type": "Feature", "properties": {"num": 179, "osm_id": 685678890, "housenumber": "17", "area_m2": 158.5, "px_x": 3668.5, "px_y": 3645.2, "clat": 50.322093086378764, "clon": 83.52375550738103}, "geometry": {"type": "Point", "coordinates": [3668.5253168940544, 3645.202175691724]}}, {"type": "Feature", "properties": {"num": 180, "osm_id": 688327731, "housenumber": "12", "area_m2": 56.6, "px_x": 3504.4, "px_y": 3739.1, "clat": 50.3217714, "clon": 83.52287495}, "geometry": {"type": "Point", "coordinates": [3504.3775237724185, 3739.1241796538234]}}, {"type": "Feature", "properties": {"num": 181, "osm_id": 685678889, "housenumber": "19", "area_m2": 254.2, "px_x": 3671.9, "px_y": 3728.5, "clat": 50.321807784113304, "clon": 83.5237734674107}, "geometry": {"type": "Point", "coordinates": [3671.8733090907335, 3728.5012288466096]}}, {"type": "Feature", "properties": {"num": 182, "osm_id": 688327644, "housenumber": "9", "area_m2": 156.0, "px_x": 2320.1, "px_y": 3762.1, "clat": 50.321692649999996, "clon": 83.5165221}, "geometry": {"type": "Point", "coordinates": [2320.1204496994615, 3762.1165322884917]}}, {"type": "Feature", "properties": {"num": 183, "osm_id": 688327623, "housenumber": "16", "area_m2": 238.5, "px_x": 2546.0, "px_y": 3773.1, "clat": 50.32165505, "clon": 83.51773395000001}, "geometry": {"type": "Point", "coordinates": [2546.0256631448865, 3773.0944548361003]}}, {"type": "Feature", "properties": {"num": 184, "osm_id": 688327605, "housenumber": "17", "area_m2": 356.5, "px_x": 2628.6, "px_y": 3786.2, "clat": 50.32161, "clon": 83.51817685}, "geometry": {"type": "Point", "coordinates": [2628.5882072225213, 3786.2475128360093]}}, {"type": "Feature", "properties": {"num": 185, "osm_id": 688327599, "housenumber": "7", "area_m2": 270.4, "px_x": 2879.6, "px_y": 3783.5, "clat": 50.3216195, "clon": 83.51952355}, "geometry": {"type": "Point", "coordinates": [2879.631282635033, 3783.473839048296]}}, {"type": "Feature", "properties": {"num": 186, "osm_id": 688327578, "housenumber": "6", "area_m2": 160.8, "px_x": 2980.6, "px_y": 3790.0, "clat": 50.32159731236323, "clon": 83.52006528055936}, "geometry": {"type": "Point", "coordinates": [2980.617178283632, 3789.9518662393093]}}, {"type": "Feature", "properties": {"num": 187, "osm_id": 688327546, "housenumber": "10", "area_m2": 150.7, "px_x": 3190.4, "px_y": 3780.9, "clat": 50.32162832417084, "clon": 83.52119049474489}, "geometry": {"type": "Point", "coordinates": [3190.3723053485155, 3780.897483665496]}}, {"type": "Feature", "properties": {"num": 188, "osm_id": 688327823, "housenumber": "7", "area_m2": 147.9, "px_x": 3289.1, "px_y": 3781.9, "clat": 50.3216248, "clon": 83.52172025}, "geometry": {"type": "Point", "coordinates": [3289.125842489302, 3781.9264207929373]}}, {"type": "Feature", "properties": {"num": 189, "osm_id": 688327729, "housenumber": "14", "area_m2": 143.2, "px_x": 3495.6, "px_y": 3805.7, "clat": 50.32154345, "clon": 83.522828}, "geometry": {"type": "Point", "coordinates": [3495.625409424305, 3805.677812114358]}}, {"type": "Feature", "properties": {"num": 190, "osm_id": 688327642, "housenumber": "6", "area_m2": 177.9, "px_x": 2328.2, "px_y": 3822.3, "clat": 50.3214866, "clon": 83.5165655}, "geometry": {"type": "Point", "coordinates": [2328.2107960879803, 3822.276025183499]}}, {"type": "Feature", "properties": {"num": 191, "osm_id": 685678888, "housenumber": "21", "area_m2": 328.6, "px_x": 3694.9, "px_y": 3819.8, "clat": 50.32149525, "clon": 83.52389685}, "geometry": {"type": "Point", "coordinates": [3694.873490780592, 3819.7505287863314]}}, {"type": "Feature", "properties": {"num": 192, "osm_id": 688327640, "housenumber": "7", "area_m2": 117.5, "px_x": 2320.5, "px_y": 3884.3, "clat": 50.32127412540043, "clon": 83.5165238893828}, "geometry": {"type": "Point", "coordinates": [2320.4540148451924, 3884.3110064417124]}}, {"type": "Feature", "properties": {"num": 193, "osm_id": 688327625, "housenumber": "18", "area_m2": 232.4, "px_x": 2548.7, "px_y": 3871.0, "clat": 50.32131962518353, "clon": 83.51774849190679}, "geometry": {"type": "Point", "coordinates": [2548.7364710494876, 3871.0267209783196]}}, {"type": "Feature", "properties": {"num": 194, "osm_id": 688327597, "housenumber": null, "area_m2": 214.1, "px_x": 2875.0, "px_y": 3905.6, "clat": 50.32120111936034, "clon": 83.51949863757417}, "geometry": {"type": "Point", "coordinates": [2874.987269870937, 3905.626094162464]}}, {"type": "Feature", "properties": {"num": 195, "osm_id": 688327577, "housenumber": "5", "area_m2": 157.7, "px_x": 2980.0, "px_y": 3895.6, "clat": 50.3212353744172, "clon": 83.5200620051612}, "geometry": {"type": "Point", "coordinates": [2980.006599806249, 3895.624877233058]}}, {"type": "Feature", "properties": {"num": 196, "osm_id": 688327544, "housenumber": "12", "area_m2": 184.9, "px_x": 3188.1, "px_y": 3893.1, "clat": 50.32124395, "clon": 83.5211785}, "geometry": {"type": "Point", "coordinates": [3188.136322848499, 3893.1211212798953]}}, {"type": "Feature", "properties": {"num": 197, "osm_id": 688327819, "housenumber": "9", "area_m2": 139.6, "px_x": 3288.0, "px_y": 3888.8, "clat": 50.32125875, "clon": 83.5217142}, "geometry": {"type": "Point", "coordinates": [3287.9980407506227, 3888.8000625148416]}}, {"type": "Feature", "properties": {"num": 198, "osm_id": 688327727, "housenumber": "16", "area_m2": 101.2, "px_x": 3503.0, "px_y": 3900.1, "clat": 50.32121995, "clon": 83.52286755}, "geometry": {"type": "Point", "coordinates": [3502.998063787818, 3900.128240738064]}}, {"type": "Feature", "properties": {"num": 199, "osm_id": 685678887, "housenumber": "23", "area_m2": 213.7, "px_x": 3689.5, "px_y": 3912.5, "clat": 50.321177549999994, "clon": 83.523868}, "geometry": {"type": "Point", "coordinates": [3689.4954609796405, 3912.5074764713645]}}, {"type": "Feature", "properties": {"num": 200, "osm_id": 688327627, "housenumber": "20", "area_m2": 229.0, "px_x": 2550.8, "px_y": 3965.8, "clat": 50.3209951, "clon": 83.51775959999999}, "geometry": {"type": "Point", "coordinates": [2550.8071697056293, 3965.7760193385184]}}, {"type": "Feature", "properties": {"num": 201, "osm_id": 688327723, "housenumber": "18", "area_m2": 60.7, "px_x": 3510.0, "px_y": 3975.7, "clat": 50.32096095, "clon": 83.52290515}, "geometry": {"type": "Point", "coordinates": [3510.00721180439, 3975.746513135731]}}, {"type": "Feature", "properties": {"num": 202, "osm_id": 688327638, "housenumber": "8", "area_m2": 152.8, "px_x": 2330.3, "px_y": 4025.9, "clat": 50.32078912514785, "clon": 83.51657658937629}, "geometry": {"type": "Point", "coordinates": [2330.278005667031, 4025.912689164281]}}, {"type": "Feature", "properties": {"num": 203, "osm_id": 688327594, "housenumber": null, "area_m2": 117.0, "px_x": 2883.2, "px_y": 4040.6, "clat": 50.32073875, "clon": 83.51954295}, "geometry": {"type": "Point", "coordinates": [2883.2477047517896, 4040.620239302516]}}, {"type": "Feature", "properties": {"num": 204, "osm_id": 688327573, "housenumber": "4", "area_m2": 147.3, "px_x": 2977.4, "px_y": 3997.3, "clat": 50.32088707451158, "clon": 83.52004790501678}, "geometry": {"type": "Point", "coordinates": [2977.3781423792243, 3997.315305594355]}}, {"type": "Feature", "properties": {"num": 205, "osm_id": 688327542, "housenumber": "14", "area_m2": 152.5, "px_x": 3186.0, "px_y": 3990.2, "clat": 50.3209113253587, "clon": 83.52116695482259}, "geometry": {"type": "Point", "coordinates": [3185.9841457903385, 3990.2349975407124]}}, {"type": "Feature", "properties": {"num": 206, "osm_id": 688327816, "housenumber": "11", "area_m2": 203.3, "px_x": 3286.5, "px_y": 4003.0, "clat": 50.3208677, "clon": 83.5217061}, "geometry": {"type": "Point", "coordinates": [3286.488091312349, 4002.971909943968]}}, {"type": "Feature", "properties": {"num": 207, "osm_id": 688327719, "housenumber": "20", "area_m2": 167.6, "px_x": 3504.3, "px_y": 4043.6, "clat": 50.320728599999995, "clon": 83.52287439999999}, "geometry": {"type": "Point", "coordinates": [3504.2749963328242, 4043.5836358442903]}}, {"type": "Feature", "properties": {"num": 208, "osm_id": 685678886, "housenumber": "25", "area_m2": 119.3, "px_x": 3698.1, "px_y": 3998.5, "clat": 50.32088302521526, "clon": 83.52391429416166}, "geometry": {"type": "Point", "coordinates": [3698.125318199396, 3998.497542925179]}}, {"type": "Feature", "properties": {"num": 209, "osm_id": 1014284726, "housenumber": null, "area_m2": 293.0, "px_x": 1541.8, "px_y": 4097.8, "clat": 50.3205430718264, "clon": 83.51234686600462}, "geometry": {"type": "Point", "coordinates": [1541.8004209175706, 4097.750376343727]}}, {"type": "Feature", "properties": {"num": 210, "osm_id": 688327570, "housenumber": "3", "area_m2": 168.8, "px_x": 2976.6, "px_y": 4104.2, "clat": 50.320521075111536, "clon": 83.5200438950382}, "geometry": {"type": "Point", "coordinates": [2976.6306281909347, 4104.17251548171]}}, {"type": "Feature", "properties": {"num": 211, "osm_id": 685678885, "housenumber": "27", "area_m2": 317.6, "px_x": 3667.5, "px_y": 4065.8, "clat": 50.32065267518049, "clon": 83.52374999157114}, "geometry": {"type": "Point", "coordinates": [3667.497095413506, 4065.7506450787187]}}, {"type": "Feature", "properties": {"num": 212, "osm_id": 688327635, "housenumber": "17", "area_m2": 444.4, "px_x": 2336.2, "px_y": 4166.4, "clat": 50.32030795, "clon": 83.5166081}, "geometry": {"type": "Point", "coordinates": [2336.1520116627216, 4166.396158576012]}}, {"type": "Feature", "properties": {"num": 213, "osm_id": 688327629, "housenumber": "22", "area_m2": 175.2, "px_x": 2512.3, "px_y": 4116.3, "clat": 50.3204796, "clon": 83.5175529}, "geometry": {"type": "Point", "coordinates": [2512.2754969596863, 4116.281539984047]}}, {"type": "Feature", "properties": {"num": 214, "osm_id": 688327592, "housenumber": null, "area_m2": 109.0, "px_x": 2884.3, "px_y": 4163.8, "clat": 50.32031672231566, "clon": 83.51954875700048}, "geometry": {"type": "Point", "coordinates": [2884.3302081003785, 4163.83501380682]}}, {"type": "Feature", "properties": {"num": 215, "osm_id": 688327540, "housenumber": "16", "area_m2": 153.9, "px_x": 3185.5, "px_y": 4110.6, "clat": 50.32049913627122, "clon": 83.52116437511751}, "geometry": {"type": "Point", "coordinates": [3185.5032539069653, 4110.577754661441]}}, {"type": "Feature", "properties": {"num": 216, "osm_id": 688327811, "housenumber": "13", "area_m2": 357.4, "px_x": 3290.9, "px_y": 4111.6, "clat": 50.320495550000004, "clon": 83.5217296}, "geometry": {"type": "Point", "coordinates": [3290.8688088208437, 4111.624798096716]}}, {"type": "Feature", "properties": {"num": 217, "osm_id": 688327716, "housenumber": "22", "area_m2": 93.6, "px_x": 3511.8, "px_y": 4129.9, "clat": 50.32043310580836, "clon": 83.52291457515979}, "geometry": {"type": "Point", "coordinates": [3511.764188937843, 4129.85591661185]}}, {"type": "Feature", "properties": {"num": 218, "osm_id": 685678884, "housenumber": "29", "area_m2": 89.9, "px_x": 3695.9, "px_y": 4127.3, "clat": 50.320442, "clon": 83.52390224999999}, "geometry": {"type": "Point", "coordinates": [3695.880123734474, 4127.259182371199]}}, {"type": "Feature", "properties": {"num": 219, "osm_id": 688327631, "housenumber": "24", "area_m2": 179.9, "px_x": 2516.4, "px_y": 4201.8, "clat": 50.32018670574642, "clon": 83.51757522425953}, "geometry": {"type": "Point", "coordinates": [2516.4370405599475, 4201.794299006462]}}, {"type": "Feature", "properties": {"num": 220, "osm_id": 688327567, "housenumber": "2", "area_m2": 197.1, "px_x": 2977.0, "px_y": 4206.8, "clat": 50.3201695, "clon": 83.5200459}, "geometry": {"type": "Point", "coordinates": [2977.00438015908, 4206.8176343254745]}}, {"type": "Feature", "properties": {"num": 221, "osm_id": 685678883, "housenumber": "31", "area_m2": 100.2, "px_x": 3691.2, "px_y": 4214.8, "clat": 50.32014232516169, "clon": 83.52387738743654}, "geometry": {"type": "Point", "coordinates": [3691.2454059794545, 4214.751510486007]}}, {"type": "Feature", "properties": {"num": 222, "osm_id": 688327538, "housenumber": "18", "area_m2": 144.7, "px_x": 3183.5, "px_y": 4238.0, "clat": 50.3200628251217, "clon": 83.52115365437454}, "geometry": {"type": "Point", "coordinates": [3183.5047625675797, 4237.962053887546]}}, {"type": "Feature", "properties": {"num": 223, "osm_id": 688327805, "housenumber": null, "area_m2": 96.4, "px_x": 3269.9, "px_y": 4289.6, "clat": 50.319885943618516, "clon": 83.52161737463865}, "geometry": {"type": "Point", "coordinates": [3269.948485173285, 4289.603596903384]}}, {"type": "Feature", "properties": {"num": 224, "osm_id": 688327808, "housenumber": "15", "area_m2": 155.7, "px_x": 3284.1, "px_y": 4236.2, "clat": 50.320068987574075, "clon": 83.5216931746527}, "geometry": {"type": "Point", "coordinates": [3284.0786319300532, 4236.162888027728]}}, {"type": "Feature", "properties": {"num": 225, "osm_id": 688327682, "housenumber": "24", "area_m2": 88.7, "px_x": 3512.6, "px_y": 4231.4, "clat": 50.320085325163326, "clon": 83.52291926133816}, "geometry": {"type": "Point", "coordinates": [3512.6377559006214, 4231.3930272608995]}}, {"type": "Feature", "properties": {"num": 226, "osm_id": 688327634, "housenumber": "19", "area_m2": 411.1, "px_x": 2341.2, "px_y": 4299.8, "clat": 50.31985113869761, "clon": 83.51663542974207}, "geometry": {"type": "Point", "coordinates": [2341.2466448396444, 4299.765065379441]}}, {"type": "Feature", "properties": {"num": 227, "osm_id": 688327590, "housenumber": "25/1", "area_m2": 146.7, "px_x": 2873.1, "px_y": 4297.7, "clat": 50.31985827512431, "clon": 83.51948873548375}, "geometry": {"type": "Point", "coordinates": [2873.141386412084, 4297.681550979614]}}, {"type": "Feature", "properties": {"num": 228, "osm_id": 688327563, "housenumber": "1", "area_m2": 176.4, "px_x": 2974.8, "px_y": 4309.7, "clat": 50.3198172136257, "clon": 83.52003382510945}, "geometry": {"type": "Point", "coordinates": [2974.7534574195743, 4309.669650435448]}}, {"type": "Feature", "properties": {"num": 229, "osm_id": 688327536, "housenumber": "20", "area_m2": 144.0, "px_x": 3182.5, "px_y": 4342.3, "clat": 50.31970536580699, "clon": 83.52114827487169}, "geometry": {"type": "Point", "coordinates": [3182.501950547099, 4342.324099563062]}}, {"type": "Feature", "properties": {"num": 230, "osm_id": 688327801, "housenumber": "17", "area_m2": 125.8, "px_x": 3278.0, "px_y": 4340.7, "clat": 50.319711, "clon": 83.52166045}, "geometry": {"type": "Point", "coordinates": [3277.978314526379, 4340.679174646735]}}, {"type": "Feature", "properties": {"num": 231, "osm_id": 688327685, "housenumber": "26", "area_m2": 122.3, "px_x": 3505.7, "px_y": 4292.0, "clat": 50.319877749999996, "clon": 83.5228823}, "geometry": {"type": "Point", "coordinates": [3505.7476630732417, 4291.995764948428]}}, {"type": "Feature", "properties": {"num": 232, "osm_id": 685678881, "housenumber": "33", "area_m2": 89.7, "px_x": 3683.8, "px_y": 4307.6, "clat": 50.31982421877319, "clon": 83.52383718628153}, "geometry": {"type": "Point", "coordinates": [3683.7513675242662, 4307.624465100467]}}, {"type": "Feature", "properties": {"num": 233, "osm_id": 688327687, "housenumber": "28", "area_m2": 276.4, "px_x": 3503.5, "px_y": 4366.8, "clat": 50.319621437345, "clon": 83.52287027508865}, "geometry": {"type": "Point", "coordinates": [3503.50605712831, 4366.827322605997]}}, {"type": "Feature", "properties": {"num": 234, "osm_id": 685678882, "housenumber": "35", "area_m2": 230.8, "px_x": 3662.4, "px_y": 4353.9, "clat": 50.31966580722153, "clon": 83.52372252517418}, "geometry": {"type": "Point", "coordinates": [3662.376987926662, 4353.873379416764]}}, {"type": "Feature", "properties": {"num": 235, "osm_id": 1069550136, "housenumber": "29а", "area_m2": 108.0, "px_x": 2815.6, "px_y": 4434.4, "clat": 50.31938994517041, "clon": 83.51918010825975}, "geometry": {"type": "Point", "coordinates": [2815.609101973474, 4434.412089835852]}}, {"type": "Feature", "properties": {"num": 236, "osm_id": 688327498, "housenumber": "27", "area_m2": 477.4, "px_x": 2833.6, "px_y": 4469.0, "clat": 50.31927146594107, "clon": 83.5192767192081}, "geometry": {"type": "Point", "coordinates": [2833.6186880618334, 4469.00229433924]}}, {"type": "Feature", "properties": {"num": 237, "osm_id": 688327533, "housenumber": "22", "area_m2": 154.9, "px_x": 3180.8, "px_y": 4446.8, "clat": 50.3193476, "clon": 83.5211394}, "geometry": {"type": "Point", "coordinates": [3180.8475545570254, 4446.77484139055]}}, {"type": "Feature", "properties": {"num": 238, "osm_id": 688327798, "housenumber": "19", "area_m2": 147.9, "px_x": 3280.9, "px_y": 4447.4, "clat": 50.31934535, "clon": 83.5216759}, "geometry": {"type": "Point", "coordinates": [3280.858403272927, 4447.431732784957]}}, {"type": "Feature", "properties": {"num": 239, "osm_id": 688327689, "housenumber": "30", "area_m2": 224.9, "px_x": 3499.7, "px_y": 4457.9, "clat": 50.319309499999996, "clon": 83.5228497}, "geometry": {"type": "Point", "coordinates": [3499.670582614839, 4457.898198112845]}}, {"type": "Feature", "properties": {"num": 240, "osm_id": 685678880, "housenumber": "37", "area_m2": 261.8, "px_x": 3662.9, "px_y": 4427.4, "clat": 50.319414069026436, "clon": 83.52372552590607}, "geometry": {"type": "Point", "coordinates": [3662.9363648816943, 4427.369080103934]}}, {"type": "Feature", "properties": {"num": 241, "osm_id": 688327393, "housenumber": null, "area_m2": 100.6, "px_x": 2348.0, "px_y": 4521.8, "clat": 50.31909077437162, "clon": 83.51667183719074}, "geometry": {"type": "Point", "coordinates": [2348.0334851816297, 4521.7553271353245]}}, {"type": "Feature", "properties": {"num": 242, "osm_id": 688327691, "housenumber": "32", "area_m2": 86.0, "px_x": 3512.4, "px_y": 4527.0, "clat": 50.31907295, "clon": 83.52291775}, "geometry": {"type": "Point", "coordinates": [3512.356022052467, 4526.959154292941]}}, {"type": "Feature", "properties": {"num": 243, "osm_id": 688327452, "housenumber": "1", "area_m2": 135.0, "px_x": 3038.0, "px_y": 4556.0, "clat": 50.3189735, "clon": 83.5203731}, "geometry": {"type": "Point", "coordinates": [3037.9988809973, 4555.993556402624]}}, {"type": "Feature", "properties": {"num": 244, "osm_id": 688327531, "housenumber": "24", "area_m2": 190.2, "px_x": 3181.1, "px_y": 4557.6, "clat": 50.318968164398484, "clon": 83.52114082510765}, "geometry": {"type": "Point", "coordinates": [3181.1132138818502, 4557.551282186061]}}, {"type": "Feature", "properties": {"num": 245, "osm_id": 688327794, "housenumber": "21", "area_m2": 156.2, "px_x": 3281.6, "px_y": 4550.1, "clat": 50.31899375, "clon": 83.52167994999999}, "geometry": {"type": "Point", "coordinates": [3281.613377995789, 4550.081578999758]}}, {"type": "Feature", "properties": {"num": 246, "osm_id": 685678879, "housenumber": "39", "area_m2": 184.4, "px_x": 3656.3, "px_y": 4570.8, "clat": 50.31892271965044, "clon": 83.52368998040572}, "geometry": {"type": "Point", "coordinates": [3656.310203358531, 4570.818843066692]}}, {"type": "Feature", "properties": {"num": 247, "osm_id": 688327410, "housenumber": "2", "area_m2": 227.9, "px_x": 3039.8, "px_y": 4627.1, "clat": 50.3187298, "clon": 83.52038275000001}, "geometry": {"type": "Point", "coordinates": [3039.7977713793516, 4627.141452386975]}}, {"type": "Feature", "properties": {"num": 248, "osm_id": 688327693, "housenumber": "34", "area_m2": 237.4, "px_x": 3510.0, "px_y": 4642.3, "clat": 50.31867775, "clon": 83.5229051}, "geometry": {"type": "Point", "coordinates": [3509.997891128063, 4642.337334480137]}}, {"type": "Feature", "properties": {"num": 249, "osm_id": 688327441, "housenumber": "13", "area_m2": 599.4, "px_x": 2519.9, "px_y": 4671.4, "clat": 50.31857804856848, "clon": 83.51759362380233}, "geometry": {"type": "Point", "coordinates": [2519.8669639378786, 4671.4448998868465]}}, {"type": "Feature", "properties": {"num": 250, "osm_id": 688327412, "housenumber": null, "area_m2": 112.0, "px_x": 3081.1, "px_y": 4705.5, "clat": 50.31846154189873, "clon": 83.52060442486413}, "geometry": {"type": "Point", "coordinates": [3081.120961122215, 4705.458632156253]}}, {"type": "Feature", "properties": {"num": 251, "osm_id": 688327529, "housenumber": "26", "area_m2": 257.0, "px_x": 3178.1, "px_y": 4668.6, "clat": 50.318587799999996, "clon": 83.52112460000001}, "geometry": {"type": "Point", "coordinates": [3178.088634595275, 4668.597998313606]}}, {"type": "Feature", "properties": {"num": 252, "osm_id": 688327791, "housenumber": "23", "area_m2": 205.9, "px_x": 3279.0, "px_y": 4661.8, "clat": 50.31861107489563, "clon": 83.52166585540232}, "geometry": {"type": "Point", "coordinates": [3278.985954552889, 4661.8029590547085]}}, {"type": "Feature", "properties": {"num": 253, "osm_id": 685678878, "housenumber": "41", "area_m2": 46.0, "px_x": 3665.4, "px_y": 4658.5, "clat": 50.31862236821244, "clon": 83.52373863531945}, "geometry": {"type": "Point", "coordinates": [3665.3801366612315, 4658.505906298757]}}, {"type": "Feature", "properties": {"num": 254, "osm_id": 688327414, "housenumber": "3", "area_m2": 208.1, "px_x": 3026.1, "px_y": 4752.7, "clat": 50.3182997253206, "clon": 83.52030930906243}, "geometry": {"type": "Point", "coordinates": [3026.1073883473873, 4752.70030221343]}}, {"type": "Feature", "properties": {"num": 255, "osm_id": 688327788, "housenumber": null, "area_m2": 153.2, "px_x": 3275.0, "px_y": 4717.9, "clat": 50.318419, "clon": 83.52164445}, "geometry": {"type": "Point", "coordinates": [3274.9956983476877, 4717.878576315939]}}, {"type": "Feature", "properties": {"num": 256, "osm_id": 688327696, "housenumber": "36", "area_m2": 153.8, "px_x": 3509.3, "px_y": 4723.3, "clat": 50.31840044184749, "clon": 83.52290112511608}, "geometry": {"type": "Point", "coordinates": [3509.256919056177, 4723.296554282308]}}, {"type": "Feature", "properties": {"num": 257, "osm_id": 685678877, "housenumber": "43", "area_m2": 72.8, "px_x": 3662.7, "px_y": 4729.4, "clat": 50.318379624833426, "clon": 83.523724517201}, "geometry": {"type": "Point", "coordinates": [3662.7483286336064, 4729.373995266855]}}, {"type": "Feature", "properties": {"num": 258, "osm_id": 688327439, "housenumber": "14", "area_m2": 599.3, "px_x": 2514.0, "px_y": 4770.0, "clat": 50.31824045, "clon": 83.51756215}, "geometry": {"type": "Point", "coordinates": [2513.9998219385743, 4770.005442760885]}}, {"type": "Feature", "properties": {"num": 259, "osm_id": 688327416, "housenumber": "6", "area_m2": 262.1, "px_x": 2903.0, "px_y": 4791.1, "clat": 50.31816806026268, "clon": 83.5196489295199}, "geometry": {"type": "Point", "coordinates": [2903.0037191584706, 4791.139243986458]}}, {"type": "Feature", "properties": {"num": 260, "osm_id": 688327526, "housenumber": "28", "area_m2": 229.8, "px_x": 3167.9, "px_y": 4774.9, "clat": 50.3182238, "clon": 83.52106979999999}, "geometry": {"type": "Point", "coordinates": [3167.8731741830707, 4774.866325110197]}}, {"type": "Feature", "properties": {"num": 261, "osm_id": 688327786, "housenumber": "25", "area_m2": 223.2, "px_x": 3278.5, "px_y": 4772.2, "clat": 50.3182328, "clon": 83.52166325}, "geometry": {"type": "Point", "coordinates": [3278.5002723559737, 4772.238821350038]}}, {"type": "Feature", "properties": {"num": 262, "osm_id": 688327784, "housenumber": null, "area_m2": 97.0, "px_x": 3341.1, "px_y": 4771.5, "clat": 50.31823535, "clon": 83.52199920000001}, "geometry": {"type": "Point", "coordinates": [3341.1258914098144, 4771.49436185509]}}, {"type": "Feature", "properties": {"num": 263, "osm_id": 688327698, "housenumber": "38", "area_m2": 71.9, "px_x": 3510.0, "px_y": 4830.0, "clat": 50.31803495, "clon": 83.5229051}, "geometry": {"type": "Point", "coordinates": [3509.997891128063, 4829.999997682869]}}, {"type": "Feature", "properties": {"num": 264, "osm_id": 685678876, "housenumber": "45", "area_m2": 208.6, "px_x": 3651.5, "px_y": 4812.8, "clat": 50.3180940248051, "clon": 83.52366415713104}, "geometry": {"type": "Point", "coordinates": [3651.4963960647583, 4812.753471255302]}}, {"type": "Feature", "properties": {"num": 265, "osm_id": 688327418, "housenumber": "10", "area_m2": 271.6, "px_x": 2720.5, "px_y": 4863.1, "clat": 50.3179216, "clon": 83.5186699}, "geometry": {"type": "Point", "coordinates": [2720.499388873577, 4863.091773815453]}}, {"type": "Feature", "properties": {"num": 266, "osm_id": 688327421, "housenumber": "5", "area_m2": 246.3, "px_x": 2818.5, "px_y": 4865.7, "clat": 50.31791277519686, "clon": 83.51919565426165}, "geometry": {"type": "Point", "coordinates": [2818.507086761296, 4865.668112896383]}}, {"type": "Feature", "properties": {"num": 267, "osm_id": 688327523, "housenumber": "30", "area_m2": 206.4, "px_x": 3174.3, "px_y": 4877.9, "clat": 50.317870850000006, "clon": 83.52110405}, "geometry": {"type": "Point", "coordinates": [3174.257836945355, 4877.907872091979]}}, {"type": "Feature", "properties": {"num": 268, "osm_id": 688327781, "housenumber": "27", "area_m2": 205.4, "px_x": 3277.3, "px_y": 4876.5, "clat": 50.31787572449293, "clon": 83.52165679453871}, "geometry": {"type": "Point", "coordinates": [3277.296887151897, 4876.484799556434]}}, {"type": "Feature", "properties": {"num": 269, "osm_id": 685678875, "housenumber": "47", "area_m2": 48.9, "px_x": 3659.1, "px_y": 4885.3, "clat": 50.3178457, "clon": 83.52370504999999}, "geometry": {"type": "Point", "coordinates": [3659.1193793416023, 4885.250228237361]}}, {"type": "Feature", "properties": {"num": 270, "osm_id": 1014284494, "housenumber": null, "area_m2": 1886.4, "px_x": 4405.8, "px_y": 4853.1, "clat": 50.31795581209692, "clon": 83.52771073152995}, "geometry": {"type": "Point", "coordinates": [4405.832537733018, 4853.103788726032]}}, {"type": "Feature", "properties": {"num": 271, "osm_id": 688327408, "housenumber": "4", "area_m2": 148.9, "px_x": 3017.6, "px_y": 4910.2, "clat": 50.317760374642255, "clon": 83.52026386684469}, "geometry": {"type": "Point", "coordinates": [3017.636344984174, 4910.16030523926]}}, {"type": "Feature", "properties": {"num": 272, "osm_id": 688327700, "housenumber": null, "area_m2": 44.4, "px_x": 3520.7, "px_y": 4932.3, "clat": 50.31768455, "clon": 83.52296270000001}, "geometry": {"type": "Point", "coordinates": [3520.735309369862, 4932.296684458852]}}, {"type": "Feature", "properties": {"num": 273, "osm_id": 685678874, "housenumber": "49", "area_m2": 153.2, "px_x": 3651.3, "px_y": 4937.2, "clat": 50.3176677458392, "clon": 83.52366303072785}, "geometry": {"type": "Point", "coordinates": [3651.286419287324, 4937.2025158926845]}}, {"type": "Feature", "properties": {"num": 274, "osm_id": 688327779, "housenumber": null, "area_m2": 61.4, "px_x": 3257.5, "px_y": 4984.0, "clat": 50.317507439223036, "clon": 83.52155042535988}, "geometry": {"type": "Point", "coordinates": [3257.4682350456715, 4984.002578154206]}}, {"type": "Feature", "properties": {"num": 275, "osm_id": 688327432, "housenumber": "11", "area_m2": 332.0, "px_x": 2627.3, "px_y": 5035.5, "clat": 50.317331037575755, "clon": 83.51816967499255}, "geometry": {"type": "Point", "coordinates": [2627.250688895583, 5035.501256354153]}}, {"type": "Feature", "properties": {"num": 276, "osm_id": 688327434, "housenumber": "9", "area_m2": 331.9, "px_x": 2714.5, "px_y": 5037.2, "clat": 50.31732505, "clon": 83.5186377}, "geometry": {"type": "Point", "coordinates": [2714.4968738108873, 5037.249265231192]}}, {"type": "Feature", "properties": {"num": 277, "osm_id": 688327437, "housenumber": "7", "area_m2": 331.9, "px_x": 2814.9, "px_y": 5037.5, "clat": 50.317324074688365, "clon": 83.51917619441772}, "geometry": {"type": "Point", "coordinates": [2814.8795089274645, 5037.533997040242]}}, {"type": "Feature", "properties": {"num": 278, "osm_id": 688327520, "housenumber": "32", "area_m2": 162.6, "px_x": 3172.7, "px_y": 5031.7, "clat": 50.31734394047161, "clon": 83.52109592521907}, "geometry": {"type": "Point", "coordinates": [3172.74326800555, 5031.734392784536]}}, {"type": "Feature", "properties": {"num": 279, "osm_id": 688327777, "housenumber": "29", "area_m2": 243.5, "px_x": 3278.6, "px_y": 5033.5, "clat": 50.317337989625834, "clon": 83.52166384553705}, "geometry": {"type": "Point", "coordinates": [3278.6112885028124, 5033.471679210663]}}, {"type": "Feature", "properties": {"num": 280, "osm_id": 688327775, "housenumber": null, "area_m2": 118.2, "px_x": 3352.7, "px_y": 5049.5, "clat": 50.31728324519815, "clon": 83.52206142472056}, "geometry": {"type": "Point", "coordinates": [3352.725420050323, 5049.453725107014]}}, {"type": "Feature", "properties": {"num": 281, "osm_id": 688327703, "housenumber": "42", "area_m2": 242.3, "px_x": 3501.8, "px_y": 5022.3, "clat": 50.31737632509513, "clon": 83.5228609097407}, "geometry": {"type": "Point", "coordinates": [3501.7602297365665, 5022.280040979385]}}, {"type": "Feature", "properties": {"num": 282, "osm_id": 685678873, "housenumber": "51", "area_m2": 143.9, "px_x": 3649.7, "px_y": 5041.9, "clat": 50.31730920795696, "clon": 83.52365459429936}, "geometry": {"type": "Point", "coordinates": [3649.7137550339103, 5041.874179661274]}}, {"type": "Feature", "properties": {"num": 283, "osm_id": 688327448, "housenumber": "21", "area_m2": 138.0, "px_x": 2342.5, "px_y": 5124.4, "clat": 50.3170265, "clon": 83.51664215}, "geometry": {"type": "Point", "coordinates": [2342.4993917122483, 5124.407474204898]}}, {"type": "Feature", "properties": {"num": 284, "osm_id": 688327501, "housenumber": "8", "area_m2": 132.9, "px_x": 2896.6, "px_y": 5129.8, "clat": 50.31700802524357, "clon": 83.51961454093025}, "geometry": {"type": "Point", "coordinates": [2896.5932214185596, 5129.800947032869]}}, {"type": "Feature", "properties": {"num": 285, "osm_id": 688327705, "housenumber": null, "area_m2": 48.3, "px_x": 3434.4, "px_y": 5094.9, "clat": 50.31712755, "clon": 83.5224995}, "geometry": {"type": "Point", "coordinates": [3434.3885710164905, 5094.907160282135]}}, {"type": "Feature", "properties": {"num": 286, "osm_id": 688327707, "housenumber": "44", "area_m2": 51.5, "px_x": 3513.0, "px_y": 5101.1, "clat": 50.31710620600411, "clon": 83.52292112479651}, "geometry": {"type": "Point", "coordinates": [3512.985129714012, 5101.138284545392]}}, {"type": "Feature", "properties": {"num": 287, "osm_id": 688327517, "housenumber": "34", "area_m2": 170.1, "px_x": 3171.9, "px_y": 5137.8, "clat": 50.31698061081446, "clon": 83.52109122532215}, "geometry": {"type": "Point", "coordinates": [3171.867143712938, 5137.804241020232]}}, {"type": "Feature", "properties": {"num": 288, "osm_id": 688327773, "housenumber": "31", "area_m2": 220.9, "px_x": 3273.7, "px_y": 5142.5, "clat": 50.31696441199626, "clon": 83.52163768016437}, "geometry": {"type": "Point", "coordinates": [3273.733709514141, 5142.533277850598]}}, {"type": "Feature", "properties": {"num": 289, "osm_id": 688327713, "housenumber": "46", "area_m2": 182.1, "px_x": 3507.1, "px_y": 5161.1, "clat": 50.31690080630032, "clon": 83.52288977510871}, "geometry": {"type": "Point", "coordinates": [3507.141124330461, 5161.1021278984845]}}, {"type": "Feature", "properties": {"num": 290, "osm_id": 688327446, "housenumber": "23", "area_m2": 180.5, "px_x": 2336.7, "px_y": 5198.9, "clat": 50.3167713, "clon": 83.5166108}, "geometry": {"type": "Point", "coordinates": [2336.6553281396627, 5198.909719675779]}}, {"type": "Feature", "properties": {"num": 291, "osm_id": 688327444, "housenumber": "16", "area_m2": 244.8, "px_x": 2465.8, "px_y": 5248.3, "clat": 50.31660222300534, "clon": 83.5173035416542}, "geometry": {"type": "Point", "coordinates": [2465.7917321920395, 5248.26927902922]}}, {"type": "Feature", "properties": {"num": 292, "osm_id": 688327429, "housenumber": "18", "area_m2": 138.2, "px_x": 2628.5, "px_y": 5241.5, "clat": 50.31662538710426, "clon": 83.51817647437929}, "geometry": {"type": "Point", "coordinates": [2628.518186442554, 5241.506869018078]}}, {"type": "Feature", "properties": {"num": 293, "osm_id": 688327427, "housenumber": "20", "area_m2": 133.8, "px_x": 2705.6, "px_y": 5243.9, "clat": 50.31661703892135, "clon": 83.51859017487799}, "geometry": {"type": "Point", "coordinates": [2705.6375489532948, 5243.94399574399]}}, {"type": "Feature", "properties": {"num": 294, "osm_id": 688327425, "housenumber": "22", "area_m2": 125.3, "px_x": 2808.9, "px_y": 5248.9, "clat": 50.31660015, "clon": 83.51914395}, "geometry": {"type": "Point", "coordinates": [2808.86871381104, 5248.874461576343]}}, {"type": "Feature", "properties": {"num": 295, "osm_id": 685678872, "housenumber": null, "area_m2": 1357.8, "px_x": 3778.3, "px_y": 5191.5, "clat": 50.316796700000005, "clon": 83.5243443}, "geometry": {"type": "Point", "coordinates": [3778.284216322005, 5191.494545448571]}}, {"type": "Feature", "properties": {"num": 296, "osm_id": 685805067, "housenumber": null, "area_m2": 1036.7, "px_x": 4450.3, "px_y": 5209.7, "clat": 50.3167344, "clon": 83.5279492}, "geometry": {"type": "Point", "coordinates": [4450.286282517016, 5209.682150751352]}}, {"type": "Feature", "properties": {"num": 297, "osm_id": 688327504, "housenumber": "24", "area_m2": 122.0, "px_x": 2887.8, "px_y": 5251.6, "clat": 50.31659076172762, "clon": 83.51956712525624}, "geometry": {"type": "Point", "coordinates": [2887.7542991414666, 5251.615225322545]}}, {"type": "Feature", "properties": {"num": 298, "osm_id": 688327510, "housenumber": "21А", "area_m2": 244.0, "px_x": 3032.6, "px_y": 5252.8, "clat": 50.31658655471428, "clon": 83.5203440252907}, "geometry": {"type": "Point", "coordinates": [3032.5789623484015, 5252.84339889884]}}, {"type": "Feature", "properties": {"num": 299, "osm_id": 688327507, "housenumber": null, "area_m2": 94.2, "px_x": 3115.8, "px_y": 5266.6, "clat": 50.3165396, "clon": 83.52079020000001}, "geometry": {"type": "Point", "coordinates": [3115.751956485212, 5266.551106330007]}}, {"type": "Feature", "properties": {"num": 300, "osm_id": 688327513, "housenumber": "36", "area_m2": 157.7, "px_x": 3173.9, "px_y": 5259.3, "clat": 50.31656455, "clon": 83.52110210000001}, "geometry": {"type": "Point", "coordinates": [3173.894330598414, 5259.267338842154]}}, {"type": "Feature", "properties": {"num": 301, "osm_id": 688327771, "housenumber": "33", "area_m2": 172.6, "px_x": 3271.8, "px_y": 5251.6, "clat": 50.31659075, "clon": 83.52162704999999}, "geometry": {"type": "Point", "coordinates": [3271.752103254199, 5251.618649024516]}}, {"type": "Feature", "properties": {"num": 302, "osm_id": 688327710, "housenumber": "48", "area_m2": 132.0, "px_x": 3514.6, "px_y": 5268.2, "clat": 50.316533899999996, "clon": 83.52292985}, "geometry": {"type": "Point", "coordinates": [3514.611625522375, 5268.215132836252]}}, {"type": "Feature", "properties": {"num": 303, "osm_id": 685678867, "housenumber": null, "area_m2": 81.4, "px_x": 3684.2, "px_y": 5296.1, "clat": 50.31643835266857, "clon": 83.52383952469043}, "geometry": {"type": "Point", "coordinates": [3684.1872785389423, 5296.108663134277]}}, {"type": "Feature", "properties": {"num": 304, "osm_id": 685678869, "housenumber": null, "area_m2": 264.4, "px_x": 3871.5, "px_y": 5287.5, "clat": 50.316467849999995, "clon": 83.5248445}, "geometry": {"type": "Point", "coordinates": [3871.5282545760274, 5287.497390337288]}}, {"type": "Feature", "properties": {"num": 305, "osm_id": 685678871, "housenumber": null, "area_m2": 1576.4, "px_x": 3981.4, "px_y": 5298.3, "clat": 50.31643085, "clon": 83.52543375}, "geometry": {"type": "Point", "coordinates": [3981.372415997088, 5298.298946034163]}}, {"type": "Feature", "properties": {"num": 306, "osm_id": 688327478, "housenumber": "15", "area_m2": 171.0, "px_x": 2375.9, "px_y": 5359.0, "clat": 50.316222755820895, "clon": 83.51682142550762}, "geometry": {"type": "Point", "coordinates": [2375.9187685400248, 5359.0485425964]}}, {"type": "Feature", "properties": {"num": 307, "osm_id": 688327476, "housenumber": "17", "area_m2": 191.9, "px_x": 2461.1, "px_y": 5361.3, "clat": 50.31621507488323, "clon": 83.51727851317322}, "geometry": {"type": "Point", "coordinates": [2461.126085177064, 5361.290858104825]}}, {"type": "Feature", "properties": {"num": 308, "osm_id": 688092393, "housenumber": null, "area_m2": 304.9, "px_x": 3145.9, "px_y": 5369.9, "clat": 50.31618545349143, "clon": 83.52095202467956}, "geometry": {"type": "Point", "coordinates": [3145.918263182044, 5369.938302360475]}}, {"type": "Feature", "properties": {"num": 309, "osm_id": 685678870, "housenumber": null, "area_m2": 939.2, "px_x": 3733.4, "px_y": 5346.9, "clat": 50.31626435, "clon": 83.5241034}, "geometry": {"type": "Point", "coordinates": [3733.377201490104, 5346.905842665583]}}, {"type": "Feature", "properties": {"num": 310, "osm_id": 688327473, "housenumber": "19", "area_m2": 175.6, "px_x": 2625.6, "px_y": 5382.0, "clat": 50.31614428842149, "clon": 83.51816107532399}, "geometry": {"type": "Point", "coordinates": [2625.647594474256, 5381.9557114169]}}, {"type": "Feature", "properties": {"num": 311, "osm_id": 688327469, "housenumber": "21", "area_m2": 166.2, "px_x": 2703.8, "px_y": 5380.8, "clat": 50.31614837521529, "clon": 83.51858010578721}, "geometry": {"type": "Point", "coordinates": [2703.760534390807, 5380.762645214796]}}, {"type": "Feature", "properties": {"num": 312, "osm_id": 688327460, "housenumber": "23", "area_m2": 182.6, "px_x": 2812.3, "px_y": 5377.5, "clat": 50.31615938724846, "clon": 83.51916213072606}, "geometry": {"type": "Point", "coordinates": [2812.257846787572, 5377.547878988087]}}, {"type": "Feature", "properties": {"num": 313, "osm_id": 688327458, "housenumber": "25", "area_m2": 185.9, "px_x": 2882.2, "px_y": 5378.3, "clat": 50.31615683841512, "clon": 83.519537524685}, "geometry": {"type": "Point", "coordinates": [2882.236352726817, 5378.291965380311]}}, {"type": "Feature", "properties": {"num": 314, "osm_id": 688327457, "housenumber": "27", "area_m2": 172.1, "px_x": 3040.1, "px_y": 5377.5, "clat": 50.31615945, "clon": 83.5203845}, "geometry": {"type": "Point", "coordinates": [3040.1239950209856, 5377.529559794813]}}, {"type": "Feature", "properties": {"num": 315, "osm_id": 688092395, "housenumber": null, "area_m2": 1576.4, "px_x": 3443.6, "px_y": 5409.1, "clat": 50.31605125, "clon": 83.52254895}, "geometry": {"type": "Point", "coordinates": [3443.6067191436887, 5409.116583310068]}}, {"type": "Feature", "properties": {"num": 316, "osm_id": 685678866, "housenumber": null, "area_m2": 140.5, "px_x": 3629.5, "px_y": 5376.2, "clat": 50.31616397799112, "clon": 83.52354611418971}, "geometry": {"type": "Point", "coordinates": [3629.4915968999267, 5376.207693513483]}}, {"type": "Feature", "properties": {"num": 317, "osm_id": 685678868, "housenumber": null, "area_m2": 78.7, "px_x": 3928.3, "px_y": 5386.4, "clat": 50.31612922469087, "clon": 83.52514884216517}, "geometry": {"type": "Point", "coordinates": [3928.261746160686, 5386.35329670459]}}, {"type": "Feature", "properties": {"num": 318, "osm_id": 685805068, "housenumber": null, "area_m2": 776.8, "px_x": 4477.4, "px_y": 5372.0, "clat": 50.31617849571344, "clon": 83.52809451622466}, "geometry": {"type": "Point", "coordinates": [4477.37519018352, 5371.969502463937]}}, {"type": "Feature", "properties": {"num": 319, "osm_id": 685678865, "housenumber": null, "area_m2": 159.5, "px_x": 3686.1, "px_y": 5443.2, "clat": 50.31593435, "clon": 83.52384995}, "geometry": {"type": "Point", "coordinates": [3686.1306971013546, 5443.243332922459]}}, {"type": "Feature", "properties": {"num": 320, "osm_id": 688327471, "housenumber": "36", "area_m2": 174.8, "px_x": 2623.9, "px_y": 5507.7, "clat": 50.3157136, "clon": 83.51815155}, "geometry": {"type": "Point", "coordinates": [2623.8719453811646, 5507.686901982874]}}, {"type": "Feature", "properties": {"num": 321, "osm_id": 688327467, "housenumber": "34", "area_m2": 158.8, "px_x": 2699.5, "px_y": 5510.2, "clat": 50.3157050254615, "clon": 83.5185574949414}, "geometry": {"type": "Point", "coordinates": [2699.5455672368407, 5510.190061807632]}}, {"type": "Feature", "properties": {"num": 322, "osm_id": 688327465, "housenumber": "32", "area_m2": 185.2, "px_x": 2811.1, "px_y": 5508.3, "clat": 50.3157116, "clon": 83.51915605}, "geometry": {"type": "Point", "coordinates": [2811.1243172958493, 5508.270760811865]}}, {"type": "Feature", "properties": {"num": 323, "osm_id": 688327463, "housenumber": "30", "area_m2": 171.9, "px_x": 2878.9, "px_y": 5507.2, "clat": 50.3157152, "clon": 83.51951945}, "geometry": {"type": "Point", "coordinates": [2878.866987235844, 5507.219814904034]}}, {"type": "Feature", "properties": {"num": 324, "osm_id": 688327455, "housenumber": "28", "area_m2": 166.5, "px_x": 3038.5, "px_y": 5505.8, "clat": 50.31571993814945, "clon": 83.52037593007411}, "geometry": {"type": "Point", "coordinates": [3038.5264450460672, 5505.836609564722]}}, {"type": "Feature", "properties": {"num": 325, "osm_id": 688092392, "housenumber": null, "area_m2": 663.6, "px_x": 3269.3, "px_y": 5548.1, "clat": 50.31557522510923, "clon": 83.52161365896664}, "geometry": {"type": "Point", "coordinates": [3269.25583370775, 5548.082544788718]}}, {"type": "Feature", "properties": {"num": 326, "osm_id": 688092390, "housenumber": null, "area_m2": 201.7, "px_x": 3349.0, "px_y": 5541.8, "clat": 50.315596899999996, "clon": 83.52204145}, "geometry": {"type": "Point", "coordinates": [3349.001862257719, 5541.755023472011]}}, {"type": "Feature", "properties": {"num": 327, "osm_id": 685678863, "housenumber": null, "area_m2": 268.4, "px_x": 3914.7, "px_y": 5538.9, "clat": 50.31560674954918, "clon": 83.52507593692586}, "geometry": {"type": "Point", "coordinates": [3914.671224527061, 5538.879657052457]}}, {"type": "Feature", "properties": {"num": 328, "osm_id": 685805066, "housenumber": null, "area_m2": 243.7, "px_x": 4538.7, "px_y": 5525.3, "clat": 50.3156532, "clon": 83.52842365000001}, "geometry": {"type": "Point", "coordinates": [4538.730172879994, 5525.319427743554]}}, {"type": "Feature", "properties": {"num": 329, "osm_id": 685678864, "housenumber": null, "area_m2": 375.6, "px_x": 3713.6, "px_y": 5556.2, "clat": 50.315547260463966, "clon": 83.52399718346018}, "geometry": {"type": "Point", "coordinates": [3713.577003374696, 5556.246221296489]}}, {"type": "Feature", "properties": {"num": 330, "osm_id": 685678862, "housenumber": null, "area_m2": 258.8, "px_x": 4088.9, "px_y": 5556.3, "clat": 50.315546987660866, "clon": 83.52601067633788}, "geometry": {"type": "Point", "coordinates": [4088.919280298054, 5556.325860269368]}}, {"type": "Feature", "properties": {"num": 331, "osm_id": 688327668, "housenumber": "37", "area_m2": 203.4, "px_x": 2639.7, "px_y": 5624.3, "clat": 50.315314102726035, "clon": 83.51823622514935}, "geometry": {"type": "Point", "coordinates": [2639.6565372794867, 5624.31141942367]}}, {"type": "Feature", "properties": {"num": 332, "osm_id": 688327666, "housenumber": "35", "area_m2": 201.2, "px_x": 2736.4, "px_y": 5625.6, "clat": 50.31530985, "clon": 83.5187554}, "geometry": {"type": "Point", "coordinates": [2736.43774407357, 5625.552904777229]}}, {"type": "Feature", "properties": {"num": 333, "osm_id": 688327664, "housenumber": "33", "area_m2": 195.4, "px_x": 2831.7, "px_y": 5625.3, "clat": 50.31531067479696, "clon": 83.51926667476376}, "geometry": {"type": "Point", "coordinates": [2831.7462679222226, 5625.312124326825]}}, {"type": "Feature", "properties": {"num": 334, "osm_id": 688327662, "housenumber": "31", "area_m2": 227.1, "px_x": 2928.6, "px_y": 5627.9, "clat": 50.3153016467739, "clon": 83.51978617494669}, "geometry": {"type": "Point", "coordinates": [2928.5881210565567, 5627.9476472735405]}}, {"type": "Feature", "properties": {"num": 335, "osm_id": 688327660, "housenumber": "29", "area_m2": 213.3, "px_x": 3026.8, "px_y": 5625.5, "clat": 50.31531017485568, "clon": 83.52031302991772}, "geometry": {"type": "Point", "coordinates": [3026.801006041467, 5625.458070654422]}}, {"type": "Feature", "properties": {"num": 336, "osm_id": 688092389, "housenumber": null, "area_m2": 207.3, "px_x": 3358.2, "px_y": 5653.3, "clat": 50.31521495, "clon": 83.5220908}, "geometry": {"type": "Point", "coordinates": [3358.2013690322638, 5653.256743799895]}}, {"type": "Feature", "properties": {"num": 337, "osm_id": 688092387, "housenumber": null, "area_m2": 1067.8, "px_x": 3271.3, "px_y": 5762.3, "clat": 50.3148414347647, "clon": 83.52162462573847}, "geometry": {"type": "Point", "coordinates": [3271.3001881465316, 5762.2952577620745]}}]}